{
"type": "FeatureCollection",
"name": "Bashkimi i Komunave Shqiptare te Vardarit Perendimor (BKSVP)",
"crs": { "type": "name", "properties": { "name": "urn:ogc:def:crs:OGC:1.3:CRS84" } },
"features": [
{ "type": "Feature", "properties": { "fid": 6, "GID_1": "MKD.6_1", "GID_0": "MKD", "COUNTRY": "North Macedonia", "NAME_1": "Bogovinje", "VARNAME_1": "NA", "NL_NAME_1": "NA", "TYPE_1": "Opština", "ENGTYPE_1": "Municipality", "CC_1": "NA", "HASC_1": "MK.VJ", "ISO_1": "MK-601" }, "geometry": { "type": "MultiPolygon", "coordinates": [ [ [ [ 20.763475418000155, 41.916282654000156 ], [ 20.763738633000173, 41.916557312000123 ], [ 20.748201370000061, 41.925094604000094 ], [ 20.754390716000046, 41.939636231 ], [ 20.754611968000063, 41.943500519 ], [ 20.76994705200002, 41.94889068700013 ], [ 20.781312942000056, 41.957580567000093 ], [ 20.796688080000138, 41.963596344000166 ], [ 20.814075470000091, 41.968276978 ], [ 20.826105118000157, 41.9749641410001 ], [ 20.836137771000097, 41.982318878000115 ], [ 20.847503661000076, 41.987667084000122 ], [ 20.862878799000043, 41.988334655000074 ], [ 20.889619827000104, 41.982986450000112 ], [ 20.920373916000187, 41.978305818000081 ], [ 20.929733277000025, 41.974296569999979 ], [ 20.940431595, 41.964935304000107 ], [ 20.95380210899998, 41.95289993200015 ], [ 20.95791244500009, 41.952560424000126 ], [ 20.958147048000058, 41.948223113000154 ], [ 20.958816527000124, 41.933513641000047 ], [ 20.962827683000171, 41.928833007000037 ], [ 20.976198197000144, 41.928833007000037 ], [ 20.98756408700018, 41.928165436000143 ], [ 20.986896515000183, 41.920810699000072 ], [ 20.983552933999988, 41.915462493000064 ], [ 20.979541778000112, 41.906101227000192 ], [ 20.972856522000143, 41.898746490000121 ], [ 20.965503693000073, 41.894737244000055 ], [ 20.95480346700009, 41.893398284000114 ], [ 20.950124740000092, 41.888050078999981 ], [ 20.950794220999967, 41.883369447000177 ], [ 20.954137803000037, 41.878021241000113 ], [ 20.955472946000157, 41.873344422000173 ], [ 20.954137803000037, 41.873344422000173 ], [ 20.948341369000104, 41.873344422000173 ], [ 20.944107055000188, 41.873344422000173 ], [ 20.937421799000049, 41.878021241000113 ], [ 20.924051285000075, 41.88002777000014 ], [ 20.898645400000021, 41.891391755000086 ], [ 20.869897843000103, 41.902759553000067 ], [ 20.837139130000082, 41.910781861000032 ], [ 20.805715561000056, 41.915462493000064 ], [ 20.774961472000143, 41.918804169000168 ], [ 20.763475418000155, 41.916282654000156 ] ] ] ] } },
{ "type": "Feature", "properties": { "fid": 7, "GID_1": "MKD.8_1", "GID_0": "MKD", "COUNTRY": "North Macedonia", "NAME_1": "Brvenica", "VARNAME_1": "NA", "NL_NAME_1": "NA", "TYPE_1": "Opština", "ENGTYPE_1": "Municipality", "CC_1": "NA", "HASC_1": "MK.BN", "ISO_1": "MK-602" }, "geometry": { "type": "MultiPolygon", "coordinates": [ [ [ [ 20.948341369000104, 41.873344422000173 ], [ 20.954137803000037, 41.873344422000173 ], [ 20.955472946000157, 41.873344422000173 ], [ 20.954137803000037, 41.878021241000113 ], [ 20.950794220999967, 41.883369447000177 ], [ 20.950124740000092, 41.888050078999981 ], [ 20.95480346700009, 41.893398284000114 ], [ 20.965503693000073, 41.894737244000055 ], [ 20.972856522000143, 41.898746490000121 ], [ 20.979541778000112, 41.906101227000192 ], [ 20.983552933999988, 41.915462493000064 ], [ 20.986896515000183, 41.920810699000072 ], [ 20.98756408700018, 41.928165436000143 ], [ 20.976198197000144, 41.928833007000037 ], [ 20.962827683000171, 41.928833007000037 ], [ 20.958816527000124, 41.933513641000047 ], [ 20.958147048000058, 41.948223113000154 ], [ 20.95791244500009, 41.952560424000126 ], [ 20.961824418000049, 41.952232361000029 ], [ 20.963832855000192, 41.956245422000165 ], [ 20.969179153000084, 41.964267730000131 ], [ 20.975196837000055, 41.966941833000135 ], [ 20.981212616000164, 41.96627426200007 ], [ 20.989238740000076, 41.961593627000127 ], [ 21.001937865000173, 41.954906464000089 ], [ 21.009962081000083, 41.954238892000092 ], [ 21.02009963900008, 41.952747345000034 ], [ 21.023332595000056, 41.948223113000154 ], [ 21.030017853000061, 41.939529418000177 ], [ 21.041383744000143, 41.930839539000146 ], [ 21.050075531000175, 41.930171967000149 ], [ 21.055423737000183, 41.928165436000143 ], [ 21.055423737000183, 41.919471741000166 ], [ 21.057428360000017, 41.904766082000094 ], [ 21.066789627, 41.900753021000185 ], [ 21.074142456000061, 41.900753021000185 ], [ 21.080158233000191, 41.900753021000185 ], [ 21.084840775000032, 41.892063141000051 ], [ 21.084840775000032, 41.888717652000082 ], [ 21.082166672000028, 41.884040833000086 ], [ 21.073474885000167, 41.882701873000144 ], [ 21.070800782000163, 41.875347138000109 ], [ 21.070131301000117, 41.865318298000091 ], [ 21.070800782000163, 41.85662841900006 ], [ 21.080827712000087, 41.855293274000132 ], [ 21.096204758000113, 41.854621887000121 ], [ 21.108240127000045, 41.854621887000121 ], [ 21.120941162000122, 41.846599579000156 ], [ 21.127628326999968, 41.841918945000145 ], [ 21.138994217000175, 41.841918945000145 ], [ 21.152364731000148, 41.841918945000145 ], [ 21.159719466000183, 41.842590333000089 ], [ 21.161724090000121, 41.84726715000005 ], [ 21.16373062200006, 41.852615356000115 ], [ 21.171083451000129, 41.854621887000121 ], [ 21.178438186000164, 41.854621887000121 ], [ 21.183786392, 41.84860611 ], [ 21.183786392, 41.839111328000115 ], [ 21.179775238000161, 41.839916230000085 ], [ 21.166404724000188, 41.839916230000085 ], [ 21.147018433000085, 41.829216004000045 ], [ 21.123617172000024, 41.80982971300017 ], [ 21.106901169000082, 41.789772033000077 ], [ 21.092863083000111, 41.779743196000084 ], [ 21.079044341000042, 41.777362824000136 ], [ 21.074476242000173, 41.783756256000174 ], [ 21.06578636200004, 41.792446136000081 ], [ 21.055091857999969, 41.80314254700005 ], [ 21.037038803000087, 41.813838959000066 ], [ 21.029014587000177, 41.821193696000137 ], [ 21.030351639000116, 41.828548433000151 ], [ 21.027677536000112, 41.836570741000116 ], [ 21.021663665000176, 41.836570741000116 ], [ 21.00628471400006, 41.835903168000016 ], [ 20.984888076000175, 41.837909699000079 ], [ 20.963497162000067, 41.84726715000005 ], [ 20.955888748000064, 41.849552155000026 ], [ 20.950124740000092, 41.851280213 ], [ 20.949457169000027, 41.85796737600009 ], [ 20.950124740000092, 41.869331359 ], [ 20.948341369000104, 41.873344422000173 ] ] ] ] } },
{ "type": "Feature", "properties": { "fid": 8, "GID_1": "MKD.11_1", "GID_0": "MKD", "COUNTRY": "North Macedonia", "NAME_1": "Čaška", "VARNAME_1": "Caska", "NL_NAME_1": "NA", "TYPE_1": "Opština", "ENGTYPE_1": "Municipality", "CC_1": "NA", "HASC_1": "MK.CA", "ISO_1": "NA" }, "geometry": { "type": "MultiPolygon", "coordinates": [ [ [ [ 21.602706909000062, 41.443557740000131 ], [ 21.601539612000181, 41.447490692000144 ], [ 21.595149993000064, 41.454864502000078 ], [ 21.585813523000127, 41.460762024000076 ], [ 21.574014665000163, 41.46321868900003 ], [ 21.559270859000094, 41.46616745 ], [ 21.549930572000051, 41.467643738000163 ], [ 21.543542861999981, 41.470100404 ], [ 21.540100098000096, 41.474033356000177 ], [ 21.538135529000158, 41.48140335100004 ], [ 21.535184860000186, 41.488777160999973 ], [ 21.532726288000163, 41.493202209000174 ], [ 21.525846480000041, 41.494674682999971 ], [ 21.519458771000075, 41.494182587000125 ], [ 21.513559342000178, 41.490741731000185 ], [ 21.507169723000061, 41.490249633000133 ], [ 21.497831345000122, 41.490249633000133 ], [ 21.488000869000132, 41.490249633000133 ], [ 21.477678298, 41.494182587000125 ], [ 21.470798493000189, 41.500080109000123 ], [ 21.46441078100014, 41.508930206000059 ], [ 21.462934495000013, 41.518760681000174 ], [ 21.462934495000013, 41.532520294000051 ], [ 21.460475922000114, 41.54431533900015 ], [ 21.455562592000149, 41.553657532000159 ], [ 21.444747925, 41.556606292000083 ], [ 21.439342499000077, 41.560047151000106 ], [ 21.434427261000167, 41.566925048000144 ], [ 21.431478501000072, 41.57528305000011 ], [ 21.423122407000051, 41.58216476500013 ], [ 21.406902314000092, 41.587078095000038 ], [ 21.396091460000036, 41.590026856000065 ], [ 21.382818223000186, 41.592975617000036 ], [ 21.37438964800009, 41.592975617000036 ], [ 21.374910355000111, 41.595935823 ], [ 21.375719070000173, 41.608051300000113 ], [ 21.375719070000173, 41.617740632000164 ], [ 21.371681214000034, 41.625816344999976 ], [ 21.372488022000141, 41.632274628000118 ], [ 21.375719070000173, 41.635505677000026 ], [ 21.381370545000152, 41.639541626000096 ], [ 21.390253067, 41.647617340000181 ], [ 21.396713257000044, 41.656501771000137 ], [ 21.395303726, 41.663547516000051 ], [ 21.399944306000123, 41.675880432000099 ], [ 21.403173447000029, 41.689609527000187 ], [ 21.408016204000091, 41.695262910000167 ], [ 21.419324874000154, 41.698490143000072 ], [ 21.42659187400011, 41.704143524000074 ], [ 21.432241439000109, 41.713832855000192 ], [ 21.437896729000158, 41.721908569999982 ], [ 21.444356918999972, 41.731597900000054 ], [ 21.454856873000153, 41.73805999800004 ], [ 21.474235534000115, 41.742095947000109 ], [ 21.483053207000012, 41.744617462000065 ], [ 21.488914490000127, 41.740318297999977 ], [ 21.502935409000031, 41.740756989000147 ], [ 21.520900726000093, 41.741195679000043 ], [ 21.541931152000075, 41.741634369999986 ], [ 21.563402175000135, 41.742069245000039 ], [ 21.570945739000081, 41.740394592000087 ], [ 21.569974898000112, 41.738128663000111 ], [ 21.576108933000057, 41.731555938000099 ], [ 21.584871291000127, 41.718410492000089 ], [ 21.591882705000103, 41.707019806000176 ], [ 21.597141266000051, 41.70395278899997 ], [ 21.602836608000018, 41.70395278899997 ], [ 21.607217788000185, 41.706142427000145 ], [ 21.610723495000059, 41.708770753000181 ], [ 21.615982056000064, 41.708770753000181 ], [ 21.621677398000031, 41.707893372000171 ], [ 21.629125595000119, 41.704826355000137 ], [ 21.637451172000056, 41.702198029000101 ], [ 21.649719238000102, 41.700447083000029 ], [ 21.660673141000018, 41.700008392000029 ], [ 21.671190261000163, 41.696063995000088 ], [ 21.677324296000108, 41.685111999000185 ], [ 21.680830002000107, 41.66846084600013 ], [ 21.68915367000011, 41.658821107000051 ], [ 21.691783906000126, 41.65049362200017 ], [ 21.691345215000183, 41.644798280000032 ], [ 21.693098068000154, 41.639102936000029 ], [ 21.698354721000157, 41.632968903000119 ], [ 21.703613280000127, 41.632530213000052 ], [ 21.708871842000178, 41.634284971999989 ], [ 21.71193885800011, 41.636035919000051 ], [ 21.718072891000077, 41.640419007000105 ], [ 21.721141814000021, 41.64304733299997 ], [ 21.725959777000185, 41.643924714000036 ], [ 21.72946739200006, 41.639980317000095 ], [ 21.729902267000057, 41.633407593000186 ], [ 21.730342865000068, 41.622890473000041 ], [ 21.732093810000094, 41.614566803 ], [ 21.740858078000144, 41.607116699000187 ], [ 21.763641357999973, 41.602737427000193 ], [ 21.773412704000066, 41.601943969000104 ], [ 21.773117065, 41.600467682000101 ], [ 21.772241593000047, 41.589965820000145 ], [ 21.771804810000049, 41.58252716200019 ], [ 21.7779293050001, 41.575962067000091 ], [ 21.790182114000061, 41.568962097000167 ], [ 21.801996231000146, 41.563274385000113 ], [ 21.805934905000072, 41.557147980000138 ], [ 21.805934905000072, 41.547519684000179 ], [ 21.801559448000148, 41.54008102500012 ], [ 21.794555664000086, 41.53483200200003 ], [ 21.787994384000058, 41.528705597 ], [ 21.786243440000135, 41.519515992000038 ], [ 21.785806657000137, 41.509014130000082 ], [ 21.788869858, 41.500263215000189 ], [ 21.799371720000124, 41.495449066000049 ], [ 21.811185836000107, 41.489761353000063 ], [ 21.816083908000167, 41.487903595000034 ], [ 21.81302833500007, 41.47961425699998 ], [ 21.811489105000078, 41.473464966000051 ], [ 21.809953691000032, 41.460651398000152 ], [ 21.809783935000041, 41.456588744999976 ], [ 21.808929443000181, 41.457576752000136 ], [ 21.804315567000174, 41.461673736000193 ], [ 21.792526244000044, 41.46321487400013 ], [ 21.786376953000058, 41.458599090000178 ], [ 21.780738832000111, 41.450397493000025 ], [ 21.772024154000121, 41.442710878000071 ], [ 21.772024154000121, 41.441410064000081 ], [ 21.766685486000142, 41.444541931000117 ], [ 21.761770248000062, 41.45191574100005 ], [ 21.758329392000121, 41.457813263000048 ], [ 21.748992919000102, 41.461742402000027 ], [ 21.739160538000192, 41.464694978000068 ], [ 21.731788635000157, 41.467643738000163 ], [ 21.727855681000165, 41.472557069000175 ], [ 21.722448348000171, 41.474033356000177 ], [ 21.715568543000131, 41.474033356000177 ], [ 21.70770454400008, 41.471084594999979 ], [ 21.702789307000046, 41.468132019000109 ], [ 21.692468643000041, 41.467151643000193 ], [ 21.686079026000073, 41.467151643000193 ], [ 21.676738739000086, 41.466659545000141 ], [ 21.673789978000059, 41.465183258000138 ], [ 21.67083931000019, 41.461254118999989 ], [ 21.670347214000117, 41.452896118000069 ], [ 21.669366836000052, 41.441593170000147 ], [ 21.661994935000166, 41.429798127000026 ], [ 21.656587601000069, 41.427829743000075 ], [ 21.647249222000028, 41.425865173000091 ], [ 21.637910844000089, 41.426357269000107 ], [ 21.63594436700015, 41.431762695000089 ], [ 21.630538941, 41.438152314000035 ], [ 21.623165131000064, 41.442085266000163 ], [ 21.615791320000085, 41.443065644000114 ], [ 21.606945038000163, 41.443557740000131 ], [ 21.602706909000062, 41.443557740000131 ] ] ] ] } },
{ "type": "Feature", "properties": { "fid": 10, "GID_1": "MKD.16_1", "GID_0": "MKD", "COUNTRY": "North Macedonia", "NAME_1": "Debar", "VARNAME_1": "NA", "NL_NAME_1": "NA", "TYPE_1": "Opština", "ENGTYPE_1": "Municipality", "CC_1": "NA", "HASC_1": "MK.DB", "ISO_1": "MK-303" }, "geometry": { "type": "MultiPolygon", "coordinates": [ [ [ [ 20.474078544000122, 41.504006641000103 ], [ 20.473188401000073, 41.504734039000084 ], [ 20.473045349000131, 41.504852295000092 ], [ 20.473022461000028, 41.505046844000105 ], [ 20.472229003999985, 41.512062073000152 ], [ 20.464685440000039, 41.514869689000079 ], [ 20.461034774000154, 41.516227722999986 ], [ 20.459917069000142, 41.51804351800007 ], [ 20.458995819000108, 41.519542695000041 ], [ 20.455766677000099, 41.524791719000177 ], [ 20.456232070000169, 41.525255205000178 ], [ 20.459743501000162, 41.528766633000089 ], [ 20.463481903000059, 41.532512666000173 ], [ 20.467941285000052, 41.543773651000095 ], [ 20.47039795, 41.549972534000062 ], [ 20.471040725000023, 41.551551818000178 ], [ 20.471469999000192, 41.552091814000107 ], [ 20.472845077000102, 41.553821564000032 ], [ 20.475711822000051, 41.557441711000195 ], [ 20.48975372200016, 41.556663513000103 ], [ 20.503181457000153, 41.561496734000059 ], [ 20.519887924000159, 41.565715789000194 ], [ 20.532689094000091, 41.568759918000069 ], [ 20.547630309000112, 41.57704925500019 ], [ 20.553871154000149, 41.580749511000079 ], [ 20.573120116000155, 41.564510345000087 ], [ 20.598190308000028, 41.550930024000081 ], [ 20.631618500000116, 41.545707704000165 ], [ 20.643110276000073, 41.545707704000165 ], [ 20.664003372000025, 41.532127380000077 ], [ 20.675493241000083, 41.51854705900007 ], [ 20.68907356200009, 41.507053375000112 ], [ 20.711009980000028, 41.500785829000051 ], [ 20.724590301000035, 41.495563507000156 ], [ 20.727724076000072, 41.48407363900003 ], [ 20.728933335000022, 41.478836060000162 ], [ 20.724151611000138, 41.480228423000028 ], [ 20.719469071000105, 41.482234955000138 ], [ 20.711450576000061, 41.480895997000175 ], [ 20.704763412000091, 41.474212646000069 ], [ 20.700750352000057, 41.465522767000039 ], [ 20.698745728000119, 41.454822540000123 ], [ 20.695404054, 41.442790986000148 ], [ 20.69272995100016, 41.436103821000074 ], [ 20.684833526000091, 41.424957276000157 ], [ 20.681364059000146, 41.428081512000063 ], [ 20.67837715100012, 41.425521850000166 ], [ 20.672359466000046, 41.434974669999974 ], [ 20.656690597000079, 41.437065125 ], [ 20.656690597000079, 41.450645447000113 ], [ 20.656690597000079, 41.466316224000082 ], [ 20.649377822000133, 41.48407363900003 ], [ 20.637886048000155, 41.48407363900003 ], [ 20.627437591000103, 41.491386414000146 ], [ 20.621173858000134, 41.510189057000048 ], [ 20.609682082000177, 41.52272415200008 ], [ 20.591922760000159, 41.524814605000131 ], [ 20.56789588900017, 41.524814605000131 ], [ 20.556407928000112, 41.510189057000048 ], [ 20.534469605000083, 41.499744415000066 ], [ 20.511486053000169, 41.491386414000146 ], [ 20.507722854000122, 41.488056183000026 ], [ 20.50709152200011, 41.488311767000027 ], [ 20.506465913000113, 41.493942261000143 ], [ 20.501853941999968, 41.496898652000084 ], [ 20.49553489800013, 41.495708466000167 ], [ 20.481321335000132, 41.498088838000115 ], [ 20.47558784600011, 41.502773285000046 ], [ 20.474078544000122, 41.504006641000103 ] ] ] ] } },
{ "type": "Feature", "properties": { "fid": 14, "GID_1": "MKD.26_1", "GID_0": "MKD", "COUNTRY": "North Macedonia", "NAME_1": "Gostivar", "VARNAME_1": "Kostovo", "NL_NAME_1": "NA", "TYPE_1": "Opština", "ENGTYPE_1": "Municipality", "CC_1": "NA", "HASC_1": "MK.GT", "ISO_1": "MK-604" }, "geometry": { "type": "MultiPolygon", "coordinates": [ [ [ [ 20.569585800000084, 41.786544800000115 ], [ 20.571292877000019, 41.786806107000189 ], [ 20.574102402000051, 41.795600891000049 ], [ 20.571286202000124, 41.802356721000194 ], [ 20.570135116000074, 41.803440094000052 ], [ 20.568092346000185, 41.807937622000054 ], [ 20.564786911000169, 41.814662934000125 ], [ 20.561578750000024, 41.824871062999989 ], [ 20.562271118000069, 41.83224487300015 ], [ 20.562610150000069, 41.839707375000103 ], [ 20.562843322000163, 41.849435807000191 ], [ 20.562847137000063, 41.850334168000188 ], [ 20.563261032000128, 41.857421876000046 ], [ 20.563300133000041, 41.85808181800013 ], [ 20.563339233000079, 41.858741760000044 ], [ 20.563371496000173, 41.859278038000184 ], [ 20.563622249000048, 41.8634812680001 ], [ 20.56362533600003, 41.863536835 ], [ 20.563734054000179, 41.865383149000024 ], [ 20.566881179000063, 41.869422913000108 ], [ 20.572557450000147, 41.871520996000072 ], [ 20.576768875000141, 41.873077392000084 ], [ 20.57814407300009, 41.87347221400006 ], [ 20.586748122000074, 41.875972748000038 ], [ 20.59109687800003, 41.878536225000119 ], [ 20.614374162000047, 41.857589721000181 ], [ 20.627861024000083, 41.848255159000189 ], [ 20.639274596000121, 41.85136795000011 ], [ 20.657949448000011, 41.866928101000099 ], [ 20.672475814000052, 41.866928101000099 ], [ 20.679738997000186, 41.857589721000181 ], [ 20.696338653000169, 41.852401733000079 ], [ 20.717090607000159, 41.85551452600015 ], [ 20.732509613000161, 41.861682893000079 ], [ 20.748037338000188, 41.842823029000158 ], [ 20.752231597, 41.841251373000148 ], [ 20.76493454000007, 41.840583802000083 ], [ 20.77897453300011, 41.840583802000083 ], [ 20.792345047000083, 41.839244842000141 ], [ 20.799030305000031, 41.833229065000182 ], [ 20.80504608200016, 41.820526124000139 ], [ 20.811063766000132, 41.813838959000066 ], [ 20.82844734300005, 41.806488037000065 ], [ 20.846498489000055, 41.804481507000162 ], [ 20.858531953000067, 41.812503816000174 ], [ 20.883937836000086, 41.815177919 ], [ 20.91602897700011, 41.809162140000126 ], [ 20.934747697000148, 41.813838959000066 ], [ 20.944776534000084, 41.822532654000042 ], [ 20.942771913000058, 41.829216004000045 ], [ 20.940095902000053, 41.838577270000144 ], [ 20.944776534000084, 41.843925476000152 ], [ 20.948787690000131, 41.84726715000005 ], [ 20.955888748000064, 41.849552155000026 ], [ 20.963497162000067, 41.84726715000005 ], [ 20.984888076000175, 41.837909699000079 ], [ 21.00628471400006, 41.835903168000016 ], [ 21.021663665000176, 41.836570741000116 ], [ 21.027677536000112, 41.836570741000116 ], [ 21.030351639000116, 41.828548433000151 ], [ 21.029014587000177, 41.821193696000137 ], [ 21.037038803000087, 41.813838959000066 ], [ 21.055091857999969, 41.80314254700005 ], [ 21.06578636200004, 41.792446136000081 ], [ 21.074476242000173, 41.783756256000174 ], [ 21.079044341000042, 41.777362824000136 ], [ 21.073474885000167, 41.776401519000103 ], [ 21.052749634000179, 41.77506256099997 ], [ 21.047401428000171, 41.765705108000134 ], [ 21.047401428000171, 41.750995636000084 ], [ 21.047401428000171, 41.74096679600018 ], [ 21.044725418000041, 41.736957551000046 ], [ 21.03670310900003, 41.736957551000046 ], [ 21.031356810999966, 41.733612061000144 ], [ 21.030017853000061, 41.728263856000012 ], [ 21.034698485999968, 41.718235016000165 ], [ 21.044057846000101, 41.712886810000157 ], [ 21.045394897000108, 41.704196931000126 ], [ 21.045394897000108, 41.696174622000058 ], [ 21.048069000000112, 41.690826417000153 ], [ 21.052749634000179, 41.68614578200004 ], [ 21.056091308000077, 41.679458619000172 ], [ 21.058097839000084, 41.662078857000097 ], [ 21.052896500000088, 41.647628785000165 ], [ 21.052749634000179, 41.648036956999988 ], [ 21.046731949000105, 41.648036956999988 ], [ 21.038040162000073, 41.642688751000151 ], [ 21.027345658, 41.641353608000088 ], [ 21.014640808000081, 41.63800811700014 ], [ 21.000600815000041, 41.636672974000078 ], [ 20.991241454000033, 41.63132476800007 ], [ 20.985893249000128, 41.628650666000112 ], [ 20.985029220000115, 41.624546051000038 ], [ 20.975864411000032, 41.630653382000105 ], [ 20.968509674000188, 41.637340546000075 ], [ 20.959150315000045, 41.646701814000096 ], [ 20.944442749000075, 41.654724122000061 ], [ 20.929065705000028, 41.660739899000191 ], [ 20.908340453999983, 41.665420531 ], [ 20.897409440000104, 41.664600373000042 ], [ 20.895303726000122, 41.673442840000064 ], [ 20.880592347000174, 41.68614578200004 ], [ 20.867891311000164, 41.701522828000122 ], [ 20.860538482000095, 41.712219239000035 ], [ 20.865886688000103, 41.716899871000066 ], [ 20.874578475000135, 41.722915650000175 ], [ 20.874578475000135, 41.728263856000012 ], [ 20.86455154500004, 41.728935242000148 ], [ 20.848503113, 41.728935242000148 ], [ 20.836469649000037, 41.728935242000148 ], [ 20.824436188000107, 41.723583222000173 ], [ 20.815076829000077, 41.731609344999981 ], [ 20.813068390000126, 41.750995636000084 ], [ 20.800367355, 41.767711640000073 ], [ 20.794349670000088, 41.773059845000034 ], [ 20.77897453300011, 41.773727417000032 ], [ 20.759586334000062, 41.776401519000103 ], [ 20.740865707000182, 41.778408051000042 ], [ 20.720140458000174, 41.778408051000042 ], [ 20.710781097000165, 41.769714356000065 ], [ 20.701419831000123, 41.760356903000059 ], [ 20.690055848000156, 41.753669739000088 ], [ 20.669330597000169, 41.755008697 ], [ 20.648605346000124, 41.757682800000055 ], [ 20.633226395000179, 41.767711640000073 ], [ 20.610498428000028, 41.775733948000038 ], [ 20.600221634000036, 41.784538270000041 ], [ 20.598049164000088, 41.781936646000077 ], [ 20.587205886000163, 41.787391662 ], [ 20.571063995000088, 41.784561157000041 ], [ 20.569585800000084, 41.786544800000115 ] ] ] ] } },
{ "type": "Feature", "properties": { "fid": 28, "GID_1": "MKD.63_1", "GID_0": "MKD", "COUNTRY": "North Macedonia", "NAME_1": "Saraj", "VARNAME_1": "NA", "NL_NAME_1": "NA", "TYPE_1": "Opština", "ENGTYPE_1": "Municipality", "CC_1": "NA", "HASC_1": "MK.AJ", "ISO_1": "MK-811" }, "geometry": { "type": "MultiPolygon", "coordinates": [ [ [ [ 21.227569581000068, 42.100521087000061 ], [ 21.239177704000099, 42.0833511350001 ], [ 21.241230011000027, 42.083393097000055 ], [ 21.243652344000168, 42.064823152000031 ], [ 21.250553130000014, 42.051788331000012 ], [ 21.259754181000062, 42.047950744000048 ], [ 21.270490647000088, 42.049484253000173 ], [ 21.276624679000065, 42.054855347000114 ], [ 21.284292221000157, 42.055622101000154 ], [ 21.292726516000187, 42.048717500000066 ], [ 21.295795440000063, 42.035682679000047 ], [ 21.307298659000026, 42.019580842000153 ], [ 21.318029404000129, 42.001178742000093 ], [ 21.333366393000176, 41.986610412000118 ], [ 21.358646393000186, 41.984886169000163 ], [ 21.358665466000105, 41.985347748000095 ], [ 21.363422394000054, 41.985477449000086 ], [ 21.363422394000054, 41.963176727000189 ], [ 21.363878250000084, 41.952678680000133 ], [ 21.360050200999979, 41.948261262000187 ], [ 21.359928131, 41.948463440000069 ], [ 21.356338502000142, 41.943977357000051 ], [ 21.34584045500003, 41.943168641000113 ], [ 21.333726883000168, 41.943168641000113 ], [ 21.316768646000071, 41.935901643000136 ], [ 21.297388077000164, 41.92459487900004 ], [ 21.286083222000116, 41.916519165000125 ], [ 21.273971558000028, 41.906024933000083 ], [ 21.261051177000127, 41.898754120000035 ], [ 21.236827850000054, 41.89229583700012 ], [ 21.222291946000098, 41.887451172999988 ], [ 21.217445374000192, 41.880184175000011 ], [ 21.217199324999967, 41.877727510000057 ], [ 21.212600709000185, 41.8796997070001 ], [ 21.207433700000138, 41.881637573000035 ], [ 21.194511414000146, 41.893264770000087 ], [ 21.188051224000105, 41.893909455000028 ], [ 21.180299758000046, 41.900371551000035 ], [ 21.180299758000046, 41.910060882000153 ], [ 21.182882309000092, 41.926856995000151 ], [ 21.186113358000171, 41.941070558000149 ], [ 21.189987182000095, 41.953342438000163 ], [ 21.190635680000071, 41.966262818000189 ], [ 21.187404632999971, 41.970138550000058 ], [ 21.173841476000177, 41.975955963000104 ], [ 21.160919190000186, 41.983058930000084 ], [ 21.148643495000101, 41.986934662000124 ], [ 21.138307571000041, 41.988876343000129 ], [ 21.138433456000087, 41.989883423000094 ], [ 21.138954163000051, 41.994041443000071 ], [ 21.141538619000016, 41.995979309000177 ], [ 21.146705627000188, 41.997917175000111 ], [ 21.160272597000017, 41.999855042000149 ], [ 21.171901702000071, 42.003734589000089 ], [ 21.179006577000052, 42.005672455000195 ], [ 21.179006577000052, 42.013423921000083 ], [ 21.170608521000077, 42.025051118000135 ], [ 21.168186188000163, 42.032802582000045 ], [ 21.1689929960001, 42.038455964000093 ], [ 21.175453186000141, 42.044109344000162 ], [ 21.185144425000033, 42.04734039300007 ], [ 21.189182282000104, 42.05137634200014 ], [ 21.189182282000104, 42.060260773000095 ], [ 21.185144425000033, 42.069141388999981 ], [ 21.179491043000155, 42.068332672000167 ], [ 21.173032760000069, 42.065105438000103 ], [ 21.165763855000023, 42.065105438000103 ], [ 21.157688141000051, 42.07237243600008 ], [ 21.149612427000136, 42.078025818000128 ], [ 21.153650284000037, 42.082061767000027 ], [ 21.16495704700003, 42.08609771700003 ], [ 21.179491043000155, 42.086906434000014 ], [ 21.191604615000074, 42.088523865000184 ], [ 21.203716278000059, 42.088523865000184 ], [ 21.215829848000112, 42.090137483000149 ], [ 21.227569581000068, 42.100521087000061 ] ] ] ] } },
{ "type": "Feature", "properties": { "fid": 30, "GID_1": "MKD.68_1", "GID_0": "MKD", "COUNTRY": "North Macedonia", "NAME_1": "Struga", "VARNAME_1": "NA", "NL_NAME_1": "NA", "TYPE_1": "Opština", "ENGTYPE_1": "Municipality", "CC_1": "NA", "HASC_1": "MK.UG", "ISO_1": "MK-312" }, "geometry": { "type": "MultiPolygon", "coordinates": [ [ [ [ 20.515235901000096, 41.276860555000155 ], [ 20.513272441000026, 41.284839553000097 ], [ 20.511203765000062, 41.290378569999973 ], [ 20.50796699600005, 41.298786164000035 ], [ 20.504930496000156, 41.306751252000026 ], [ 20.504428864000033, 41.308341980000193 ], [ 20.500622749000172, 41.314828873000181 ], [ 20.499956130000157, 41.322582246000024 ], [ 20.495071411000026, 41.327934265000067 ], [ 20.495045663000042, 41.329469681000091 ], [ 20.495019914000125, 41.331005096000069 ], [ 20.494882583000049, 41.339210510000044 ], [ 20.494933128000071, 41.339284898000187 ], [ 20.49498367200016, 41.339359285000171 ], [ 20.499477386000024, 41.345943451000153 ], [ 20.50107288300012, 41.346036912000159 ], [ 20.502668380000046, 41.346130372000061 ], [ 20.505743026000061, 41.34339523400007 ], [ 20.507178306000185, 41.342119218 ], [ 20.513034821000076, 41.339500427000132 ], [ 20.520574569000075, 41.339134217000037 ], [ 20.525538445000052, 41.341806412000096 ], [ 20.531579952000186, 41.351934402000154 ], [ 20.531824111000049, 41.353519441000117 ], [ 20.537972128000035, 41.357618118000062 ], [ 20.540006438000148, 41.359426956000163 ], [ 20.540017094000177, 41.359456208999973 ], [ 20.543052672000158, 41.36789703400018 ], [ 20.547040939000169, 41.370552064000151 ], [ 20.549575805000131, 41.376258851000046 ], [ 20.552171707000127, 41.382148742000084 ], [ 20.553583817000117, 41.388078610000093 ], [ 20.553586961000178, 41.38809204100005 ], [ 20.554164886000137, 41.390529633000085 ], [ 20.555101394000189, 41.394412995000039 ], [ 20.557315826000092, 41.403423309000061 ], [ 20.558374624000123, 41.404358167000112 ], [ 20.558456421000187, 41.404430389000083 ], [ 20.584421158000112, 41.40401458700012 ], [ 20.617851257000098, 41.40401458700012 ], [ 20.646598817000154, 41.402675629000157 ], [ 20.660638810000137, 41.408691406000116 ], [ 20.672004700000173, 41.420059204000097 ], [ 20.67837715100012, 41.425521850000166 ], [ 20.681364059000146, 41.428081512000063 ], [ 20.684833526000091, 41.424957276000157 ], [ 20.687381745000152, 41.422664643000132 ], [ 20.68804931700015, 41.422065735000103 ], [ 20.696739196000181, 41.408023835 ], [ 20.707437515000095, 41.392646789000139 ], [ 20.718803405000131, 41.377269746000138 ], [ 20.728832244999978, 41.361225129000161 ], [ 20.732843398000171, 41.336490631000174 ], [ 20.732843398000171, 41.323116303000063 ], [ 20.732843398000171, 41.313087464000091 ], [ 20.738861085000053, 41.305065155000079 ], [ 20.745546341000022, 41.298381805000076 ], [ 20.751562118000152, 41.292362213000104 ], [ 20.758916855000166, 41.283004761000143 ], [ 20.760253905000127, 41.274311066000166 ], [ 20.756908416000158, 41.252250671000184 ], [ 20.749557493999987, 41.234199524000076 ], [ 20.740198135000185, 41.224838256000055 ], [ 20.734178543000041, 41.219490051000093 ], [ 20.730836869000143, 41.212135316000058 ], [ 20.730836869000143, 41.205451965000123 ], [ 20.732843398000171, 41.198097230000087 ], [ 20.736185075000151, 41.194755553999983 ], [ 20.741533280000056, 41.190742493000073 ], [ 20.741533280000056, 41.186733245000141 ], [ 20.739528656000118, 41.181381226999974 ], [ 20.738861085000053, 41.175365448000093 ], [ 20.741216660000191, 41.170986175 ], [ 20.737522125000112, 41.16667556800013 ], [ 20.737754821000181, 41.166412353000112 ], [ 20.732173919000104, 41.167343139000025 ], [ 20.69272995100016, 41.169349671000134 ], [ 20.669998168000063, 41.168682099000137 ], [ 20.660638810000137, 41.16199493400012 ], [ 20.652616501000125, 41.143943788000115 ], [ 20.640581130000044, 41.120544434000067 ], [ 20.634565353000141, 41.099151611000082 ], [ 20.63389015100006, 41.086322785000164 ], [ 20.633819580000136, 41.085346222000112 ], [ 20.612348557000075, 41.088985443000013 ], [ 20.606796264000138, 41.090324403000182 ], [ 20.600584031000096, 41.091823578000117 ], [ 20.600303650000114, 41.091896057000156 ], [ 20.599536896000075, 41.092708587000061 ], [ 20.598718507000115, 41.093573572000139 ], [ 20.598230363000084, 41.094089509000128 ], [ 20.596691131000057, 41.095714569999984 ], [ 20.589141847000178, 41.106147767000039 ], [ 20.588336944000105, 41.113357544000166 ], [ 20.588210106000076, 41.114561080999977 ], [ 20.588083267000172, 41.115764617000082 ], [ 20.590730667000173, 41.1207542410001 ], [ 20.592189789000145, 41.122053146000042 ], [ 20.593648911000059, 41.123352050000051 ], [ 20.597326278000139, 41.125968933000138 ], [ 20.597955704000185, 41.126417160000187 ], [ 20.596820832000049, 41.133209228999988 ], [ 20.588697434000096, 41.148857118000194 ], [ 20.579956054000149, 41.160434723000037 ], [ 20.572528839000142, 41.169662475000109 ], [ 20.565019607000011, 41.179706574000079 ], [ 20.561328889000038, 41.186805725000113 ], [ 20.55631351500017, 41.192085267000152 ], [ 20.554328918000181, 41.191967011000145 ], [ 20.54980850100003, 41.19171142600004 ], [ 20.543085099000052, 41.194522858000141 ], [ 20.539361954000128, 41.199142457000164 ], [ 20.538690568000163, 41.200908661000085 ], [ 20.536365509000063, 41.207019806000119 ], [ 20.529804229000035, 41.217918397000062 ], [ 20.524406433000024, 41.228080750000061 ], [ 20.524033228000121, 41.229742686000122 ], [ 20.523889542000177, 41.230384826000147 ], [ 20.525211334000119, 41.230384826000147 ], [ 20.534614562000058, 41.230384826000147 ], [ 20.548355103000176, 41.226768494000055 ], [ 20.559926986000107, 41.224597932000052 ], [ 20.570053100000052, 41.224597932000052 ], [ 20.583070755000051, 41.226047515000175 ], [ 20.59391975300008, 41.231109620000041 ], [ 20.601152420000176, 41.23544693000008 ], [ 20.611278534000064, 41.23544693000008 ], [ 20.625019073000033, 41.23544693000008 ], [ 20.636592865000182, 41.240512848000037 ], [ 20.643823624000106, 41.246295929000041 ], [ 20.643823624000106, 41.253528595000034 ], [ 20.642377854000188, 41.258590698000091 ], [ 20.635145188000024, 41.263656617000152 ], [ 20.627189637000015, 41.263656617000152 ], [ 20.61778640700004, 41.262207032 ], [ 20.609832764000032, 41.257144927000127 ], [ 20.602598190000037, 41.252082825000173 ], [ 20.594642640000131, 41.252082825000173 ], [ 20.587411881000037, 41.252807617000087 ], [ 20.577285766000045, 41.256420136000088 ], [ 20.565713882000182, 41.257144927000127 ], [ 20.556310654000015, 41.257144927000127 ], [ 20.544738769000105, 41.256420136000088 ], [ 20.534614562000058, 41.256420136000088 ], [ 20.524488450000149, 41.254253387000176 ], [ 20.520418167000059, 41.252555847000053 ], [ 20.51588249200006, 41.256595612000069 ], [ 20.512784959000157, 41.265743255000132 ], [ 20.51268386900017, 41.266082764000032 ], [ 20.512884141000029, 41.266944886000147 ], [ 20.515056610000102, 41.276111603 ], [ 20.515235901000096, 41.276860555000155 ] ] ] ] } },
{ "type": "Feature", "properties": { "fid": 31, "GID_1": "MKD.70_1", "GID_0": "MKD", "COUNTRY": "North Macedonia", "NAME_1": "Studeničani", "VARNAME_1": "Studenicani", "NL_NAME_1": "NA", "TYPE_1": "Opština", "ENGTYPE_1": "Municipality", "CC_1": "NA", "HASC_1": "MK.SU", "ISO_1": "NA" }, "geometry": { "type": "MultiPolygon", "coordinates": [ [ [ [ 21.536132812000062, 41.918743134000181 ], [ 21.540687561000084, 41.920261383000138 ], [ 21.547496795000029, 41.924800873000038 ], [ 21.554292678000024, 41.927917481000122 ], [ 21.555278777000183, 41.92836761500007 ], [ 21.56014061000019, 41.926746369000057 ], [ 21.565654754999969, 41.918964387000074 ], [ 21.572050095000122, 41.910190583000144 ], [ 21.569021226000075, 41.907596589000093 ], [ 21.566833496000072, 41.901576995000141 ], [ 21.569021226000075, 41.896110534000172 ], [ 21.575040818000048, 41.895015717000092 ], [ 21.585432052000101, 41.895015717000092 ], [ 21.586427689000118, 41.894931793000069 ], [ 21.582244873000093, 41.889293672000122 ], [ 21.569534302000079, 41.886226653000108 ], [ 21.560333251000031, 41.881843568000136 ], [ 21.549821854000129, 41.875270844 ], [ 21.536674500000117, 41.870014191000053 ], [ 21.534046172000103, 41.855991363999976 ], [ 21.527473449000126, 41.846351624000192 ], [ 21.520025253000028, 41.841533661000028 ], [ 21.515205384000126, 41.836277008000081 ], [ 21.514766693000183, 41.827072144000169 ], [ 21.513015747000054, 41.820938111000032 ], [ 21.508632661000149, 41.816997529000105 ], [ 21.499431610000102, 41.816558838000162 ], [ 21.493732453000064, 41.817436219000172 ], [ 21.491104127000028, 41.820064545000037 ], [ 21.49066734400003, 41.827072144000169 ], [ 21.488914490000127, 41.83101654100011 ], [ 21.481466292999983, 41.831455231000177 ], [ 21.473140716000103, 41.824443818000077 ], [ 21.466567993000126, 41.81349182200006 ], [ 21.467882157000133, 41.800785064000138 ], [ 21.467882157000133, 41.792457581000065 ], [ 21.471389771000077, 41.785449981000056 ], [ 21.483657836000077, 41.773616791000109 ], [ 21.48760032600012, 41.766609193000079 ], [ 21.484972, 41.759159089000036 ], [ 21.48234176700015, 41.75346374500009 ], [ 21.48234176700015, 41.745136262000187 ], [ 21.483053207000012, 41.744617462000065 ], [ 21.474235534000115, 41.742095947000109 ], [ 21.454856873000153, 41.73805999800004 ], [ 21.444356918999972, 41.731597900000054 ], [ 21.437896729000158, 41.721908569999982 ], [ 21.432241439000109, 41.713832855000192 ], [ 21.42659187400011, 41.704143524000074 ], [ 21.419324874000154, 41.698490143000072 ], [ 21.408016204000091, 41.695262910000167 ], [ 21.403173447000029, 41.689609527000187 ], [ 21.399944306000123, 41.675880432000099 ], [ 21.395303726, 41.663547516000051 ], [ 21.394189834000031, 41.660587312000075 ], [ 21.385356902000183, 41.666896820000034 ], [ 21.374002457000131, 41.684562683000024 ], [ 21.374002457000131, 41.694656371000121 ], [ 21.374002457000131, 41.718627929999968 ], [ 21.365169525999988, 41.726200104000156 ], [ 21.353815079000128, 41.726200104000156 ], [ 21.346477508000078, 41.728034973000035 ], [ 21.343717576000188, 41.728721620000101 ], [ 21.338672637000116, 41.740077972 ], [ 21.338672637000116, 41.751434327000027 ], [ 21.342458724000096, 41.766574859000059 ], [ 21.350028992000148, 41.776668549000192 ], [ 21.345632553000087, 41.786300660000165 ], [ 21.336589813999979, 41.788883209000062 ], [ 21.332067490000099, 41.792758941000102 ], [ 21.333360673000072, 41.800510407000047 ], [ 21.337234497000111, 41.803741455000193 ], [ 21.343696595000154, 41.803741455000193 ], [ 21.347570419000192, 41.805679321000127 ], [ 21.349506377000125, 41.816661836000151 ], [ 21.355323791999979, 41.836040497000113 ], [ 21.359201431000145, 41.844440460000158 ], [ 21.3695354460001, 41.850254060000111 ], [ 21.378580094000085, 41.850254060000111 ], [ 21.379871368000181, 41.855422974000021 ], [ 21.374704360000067, 41.859298706000118 ], [ 21.366952897000033, 41.85994338900008 ], [ 21.353385926000044, 41.863174438000158 ], [ 21.34111022899998, 41.863174438000158 ], [ 21.336589813999979, 41.87221908700019 ], [ 21.336589813999979, 41.885139465000066 ], [ 21.343696595000154, 41.890953064000144 ], [ 21.359201431000145, 41.894184113000051 ], [ 21.372766495000178, 41.894184113000051 ], [ 21.383102416000156, 41.892246247000116 ], [ 21.398603440000045, 41.886432648000039 ], [ 21.423799516000031, 41.887722016000112 ], [ 21.439950943000156, 41.888370514000144 ], [ 21.443181992000063, 41.896766662000118 ], [ 21.447057723000171, 41.913562774000184 ], [ 21.447418213000162, 41.925537110000107 ], [ 21.448318482000104, 41.924415588000045 ], [ 21.450792313000079, 41.924415588000045 ], [ 21.459451676000072, 41.924415588000045 ], [ 21.468107224, 41.928127289000088 ], [ 21.478002548, 41.928127289000088 ], [ 21.487192154000127, 41.920261383000138 ], [ 21.487192154000127, 41.908592224000131 ], [ 21.487192154000127, 41.898540497000056 ], [ 21.489461898000116, 41.894001007000156 ], [ 21.5017814630001, 41.890434265000124 ], [ 21.509237289000055, 41.893028259000118 ], [ 21.513130187000115, 41.89821624700005 ], [ 21.515073776000065, 41.904052734000061 ], [ 21.517992020000122, 41.909889222000174 ], [ 21.522855758000048, 41.914100647000168 ], [ 21.528366088000155, 41.915397645000041 ], [ 21.534852982000075, 41.918315887000063 ], [ 21.536132812000062, 41.918743134000181 ] ] ] ] } },
{ "type": "Feature", "properties": { "fid": 32, "GID_1": "MKD.73_1", "GID_0": "MKD", "COUNTRY": "North Macedonia", "NAME_1": "Tearce", "VARNAME_1": "NA", "NL_NAME_1": "NA", "TYPE_1": "Opština", "ENGTYPE_1": "Municipality", "CC_1": "NA", "HASC_1": "MK.TR", "ISO_1": "MK-608" }, "geometry": { "type": "MultiPolygon", "coordinates": [ [ [ [ 20.900787353000055, 42.117504120000035 ], [ 20.914615631000061, 42.12546920900013 ], [ 20.934461593000094, 42.127532958000074 ], [ 20.959007263000103, 42.129375457000037 ], [ 20.972381593000023, 42.131687165000187 ], [ 20.978347778000114, 42.132720947999985 ], [ 20.988098144000048, 42.144416809000063 ], [ 21.015613556000062, 42.149242400000105 ], [ 21.037061691000019, 42.161479951 ], [ 21.038021088000107, 42.162006378000115 ], [ 21.065134049000164, 42.143428803000177 ], [ 21.080005646000075, 42.130046846000084 ], [ 21.093389511000169, 42.115921021000077 ], [ 21.102310181000178, 42.102539062000119 ], [ 21.110490799000104, 42.098819733000141 ], [ 21.120153427000048, 42.097335816 ], [ 21.127588273000072, 42.093616486000144 ], [ 21.131305695000151, 42.084693908000133 ], [ 21.129819870000063, 42.073543547999975 ], [ 21.119409562000044, 42.063877105000188 ], [ 21.110490799000104, 42.058673859000066 ], [ 21.099336624000102, 42.043804169000055 ], [ 21.092645646000165, 42.031909942000084 ], [ 21.07703208900017, 42.025959016000115 ], [ 21.059932708000133, 42.023731231999989 ], [ 21.032423019000078, 42.019268037000131 ], [ 21.028705597000169, 42.016296388000171 ], [ 21.029455185000018, 42.013858796000079 ], [ 21.027345658, 42.014408112000069 ], [ 21.019321442000091, 42.015747070000032 ], [ 21.010629655000116, 42.019756318000077 ], [ 21.007955552000055, 42.023769378000168 ], [ 21.007955552000055, 42.031124115000182 ], [ 21.007955552000055, 42.037139892000084 ], [ 21.010629655000116, 42.044494629000155 ], [ 21.006618500000116, 42.050510406000058 ], [ 20.999263763000101, 42.057865143000129 ], [ 20.990573883000138, 42.060539246000133 ], [ 20.984556198000064, 42.060539246000133 ], [ 20.975864411000032, 42.062545777000139 ], [ 20.972522735000155, 42.069900512000174 ], [ 20.967172623000124, 42.080596924000076 ], [ 20.959150315000045, 42.092628480000087 ], [ 20.950458526000034, 42.099983215000123 ], [ 20.941099167, 42.103996277000192 ], [ 20.928396224000153, 42.110012055000027 ], [ 20.915693284000156, 42.114025115000061 ], [ 20.900787353000055, 42.117504120000035 ] ] ] ] } },
{ "type": "Feature", "properties": { "fid": 33, "GID_1": "MKD.74_1", "GID_0": "MKD", "COUNTRY": "North Macedonia", "NAME_1": "Tetovo", "VARNAME_1": "NA", "NL_NAME_1": "NA", "TYPE_1": "Opština", "ENGTYPE_1": "Municipality", "CC_1": "NA", "HASC_1": "MK.ET", "ISO_1": "MK-609" }, "geometry": { "type": "MultiPolygon", "coordinates": [ [ [ [ 20.754611968000063, 41.943500519 ], [ 20.755109787000151, 41.952144622000162 ], [ 20.746595383000169, 41.963600159000066 ], [ 20.73597908000005, 41.975467682000101 ], [ 20.733209610000074, 41.989856719000045 ], [ 20.739610673000072, 42.003162385000167 ], [ 20.738393783000106, 42.015575409000121 ], [ 20.738958360000026, 42.02381897000015 ], [ 20.748115539000139, 42.032474518000072 ], [ 20.790443420000031, 42.072483063000107 ], [ 20.823223112999983, 42.092082977000132 ], [ 20.858495711000103, 42.089935304000164 ], [ 20.876596452, 42.09162902800017 ], [ 20.890226363000068, 42.104473115000189 ], [ 20.900787353000055, 42.117504120000035 ], [ 20.915693284000156, 42.114025115000061 ], [ 20.928396224000153, 42.110012055000027 ], [ 20.941099167, 42.103996277000192 ], [ 20.950458526000034, 42.099983215000123 ], [ 20.959150315000045, 42.092628480000087 ], [ 20.967172623000124, 42.080596924000076 ], [ 20.972522735000155, 42.069900512000174 ], [ 20.975864411000032, 42.062545777000139 ], [ 20.984556198000064, 42.060539246000133 ], [ 20.990573883000138, 42.060539246000133 ], [ 20.999263763000101, 42.057865143000129 ], [ 21.006618500000116, 42.050510406000058 ], [ 21.010629655000116, 42.044494629000155 ], [ 21.007955552000055, 42.037139892000084 ], [ 21.007955552000055, 42.031124115000182 ], [ 21.007955552000055, 42.023769378000168 ], [ 21.010629655000116, 42.019756318000077 ], [ 21.019321442000091, 42.015747070000032 ], [ 21.027345658, 42.014408112000069 ], [ 21.029455185000018, 42.013858796000079 ], [ 21.031412124000042, 42.007492065000122 ], [ 21.025337219, 42.006385804000161 ], [ 21.019990921000158, 42.001037598000096 ], [ 21.014640808000081, 41.995021821000194 ], [ 21.014640808000081, 41.99234771800019 ], [ 21.018651963000025, 41.98900222900005 ], [ 21.027345658, 41.986999513000058 ], [ 21.029350280000131, 41.982318878000115 ], [ 21.034029007000129, 41.976970673000039 ], [ 21.044725418000041, 41.974296569999979 ], [ 21.048069000000112, 41.972290039000143 ], [ 21.047401428000171, 41.964935304000107 ], [ 21.043388367000034, 41.963596344000166 ], [ 21.036035538000135, 41.962928772000168 ], [ 21.027345658, 41.960254669000165 ], [ 21.019990921000158, 41.95289993200015 ], [ 21.02009963900008, 41.952747345000034 ], [ 21.009962081000083, 41.954238892000092 ], [ 21.001937865000173, 41.954906464000089 ], [ 20.989238740000076, 41.961593627000127 ], [ 20.981212616000164, 41.96627426200007 ], [ 20.975196837000055, 41.966941833000135 ], [ 20.969179153000084, 41.964267730000131 ], [ 20.963832855000192, 41.956245422000165 ], [ 20.961824418000049, 41.952232361000029 ], [ 20.95791244500009, 41.952560424000126 ], [ 20.95380210899998, 41.95289993200015 ], [ 20.940431595, 41.964935304000107 ], [ 20.929733277000025, 41.974296569999979 ], [ 20.920373916000187, 41.978305818000081 ], [ 20.889619827000104, 41.982986450000112 ], [ 20.862878799000043, 41.988334655000074 ], [ 20.847503661000076, 41.987667084000122 ], [ 20.836137771000097, 41.982318878000115 ], [ 20.826105118000157, 41.9749641410001 ], [ 20.814075470000091, 41.968276978 ], [ 20.796688080000138, 41.963596344000166 ], [ 20.781312942000056, 41.957580567000093 ], [ 20.76994705200002, 41.94889068700013 ], [ 20.754611968000063, 41.943500519 ] ] ] ] } },
{ "type": "Feature", "properties": { "fid": 35, "GID_1": "MKD.81_1", "GID_0": "MKD", "COUNTRY": "North Macedonia", "NAME_1": "Vrapčište", "VARNAME_1": "NA", "NL_NAME_1": "NA", "TYPE_1": "Opština", "ENGTYPE_1": "Municipality", "CC_1": "NA", "HASC_1": "MK.VH", "ISO_1": "NA" }, "geometry": { "type": "MultiPolygon", "coordinates": [ [ [ [ 20.732509613000161, 41.861682893000079 ], [ 20.741182327000104, 41.865150453000126 ], [ 20.74302864100008, 41.86589050300006 ], [ 20.74510383500018, 41.878341676000105 ], [ 20.753751755000053, 41.887401581000177 ], [ 20.743074417000116, 41.894832611000027 ], [ 20.763475418000155, 41.916282654000156 ], [ 20.774961472000143, 41.918804169000168 ], [ 20.805715561000056, 41.915462493000064 ], [ 20.837139130000082, 41.910781861000032 ], [ 20.869897843000103, 41.902759553000067 ], [ 20.898645400000021, 41.891391755000086 ], [ 20.924051285000075, 41.88002777000014 ], [ 20.937421799000049, 41.878021241000113 ], [ 20.944107055000188, 41.873344422000173 ], [ 20.948341369000104, 41.873344422000173 ], [ 20.950124740000092, 41.869331359 ], [ 20.949457169000027, 41.85796737600009 ], [ 20.950124740000092, 41.851280213 ], [ 20.955888748000064, 41.849552155000026 ], [ 20.948787690000131, 41.84726715000005 ], [ 20.944776534000084, 41.843925476000152 ], [ 20.940095902000053, 41.838577270000144 ], [ 20.942771913000058, 41.829216004000045 ], [ 20.944776534000084, 41.822532654000042 ], [ 20.934747697000148, 41.813838959000066 ], [ 20.91602897700011, 41.809162140000126 ], [ 20.883937836000086, 41.815177919 ], [ 20.858531953000067, 41.812503816000174 ], [ 20.846498489000055, 41.804481507000162 ], [ 20.82844734300005, 41.806488037000065 ], [ 20.811063766000132, 41.813838959000066 ], [ 20.80504608200016, 41.820526124000139 ], [ 20.799030305000031, 41.833229065000182 ], [ 20.792345047000083, 41.839244842000141 ], [ 20.77897453300011, 41.840583802000083 ], [ 20.76493454000007, 41.840583802000083 ], [ 20.752231597, 41.841251373000148 ], [ 20.748037338000188, 41.842823029000158 ], [ 20.732509613000161, 41.861682893000079 ] ] ] ] } },
{ "type": "Feature", "properties": { "fid": 37, "GID_1": "MKD.84_1", "GID_0": "MKD", "COUNTRY": "North Macedonia", "NAME_1": "Želino", "VARNAME_1": "NA", "NL_NAME_1": "NA", "TYPE_1": "Opština", "ENGTYPE_1": "Municipality", "CC_1": "NA", "HASC_1": "MK.ZE", "ISO_1": "NA" }, "geometry": { "type": "MultiPolygon", "coordinates": [ [ [ [ 21.183786392, 41.839111328000115 ], [ 21.183786392, 41.84860611 ], [ 21.178438186000164, 41.854621887000121 ], [ 21.171083451000129, 41.854621887000121 ], [ 21.16373062200006, 41.852615356000115 ], [ 21.161724090000121, 41.84726715000005 ], [ 21.159719466000183, 41.842590333000089 ], [ 21.152364731000148, 41.841918945000145 ], [ 21.138994217000175, 41.841918945000145 ], [ 21.127628326999968, 41.841918945000145 ], [ 21.120941162000122, 41.846599579000156 ], [ 21.108240127000045, 41.854621887000121 ], [ 21.096204758000113, 41.854621887000121 ], [ 21.080827712000087, 41.855293274000132 ], [ 21.070800782000163, 41.85662841900006 ], [ 21.070131301000117, 41.865318298000091 ], [ 21.070800782000163, 41.875347138000109 ], [ 21.073474885000167, 41.882701873000144 ], [ 21.082166672000028, 41.884040833000086 ], [ 21.084840775000032, 41.888717652000082 ], [ 21.084840775000032, 41.892063141000051 ], [ 21.080158233000191, 41.900753021000185 ], [ 21.074142456000061, 41.900753021000185 ], [ 21.066789627, 41.900753021000185 ], [ 21.057428360000017, 41.904766082000094 ], [ 21.055423737000183, 41.919471741000166 ], [ 21.055423737000183, 41.928165436000143 ], [ 21.050075531000175, 41.930171967000149 ], [ 21.041383744000143, 41.930839539000146 ], [ 21.030017853000061, 41.939529418000177 ], [ 21.023332595000056, 41.948223113000154 ], [ 21.02009963900008, 41.952747345000034 ], [ 21.019990921000158, 41.95289993200015 ], [ 21.027345658, 41.960254669000165 ], [ 21.036035538000135, 41.962928772000168 ], [ 21.043388367000034, 41.963596344000166 ], [ 21.047401428000171, 41.964935304000107 ], [ 21.048069000000112, 41.972290039000143 ], [ 21.044725418000041, 41.974296569999979 ], [ 21.034029007000129, 41.976970673000039 ], [ 21.029350280000131, 41.982318878000115 ], [ 21.027345658, 41.986999513000058 ], [ 21.018651963000025, 41.98900222900005 ], [ 21.014640808000081, 41.99234771800019 ], [ 21.014640808000081, 41.995021821000194 ], [ 21.019990921000158, 42.001037598000096 ], [ 21.025337219, 42.006385804000161 ], [ 21.031412124000042, 42.007492065000122 ], [ 21.03167915400013, 42.006629945000157 ], [ 21.035396576000039, 42.004398346000187 ], [ 21.052497864000145, 42.000682831000177 ], [ 21.063648224000076, 42.000682831000177 ], [ 21.071086883000135, 42.003654481000183 ], [ 21.076288224000166, 42.000682831000177 ], [ 21.076288224000166, 41.993991853000068 ], [ 21.070341111000062, 41.989528656000175 ], [ 21.072572708000052, 41.98581314200004 ], [ 21.084466934999966, 41.982837678000067 ], [ 21.104541778000169, 41.981349945000147 ], [ 21.111976624000192, 41.981349945000147 ], [ 21.117179870000143, 41.987300872000048 ], [ 21.122385024000039, 41.989528656000175 ], [ 21.132049560000155, 41.989528656000175 ], [ 21.138433456000087, 41.989883423000094 ], [ 21.138307571000041, 41.988876343000129 ], [ 21.148643495000101, 41.986934662000124 ], [ 21.160919190000186, 41.983058930000084 ], [ 21.173841476000177, 41.975955963000104 ], [ 21.187404632999971, 41.970138550000058 ], [ 21.190635680000071, 41.966262818000189 ], [ 21.189987182000095, 41.953342438000163 ], [ 21.186113358000171, 41.941070558000149 ], [ 21.182882309000092, 41.926856995000151 ], [ 21.180299758000046, 41.910060882000153 ], [ 21.180299758000046, 41.900371551000035 ], [ 21.188051224000105, 41.893909455000028 ], [ 21.194511414000146, 41.893264770000087 ], [ 21.207433700000138, 41.881637573000035 ], [ 21.212600709000185, 41.8796997070001 ], [ 21.217199324999967, 41.877727510000057 ], [ 21.216636658000084, 41.872108459000117 ], [ 21.223905564, 41.86484146100014 ], [ 21.235210419000055, 41.85918808100007 ], [ 21.240861893000101, 41.855957032000163 ], [ 21.240861893000101, 41.847076416000107 ], [ 21.238441468000133, 41.830924989000152 ], [ 21.232788084999981, 41.818004609000127 ], [ 21.233776092000141, 41.81722641000016 ], [ 21.226573944000165, 41.819858551000038 ], [ 21.216547012000092, 41.823200227000143 ], [ 21.205181122000113, 41.831222535000109 ], [ 21.193145752000135, 41.837242127000081 ], [ 21.183786392, 41.839111328000115 ] ] ] ] } }
]
}
