{
"type": "FeatureCollection",
"name": "BN-04",
"crs": { "type": "name", "properties": { "name": "urn:ogc:def:crs:OGC:1.3:CRS84" } },
"features": [
{ "type": "Feature", "properties": { "fid": 237, "GID_2": "HRV.11.2_1", "GID_0": "HRV", "COUNTRY": "Croatia", "GID_1": "HRV.11_1", "NAME_1": "Osjecko-Baranjska", "NL_NAME_1": "NA", "NAME_2": "Beli Manastir", "VARNAME_2": "NA", "NL_NAME_2": "NA", "TYPE_2": "Grad", "ENGTYPE_2": "City", "CC_2": "NA", "HASC_2": "HR.OB.BM" }, "geometry": { "type": "MultiPolygon", "coordinates": [ [ [ [ 18.639490128000034, 45.72880935600017 ], [ 18.636325837000186, 45.721630097000059 ], [ 18.635368347000167, 45.720584870000152 ], [ 18.630878449000079, 45.717136384000128 ], [ 18.629674911000166, 45.71635055500019 ], [ 18.623012543000129, 45.712932587000182 ], [ 18.616172790000064, 45.710384370000099 ], [ 18.611890792000167, 45.709068299000194 ], [ 18.60968589800018, 45.709926606000067 ], [ 18.604377747000171, 45.712398530000144 ], [ 18.60303497200016, 45.713283539000088 ], [ 18.602458955000031, 45.713924409000185 ], [ 18.601724625000031, 45.715354920000152 ], [ 18.600770951000186, 45.718463899000085 ], [ 18.599704743000075, 45.721046447000106 ], [ 18.59867477500012, 45.724998475000064 ], [ 18.597864152000056, 45.726459503000115 ], [ 18.596704483000167, 45.727466583000137 ], [ 18.595178604000125, 45.728153228000053 ], [ 18.593570709, 45.728416443000071 ], [ 18.587646484000061, 45.727855682000097 ], [ 18.585628509000117, 45.728027344000111 ], [ 18.583805084000176, 45.728523255000027 ], [ 18.581653595000034, 45.72966766400009 ], [ 18.576589585000079, 45.733203887000059 ], [ 18.575134277000132, 45.734474182000099 ], [ 18.572370530000171, 45.737434388000054 ], [ 18.569904327000131, 45.739246368000067 ], [ 18.568189621000158, 45.740123749000077 ], [ 18.564039230000049, 45.741844177000132 ], [ 18.557931901000188, 45.743881225000109 ], [ 18.555040360000135, 45.753219605000027 ], [ 18.554641724000192, 45.757415772000058 ], [ 18.554752350000115, 45.760787965000077 ], [ 18.555089950000138, 45.763248445000102 ], [ 18.555828095000038, 45.765514374000077 ], [ 18.557319642000039, 45.768241882000154 ], [ 18.557392121000134, 45.769832611000083 ], [ 18.556781769000054, 45.770996093000065 ], [ 18.555812836000086, 45.772018433000085 ], [ 18.552387238000165, 45.774986267000145 ], [ 18.549287796000044, 45.776947022000115 ], [ 18.548103333000029, 45.777896881000117 ], [ 18.547237397000117, 45.77904510500008 ], [ 18.546926498000062, 45.780883789000143 ], [ 18.547309876000156, 45.782123567000042 ], [ 18.548809051000148, 45.785034181000185 ], [ 18.550256729000182, 45.787399292000032 ], [ 18.551609040000073, 45.789104462000068 ], [ 18.554126740000015, 45.791530610000109 ], [ 18.557229996000103, 45.793399810000039 ], [ 18.562147141000082, 45.796951294000053 ], [ 18.56343078600014, 45.798515320000149 ], [ 18.563707352000108, 45.799381256000061 ], [ 18.563747406000061, 45.800640107000049 ], [ 18.563720702000182, 45.800979615000074 ], [ 18.57464790400013, 45.802215576000094 ], [ 18.563383102000103, 45.805175782000049 ], [ 18.56184577900018, 45.805580139000028 ], [ 18.558982850000177, 45.806335449000187 ], [ 18.556060791000107, 45.807102203 ], [ 18.563318252999977, 45.810115814000028 ], [ 18.569101334000038, 45.812511444000052 ], [ 18.575422288000084, 45.81513595600012 ], [ 18.577848434000089, 45.816364289000035 ], [ 18.580158233000134, 45.817535401000157 ], [ 18.593639374000134, 45.824371339000152 ], [ 18.599277496000127, 45.822074891000057 ], [ 18.602043153000068, 45.820430757000054 ], [ 18.609136581000087, 45.815738677000127 ], [ 18.614305495, 45.813243865000118 ], [ 18.61605453500016, 45.812259674000131 ], [ 18.620035171000154, 45.809459686000139 ], [ 18.621379852000132, 45.808223725000062 ], [ 18.622379303000116, 45.806991577000076 ], [ 18.623823166000136, 45.804622651000045 ], [ 18.624332428000173, 45.803375245000041 ], [ 18.624366759000111, 45.801605225000117 ], [ 18.623624802000052, 45.799301147000108 ], [ 18.623550416000114, 45.798160553000059 ], [ 18.623844147, 45.796981811000194 ], [ 18.624778748000153, 45.795368195000094 ], [ 18.625745774000052, 45.79445266700003 ], [ 18.630237579000038, 45.791389466000169 ], [ 18.638471603000085, 45.784732819000112 ], [ 18.645210266000106, 45.780296326000155 ], [ 18.642845155000089, 45.77764511200013 ], [ 18.639432907000014, 45.774532319000059 ], [ 18.637769699000103, 45.772487640000122 ], [ 18.63524436900002, 45.767971039000031 ], [ 18.633495332000166, 45.762256623000098 ], [ 18.630832672000111, 45.756771089000097 ], [ 18.629554749000022, 45.754856109000116 ], [ 18.625711442000068, 45.75013351500013 ], [ 18.625009537000153, 45.748146057000042 ], [ 18.625167847000114, 45.746215822000067 ], [ 18.626037597000163, 45.743446350000113 ], [ 18.62948226900005, 45.737648010000157 ], [ 18.633279799000036, 45.733650208000086 ], [ 18.639490128000034, 45.72880935600017 ] ] ] ] } },
{ "type": "Feature", "properties": { "fid": 239, "GID_2": "HRV.11.4_1", "GID_0": "HRV", "COUNTRY": "Croatia", "GID_1": "HRV.11_1", "NAME_1": "Osjecko-Baranjska", "NL_NAME_1": "NA", "NAME_2": "Bilje", "VARNAME_2": "NA", "NL_NAME_2": "NA", "TYPE_2": "Općina", "ENGTYPE_2": "Commune", "CC_2": "NA", "HASC_2": "HR.OB.BJ" }, "geometry": { "type": "MultiPolygon", "coordinates": [ [ [ [ 18.690029144000107, 45.672626496000078 ], [ 18.6956443790001, 45.674053193000134 ], [ 18.697296142000084, 45.674812318000136 ], [ 18.698451996000188, 45.675903320000145 ], [ 18.700195312000176, 45.67839431900012 ], [ 18.701650620000123, 45.67971420300006 ], [ 18.708965301000092, 45.684448241999974 ], [ 18.710474014000113, 45.685188294000113 ], [ 18.712425232999976, 45.685752869000055 ], [ 18.714733124000077, 45.68601226800007 ], [ 18.718265534000125, 45.685878754000044 ], [ 18.724153518000094, 45.684665680000023 ], [ 18.734464646000049, 45.683437348000041 ], [ 18.73910522500006, 45.682350159000066 ], [ 18.741367339000135, 45.682064056000058 ], [ 18.74473571700014, 45.682189942000036 ], [ 18.746826172000169, 45.682811738000112 ], [ 18.748184204000097, 45.683773041000165 ], [ 18.748722076000035, 45.684467316000166 ], [ 18.749311447000025, 45.685966491000102 ], [ 18.74991989199998, 45.692550660000165 ], [ 18.750680923000175, 45.695758820000037 ], [ 18.752614976000075, 45.698711396000078 ], [ 18.754663467000171, 45.700691223000035 ], [ 18.757274627000072, 45.702266693000183 ], [ 18.760335923000014, 45.703086853 ], [ 18.762428284000066, 45.70320510900001 ], [ 18.764516831000094, 45.703063965000069 ], [ 18.767612457000098, 45.702236176000042 ], [ 18.770452499000044, 45.700679780000087 ], [ 18.775783539000088, 45.69710159300007 ], [ 18.779109954999967, 45.695545197000058 ], [ 18.782638550000172, 45.694858550000163 ], [ 18.788803100000052, 45.69465255800003 ], [ 18.793670655000028, 45.69500732500012 ], [ 18.79596710200002, 45.695484162000071 ], [ 18.797687531000179, 45.696098328000062 ], [ 18.801242828000113, 45.697910308000075 ], [ 18.804178237000087, 45.700393677000136 ], [ 18.806560516000104, 45.702011108000079 ], [ 18.809476853000092, 45.703239441000051 ], [ 18.812774657999967, 45.703903199000081 ], [ 18.816833496000072, 45.704376221000132 ], [ 18.818883896000102, 45.704349518000129 ], [ 18.82091522200011, 45.704025270000102 ], [ 18.822986604000107, 45.703296661000138 ], [ 18.824878692000141, 45.702331543000071 ], [ 18.834157944000026, 45.696746826000094 ], [ 18.836809159000097, 45.694881439000028 ], [ 18.838869095000177, 45.69271850500013 ], [ 18.839504243000135, 45.691150666000169 ], [ 18.839235305000102, 45.688949586000092 ], [ 18.837610244000189, 45.686805725000113 ], [ 18.833408355000074, 45.682926178000173 ], [ 18.832500457000094, 45.681404115000078 ], [ 18.832145691000051, 45.679798127000083 ], [ 18.832366943000068, 45.678188324000018 ], [ 18.832757949000097, 45.677402497000116 ], [ 18.833896637000123, 45.67624664300007 ], [ 18.834648133000144, 45.675796509000122 ], [ 18.836368561000029, 45.675224305000029 ], [ 18.839002609000033, 45.675128938000057 ], [ 18.842786789000115, 45.675792694000052 ], [ 18.844648361000168, 45.676460266000049 ], [ 18.845470428000056, 45.676944733000084 ], [ 18.846612931000152, 45.678100585000152 ], [ 18.848299027000053, 45.680721283000082 ], [ 18.853624344000025, 45.687301636000029 ], [ 18.856628418000071, 45.689777375000119 ], [ 18.860000611000146, 45.691440583000087 ], [ 18.863391877000026, 45.692562103000171 ], [ 18.866462708000029, 45.692993165000132 ], [ 18.869665146000159, 45.692794801000048 ], [ 18.875579833000074, 45.691665650000118 ], [ 18.88044357300015, 45.691577912000184 ], [ 18.882797241, 45.691932678 ], [ 18.883914947000108, 45.692268371000182 ], [ 18.885749817000033, 45.69324875 ], [ 18.887092590000066, 45.694530487000122 ], [ 18.887546539000027, 45.695255279000037 ], [ 18.888446808000026, 45.700084687000128 ], [ 18.890966414000104, 45.705207825000173 ], [ 18.894113541000024, 45.709655761000135 ], [ 18.897470474000045, 45.712741853000068 ], [ 18.900236129000177, 45.71096420300006 ], [ 18.902072907000047, 45.709785462000127 ], [ 18.914390564000087, 45.702732087000129 ], [ 18.929298401000153, 45.69739913900014 ], [ 18.943838119000191, 45.690933229 ], [ 18.946529388000044, 45.682060243000194 ], [ 18.947124481000174, 45.680103301000145 ], [ 18.946262360000162, 45.677917481000122 ], [ 18.943489075000116, 45.670898438000108 ], [ 18.937246323000124, 45.663085939000041 ], [ 18.928743362000148, 45.655643463000104 ], [ 18.926462173000118, 45.653404235000096 ], [ 18.920825958000137, 45.647869111000091 ], [ 18.918464659999984, 45.645633698000097 ], [ 18.913509368000177, 45.640941621000138 ], [ 18.906885148000072, 45.638214111000025 ], [ 18.896123886000169, 45.634254455000132 ], [ 18.886720658000172, 45.628158569999982 ], [ 18.892425537000122, 45.619564057000048 ], [ 18.89552879300004, 45.61020278899997 ], [ 18.889995576000103, 45.600353242000097 ], [ 18.882076263000044, 45.590431214000034 ], [ 18.885124206000057, 45.579887390000181 ], [ 18.895940780000103, 45.571403503000113 ], [ 18.907018661, 45.55953216600011 ], [ 18.913877488000082, 45.554084779000164 ], [ 18.912080764000109, 45.552341462000072 ], [ 18.907112121000125, 45.553142547000164 ], [ 18.903282166000054, 45.553493501000105 ], [ 18.890344620000178, 45.553749085000106 ], [ 18.885292053, 45.554073333000076 ], [ 18.881935119000104, 45.554714203000174 ], [ 18.87306022700011, 45.557407379000097 ], [ 18.866012572999978, 45.558616638000046 ], [ 18.861093522000033, 45.559703827000192 ], [ 18.856655121000074, 45.560218811000027 ], [ 18.84978675900004, 45.560501099000078 ], [ 18.846912385000053, 45.559272767000095 ], [ 18.844804764, 45.558643342000153 ], [ 18.836652756000035, 45.557025909000174 ], [ 18.834747315000186, 45.556831360000103 ], [ 18.832803726000066, 45.5569725040001 ], [ 18.831155777000049, 45.557498931000055 ], [ 18.828325271000153, 45.559806824000134 ], [ 18.827463151000018, 45.560199738000108 ], [ 18.826032639000175, 45.560424806000071 ], [ 18.824386597, 45.560218811000027 ], [ 18.823539734, 45.559951783000145 ], [ 18.819362641, 45.558044434000124 ], [ 18.816429139000093, 45.557209015000183 ], [ 18.813188552000156, 45.557098390000192 ], [ 18.808540344000107, 45.557888032000164 ], [ 18.806392669000161, 45.558090211000092 ], [ 18.803106307000178, 45.557903290000183 ], [ 18.796947479000039, 45.556232452000131 ], [ 18.787448883000025, 45.552864074000126 ], [ 18.781267166000021, 45.550998689000096 ], [ 18.77413368200007, 45.549926759000186 ], [ 18.76815414400005, 45.548702241000115 ], [ 18.764776231000099, 45.548488617000032 ], [ 18.761472701000116, 45.548675538000168 ], [ 18.75943374600007, 45.549095155000145 ], [ 18.757829666000077, 45.549785615000076 ], [ 18.749200821000102, 45.555435182000053 ], [ 18.747602464000124, 45.557044983000139 ], [ 18.744789124000022, 45.561096192000036 ], [ 18.743511200000171, 45.56241607700008 ], [ 18.741979598000114, 45.563621521000186 ], [ 18.739326476000144, 45.565162658000077 ], [ 18.729421617000128, 45.569370270000036 ], [ 18.725793839000175, 45.571361541000044 ], [ 18.721424102000185, 45.57410430900012 ], [ 18.717201232000036, 45.578491212000131 ], [ 18.715993880000156, 45.579307556000174 ], [ 18.71441078100014, 45.579818727000088 ], [ 18.711847306000038, 45.579849243000126 ], [ 18.705997467000032, 45.578605653000068 ], [ 18.700330734000033, 45.577018738000106 ], [ 18.700887680000108, 45.585445403000051 ], [ 18.700973510999972, 45.599613190000184 ], [ 18.701406479000127, 45.602157594000175 ], [ 18.702152252000076, 45.603767394000158 ], [ 18.704130172000134, 45.605728149000129 ], [ 18.706766128000083, 45.607185363999974 ], [ 18.708690643000068, 45.60777664200009 ], [ 18.714141846000189, 45.608871461000149 ], [ 18.716127396000161, 45.609973908000143 ], [ 18.718278885000075, 45.611972809000065 ], [ 18.723325729000067, 45.618167877000189 ], [ 18.725086211000075, 45.619655609000176 ], [ 18.727474213000107, 45.621250153000119 ], [ 18.728429795000125, 45.622177124000189 ], [ 18.729984283000135, 45.624309539000137 ], [ 18.730249405000052, 45.626159668000184 ], [ 18.729711533000113, 45.62737274300008 ], [ 18.728694915000062, 45.628414153999984 ], [ 18.725563049000073, 45.630298615000072 ], [ 18.723247528000059, 45.631977081 ], [ 18.721099853999988, 45.633121490000121 ], [ 18.713186264000171, 45.636436463000052 ], [ 18.711120605000076, 45.637908936000088 ], [ 18.709806443000048, 45.63927841300017 ], [ 18.708873749000134, 45.640506746000085 ], [ 18.708166123000012, 45.64194870100016 ], [ 18.70778465300009, 45.643566132000103 ], [ 18.707052231000034, 45.650173187000121 ], [ 18.706132888000127, 45.65280914300007 ], [ 18.704814911000028, 45.655345916000101 ], [ 18.702894211000114, 45.657741546000068 ], [ 18.699974060000159, 45.659999847000108 ], [ 18.696504592000167, 45.661952973000098 ], [ 18.692287444000101, 45.663681030000134 ], [ 18.691028595000148, 45.664760590000128 ], [ 18.690330505000077, 45.666137695000145 ], [ 18.690019608000057, 45.66766738900003 ], [ 18.690029144000107, 45.672626496000078 ] ] ] ] } },
{ "type": "Feature", "properties": { "fid": 241, "GID_2": "HRV.11.6_1", "GID_0": "HRV", "COUNTRY": "Croatia", "GID_1": "HRV.11_1", "NAME_1": "Osjecko-Baranjska", "NL_NAME_1": "NA", "NAME_2": "Čeminac", "VARNAME_2": "NA", "NL_NAME_2": "NA", "TYPE_2": "Općina", "ENGTYPE_2": "Commune", "CC_2": "NA", "HASC_2": "HR.OB.CM" }, "geometry": { "type": "MultiPolygon", "coordinates": [ [ [ [ 18.611890792000167, 45.709068299000194 ], [ 18.616172790000064, 45.710384370000099 ], [ 18.623012543000129, 45.712932587000182 ], [ 18.629674911000166, 45.71635055500019 ], [ 18.630878449000079, 45.717136384000128 ], [ 18.635368347000167, 45.720584870000152 ], [ 18.636325837000186, 45.721630097000059 ], [ 18.639490128000034, 45.72880935600017 ], [ 18.649341584000183, 45.732112886000095 ], [ 18.652715683, 45.732692718000123 ], [ 18.657960891000016, 45.733150482000156 ], [ 18.659971237000093, 45.733104705000187 ], [ 18.661933899000132, 45.732830047 ], [ 18.667095184000061, 45.731353760000161 ], [ 18.670545578000088, 45.730945586000132 ], [ 18.674072266000053, 45.73107147200011 ], [ 18.678821563000156, 45.731990815000017 ], [ 18.681184769000083, 45.73227691600016 ], [ 18.683567048000157, 45.732349397000064 ], [ 18.685848235000151, 45.732212068000138 ], [ 18.687875748000124, 45.731811524000193 ], [ 18.688716888999977, 45.731479644000103 ], [ 18.691484452000111, 45.729633332000105 ], [ 18.692251205000048, 45.729385376000039 ], [ 18.694026948000158, 45.729190827000025 ], [ 18.696866989000057, 45.729629517000035 ], [ 18.701341629000069, 45.731506347999982 ], [ 18.704347610000184, 45.732368470000097 ], [ 18.710626601000058, 45.733081819000063 ], [ 18.713369370000066, 45.733100892000152 ], [ 18.714637757000105, 45.732868194000048 ], [ 18.716245652000168, 45.73219680800014 ], [ 18.717508316000192, 45.73121261600005 ], [ 18.71865272500014, 45.729545593000068 ], [ 18.71945381200004, 45.727447510000104 ], [ 18.719753266000168, 45.724029542000096 ], [ 18.719659805000163, 45.715179443000125 ], [ 18.720092773999966, 45.712608337000177 ], [ 18.720722199000136, 45.711109162000071 ], [ 18.723222732000124, 45.707534789000135 ], [ 18.725376130000143, 45.705738068000073 ], [ 18.727993012000127, 45.704410553000116 ], [ 18.731163026000047, 45.703746797000065 ], [ 18.736825944000032, 45.703079223000088 ], [ 18.739528656000175, 45.702308654000035 ], [ 18.741638184000067, 45.701011658000027 ], [ 18.743289947000051, 45.698921203000168 ], [ 18.746799469, 45.697200775000056 ], [ 18.750680923000175, 45.695758820000037 ], [ 18.74991989199998, 45.692550660000165 ], [ 18.749311447000025, 45.685966491000102 ], [ 18.748722076000035, 45.684467316000166 ], [ 18.748184204000097, 45.683773041000165 ], [ 18.746826172000169, 45.682811738000112 ], [ 18.74473571700014, 45.682189942000036 ], [ 18.741367339000135, 45.682064056000058 ], [ 18.73910522500006, 45.682350159000066 ], [ 18.734464646000049, 45.683437348000041 ], [ 18.724153518000094, 45.684665680000023 ], [ 18.718265534000125, 45.685878754000044 ], [ 18.714733124000077, 45.68601226800007 ], [ 18.712425232999976, 45.685752869000055 ], [ 18.710474014000113, 45.685188294000113 ], [ 18.708965301000092, 45.684448241999974 ], [ 18.701650620000123, 45.67971420300006 ], [ 18.700195312000176, 45.67839431900012 ], [ 18.698451996000188, 45.675903320000145 ], [ 18.697296142000084, 45.674812318000136 ], [ 18.6956443790001, 45.674053193000134 ], [ 18.690029144000107, 45.672626496000078 ], [ 18.686000825000178, 45.673236847000055 ], [ 18.682573319000085, 45.673187257000052 ], [ 18.672208786000056, 45.671329498000091 ], [ 18.666280745999984, 45.670059203000051 ], [ 18.66153335600012, 45.669750214000146 ], [ 18.655538560000082, 45.670051575000116 ], [ 18.653240204000156, 45.670425415000125 ], [ 18.648345948000042, 45.671588897000163 ], [ 18.644622803000118, 45.672080993000179 ], [ 18.637674332000074, 45.672634124000183 ], [ 18.635040284000127, 45.672477722000053 ], [ 18.63261032000014, 45.671573639000144 ], [ 18.630844115000116, 45.670021057000099 ], [ 18.628353118000121, 45.665695191000111 ], [ 18.626733780000109, 45.660961152000027 ], [ 18.625785828000176, 45.659652710000103 ], [ 18.623889923999968, 45.658214568000119 ], [ 18.620012283000051, 45.656398773000092 ], [ 18.615009308000083, 45.653446197000051 ], [ 18.612049102000128, 45.652347566000174 ], [ 18.609870909999984, 45.652011872000116 ], [ 18.60765266400017, 45.651962280000077 ], [ 18.598701477000191, 45.65270614700006 ], [ 18.599878311, 45.657016754000153 ], [ 18.601207734000127, 45.663360597 ], [ 18.604227065000146, 45.669559479999975 ], [ 18.605236053000112, 45.67093658400006 ], [ 18.607271195000123, 45.672748566000053 ], [ 18.610538483000084, 45.674839020000036 ], [ 18.613243103000059, 45.676128388000109 ], [ 18.616605758, 45.677425386000152 ], [ 18.62004852400014, 45.679264069000112 ], [ 18.622222901000157, 45.680858612000179 ], [ 18.623285293000151, 45.682083129000148 ], [ 18.623609543000157, 45.682773591000057 ], [ 18.62368965200011, 45.68403625500008 ], [ 18.62348938000008, 45.684650422 ], [ 18.622606277000102, 45.685791015000177 ], [ 18.621334076999972, 45.686683655000138 ], [ 18.616735458999983, 45.688922882000043 ], [ 18.614383697999983, 45.690460204000033 ], [ 18.612457276000157, 45.692222594000043 ], [ 18.611667634000185, 45.693565369 ], [ 18.611650468000164, 45.695400238000047 ], [ 18.612262727000086, 45.696571350000113 ], [ 18.614299775000063, 45.699237823000033 ], [ 18.614837647000172, 45.700992585000108 ], [ 18.614490509000063, 45.702842712000177 ], [ 18.611890792000167, 45.709068299000194 ] ] ] ] } },
{ "type": "Feature", "properties": { "fid": 244, "GID_2": "HRV.11.9_1", "GID_0": "HRV", "COUNTRY": "Croatia", "GID_1": "HRV.11_1", "NAME_1": "Osjecko-Baranjska", "NL_NAME_1": "NA", "NAME_2": "Darda", "VARNAME_2": "NA", "NL_NAME_2": "NA", "TYPE_2": "Općina", "ENGTYPE_2": "Commune", "CC_2": "NA", "HASC_2": "HR.OB.DD" }, "geometry": { "type": "MultiPolygon", "coordinates": [ [ [ [ 18.690029144000107, 45.672626496000078 ], [ 18.690019608000057, 45.66766738900003 ], [ 18.690330505000077, 45.666137695000145 ], [ 18.691028595000148, 45.664760590000128 ], [ 18.692287444000101, 45.663681030000134 ], [ 18.696504592000167, 45.661952973000098 ], [ 18.699974060000159, 45.659999847000108 ], [ 18.702894211000114, 45.657741546000068 ], [ 18.704814911000028, 45.655345916000101 ], [ 18.706132888000127, 45.65280914300007 ], [ 18.707052231000034, 45.650173187000121 ], [ 18.70778465300009, 45.643566132000103 ], [ 18.708166123000012, 45.64194870100016 ], [ 18.708873749000134, 45.640506746000085 ], [ 18.709806443000048, 45.63927841300017 ], [ 18.711120605000076, 45.637908936000088 ], [ 18.713186264000171, 45.636436463000052 ], [ 18.721099853999988, 45.633121490000121 ], [ 18.723247528000059, 45.631977081 ], [ 18.725563049000073, 45.630298615000072 ], [ 18.728694915000062, 45.628414153999984 ], [ 18.729711533000113, 45.62737274300008 ], [ 18.730249405000052, 45.626159668000184 ], [ 18.729984283000135, 45.624309539000137 ], [ 18.728429795000125, 45.622177124000189 ], [ 18.727474213000107, 45.621250153000119 ], [ 18.725086211000075, 45.619655609000176 ], [ 18.723325729000067, 45.618167877000189 ], [ 18.718278885000075, 45.611972809000065 ], [ 18.716127396000161, 45.609973908000143 ], [ 18.714141846000189, 45.608871461000149 ], [ 18.708690643000068, 45.60777664200009 ], [ 18.706766128000083, 45.607185363999974 ], [ 18.704130172000134, 45.605728149000129 ], [ 18.702152252000076, 45.603767394000158 ], [ 18.701406479000127, 45.602157594000175 ], [ 18.700973510999972, 45.599613190000184 ], [ 18.700887680000108, 45.585445403000051 ], [ 18.700330734000033, 45.577018738000106 ], [ 18.693866731000128, 45.579513550000115 ], [ 18.689779282000075, 45.581626892000031 ], [ 18.687824250000119, 45.582405091 ], [ 18.685905457000104, 45.582889556000055 ], [ 18.682655335000106, 45.583187103000057 ], [ 18.679351806000057, 45.583045961000096 ], [ 18.677221298000177, 45.582672118000175 ], [ 18.672000886000092, 45.580875397000113 ], [ 18.667543412000043, 45.57991790900013 ], [ 18.665340424000192, 45.579780578000054 ], [ 18.663146974000085, 45.579902649000076 ], [ 18.658496856000056, 45.580818176000093 ], [ 18.655244828000093, 45.581039428999986 ], [ 18.652145385999972, 45.580661774000134 ], [ 18.644315719000076, 45.578796387000068 ], [ 18.640949249000073, 45.578430177000143 ], [ 18.639366150000114, 45.578571319000048 ], [ 18.637981415000183, 45.579010009000115 ], [ 18.635488510000073, 45.580303192000088 ], [ 18.62998771700012, 45.582542420000095 ], [ 18.62312316800012, 45.584728242000153 ], [ 18.617168427000138, 45.587028505000092 ], [ 18.608564376000061, 45.591369628000052 ], [ 18.605398178000144, 45.593151091999971 ], [ 18.604932786000177, 45.593284608000033 ], [ 18.608688354000037, 45.601654053000175 ], [ 18.609127045000037, 45.608482360000039 ], [ 18.611799240000039, 45.609977723000043 ], [ 18.613840103000086, 45.611938477000081 ], [ 18.614604949000125, 45.613590240000065 ], [ 18.614843368000038, 45.615291597000066 ], [ 18.614599229000191, 45.617004394999981 ], [ 18.614246368000181, 45.617847444000063 ], [ 18.613752364000163, 45.618598939000151 ], [ 18.612432480000052, 45.619907380000143 ], [ 18.610763549000069, 45.620964050000168 ], [ 18.609785081000098, 45.621372224000027 ], [ 18.607725144000085, 45.621791838999968 ], [ 18.605804444000171, 45.621692657000153 ], [ 18.604722976000062, 45.62142181400003 ], [ 18.602071762000037, 45.620056153000064 ], [ 18.60005951, 45.618190765000122 ], [ 18.59824562, 45.615169526000159 ], [ 18.596748352000134, 45.611347199000193 ], [ 18.596258164000062, 45.60882186900011 ], [ 18.596105575000138, 45.603118896000126 ], [ 18.601791381000055, 45.594188690000067 ], [ 18.5951099400001, 45.591911316000107 ], [ 18.593112944999973, 45.591491699000073 ], [ 18.590927124000075, 45.591289520000146 ], [ 18.587476730000049, 45.591213226000036 ], [ 18.581649780000191, 45.591480256000125 ], [ 18.578334809000069, 45.591995240000131 ], [ 18.57503891000016, 45.59305954000007 ], [ 18.570840836000059, 45.595428466000158 ], [ 18.566043853999986, 45.59762573200004 ], [ 18.567747116000078, 45.601081847999978 ], [ 18.568233491000058, 45.602790833000086 ], [ 18.568214415999989, 45.604400634000172 ], [ 18.567787169999974, 45.606670380000025 ], [ 18.567998885, 45.608421325000052 ], [ 18.57168007000007, 45.61495590300018 ], [ 18.572256087000028, 45.617420197000115 ], [ 18.571910858000138, 45.61994552699997 ], [ 18.571073532000128, 45.621501923000153 ], [ 18.569854737000071, 45.622867584000119 ], [ 18.566881180000166, 45.625362396000128 ], [ 18.559364318000121, 45.624504089000027 ], [ 18.554513930999974, 45.620697022000115 ], [ 18.552883149000081, 45.620040894000169 ], [ 18.550823213000172, 45.619762421000132 ], [ 18.547760009, 45.620082856000067 ], [ 18.544565200000079, 45.621105194000108 ], [ 18.542406081000081, 45.62216186600017 ], [ 18.541278838000153, 45.623218536000195 ], [ 18.540756226000042, 45.624526977000187 ], [ 18.541051865000099, 45.625839234000125 ], [ 18.542139052999971, 45.626964569000052 ], [ 18.543706894000138, 45.627700806000121 ], [ 18.545810700000118, 45.628086091000114 ], [ 18.548038482000038, 45.628158569999982 ], [ 18.55645942700005, 45.62771606400014 ], [ 18.559602737000034, 45.632873536000034 ], [ 18.562557219999974, 45.63474273800017 ], [ 18.570236205000015, 45.637229920000038 ], [ 18.578098296000121, 45.641147613000101 ], [ 18.584474564000118, 45.645465850999983 ], [ 18.586788178000063, 45.64743805 ], [ 18.588996887000121, 45.64978408800016 ], [ 18.590986252000164, 45.651107788000104 ], [ 18.594558715000062, 45.652107239000088 ], [ 18.598701477000191, 45.65270614700006 ], [ 18.60765266400017, 45.651962280000077 ], [ 18.609870909999984, 45.652011872000116 ], [ 18.612049102000128, 45.652347566000174 ], [ 18.615009308000083, 45.653446197000051 ], [ 18.620012283000051, 45.656398773000092 ], [ 18.623889923999968, 45.658214568000119 ], [ 18.625785828000176, 45.659652710000103 ], [ 18.626733780000109, 45.660961152000027 ], [ 18.628353118000121, 45.665695191000111 ], [ 18.630844115000116, 45.670021057000099 ], [ 18.63261032000014, 45.671573639000144 ], [ 18.635040284000127, 45.672477722000053 ], [ 18.637674332000074, 45.672634124000183 ], [ 18.644622803000118, 45.672080993000179 ], [ 18.648345948000042, 45.671588897000163 ], [ 18.653240204000156, 45.670425415000125 ], [ 18.655538560000082, 45.670051575000116 ], [ 18.66153335600012, 45.669750214000146 ], [ 18.666280745999984, 45.670059203000051 ], [ 18.672208786000056, 45.671329498000091 ], [ 18.682573319000085, 45.673187257000052 ], [ 18.686000825000178, 45.673236847000055 ], [ 18.690029144000107, 45.672626496000078 ] ] ] ] } },
{ "type": "Feature", "properties": { "fid": 247, "GID_2": "HRV.11.12_1", "GID_0": "HRV", "COUNTRY": "Croatia", "GID_1": "HRV.11_1", "NAME_1": "Osjecko-Baranjska", "NL_NAME_1": "NA", "NAME_2": "Draž", "VARNAME_2": "NA", "NL_NAME_2": "NA", "TYPE_2": "Općina", "ENGTYPE_2": "Commune", "CC_2": "NA", "HASC_2": "HR.OB.DZ" }, "geometry": { "type": "MultiPolygon", "coordinates": [ [ [ [ 18.816358566000076, 45.824607850000064 ], [ 18.810844422000173, 45.828243256000121 ], [ 18.808126450000145, 45.829315186000031 ], [ 18.802541733, 45.830997467000032 ], [ 18.79986763, 45.83119964600013 ], [ 18.795875549000186, 45.831020356000067 ], [ 18.790061951000041, 45.831081391000055 ], [ 18.788375854000037, 45.830913543000179 ], [ 18.784652710000046, 45.829795838000166 ], [ 18.778247832000147, 45.826713562000066 ], [ 18.77602386500007, 45.826072694000118 ], [ 18.769109726000067, 45.82460403500005 ], [ 18.758419036000134, 45.821334839000087 ], [ 18.753902436000033, 45.820606232000102 ], [ 18.749048233999986, 45.820617676000154 ], [ 18.746486664000145, 45.820148469000173 ], [ 18.738292695000155, 45.816322327000137 ], [ 18.734828950000178, 45.814945222000119 ], [ 18.728973388000099, 45.81200790500003 ], [ 18.718200684000124, 45.808540345000154 ], [ 18.715047836, 45.808090211000035 ], [ 18.706497193000132, 45.807933809000076 ], [ 18.699733733000073, 45.807071686000086 ], [ 18.697843552000109, 45.816757202000133 ], [ 18.69833374000018, 45.821231841999975 ], [ 18.699558258000025, 45.825382234000017 ], [ 18.699649812000132, 45.826774597000053 ], [ 18.699388504000012, 45.828155519000063 ], [ 18.697879791000162, 45.831653595000148 ], [ 18.69779396000007, 45.833446502000072 ], [ 18.69828415000012, 45.835151672000109 ], [ 18.69991493200007, 45.838905335000106 ], [ 18.70041847300007, 45.84226989800004 ], [ 18.700117111, 45.845485688 ], [ 18.699514388000125, 45.846889497000063 ], [ 18.699028015000124, 45.847488403000057 ], [ 18.695821762000151, 45.849441529000046 ], [ 18.692226409000114, 45.852737426000147 ], [ 18.690828323000062, 45.85332870600007 ], [ 18.688539506000154, 45.853454590000183 ], [ 18.684488296000154, 45.852535249000027 ], [ 18.680578233, 45.852203369000108 ], [ 18.677566529000046, 45.852516175000062 ], [ 18.674583435000159, 45.853614806999985 ], [ 18.670198441000082, 45.856254578 ], [ 18.664560318000099, 45.860446930000137 ], [ 18.661937714000032, 45.863052369000172 ], [ 18.658672332000037, 45.867527009000014 ], [ 18.657421113000169, 45.868503570000087 ], [ 18.655878068000106, 45.869232179000051 ], [ 18.652961731000119, 45.869789125000125 ], [ 18.647899627000129, 45.870059966999975 ], [ 18.643392563000077, 45.870635987000071 ], [ 18.63962364200006, 45.870471954000095 ], [ 18.635841369000048, 45.873504639000089 ], [ 18.645431519000056, 45.886852264000026 ], [ 18.648599625000145, 45.891197205000083 ], [ 18.652965546000189, 45.897190094000052 ], [ 18.654245377000109, 45.898101807000103 ], [ 18.658836364000081, 45.901374817000033 ], [ 18.67907333300019, 45.90619278000014 ], [ 18.699611665000134, 45.90976333600014 ], [ 18.704265595000038, 45.91057205300018 ], [ 18.709615705999965, 45.910034181000071 ], [ 18.723688126000127, 45.90861892700002 ], [ 18.748565674000019, 45.901901245000033 ], [ 18.765962601000183, 45.893825531000118 ], [ 18.778192520000175, 45.887607575000061 ], [ 18.782577515000185, 45.88537597800007 ], [ 18.788782121, 45.882369995000147 ], [ 18.792135238000071, 45.880748749000134 ], [ 18.795927048000124, 45.882801057000108 ], [ 18.801969529000075, 45.886070253000071 ], [ 18.803646087000061, 45.886978150000118 ], [ 18.804216384000085, 45.900165558000026 ], [ 18.806150436999985, 45.903190613000163 ], [ 18.811326980000104, 45.911281585999973 ], [ 18.808721543000104, 45.898654938000107 ], [ 18.808521271000075, 45.894683839000095 ], [ 18.809888840000156, 45.887287140000126 ], [ 18.81529426600008, 45.881855010000095 ], [ 18.823226928000111, 45.877929689000098 ], [ 18.834890366000025, 45.87290954600013 ], [ 18.835327149000022, 45.872478485999977 ], [ 18.844196320000151, 45.863731384000118 ], [ 18.844459535000169, 45.850780487000179 ], [ 18.840164184000116, 45.841674805000082 ], [ 18.835887908000132, 45.832576751000147 ], [ 18.834375382000076, 45.822536468000123 ], [ 18.838817596000069, 45.815738677000127 ], [ 18.838642120000145, 45.815757751000149 ], [ 18.835027695000122, 45.816463471000077 ], [ 18.829521180000029, 45.817188263 ], [ 18.827529907000041, 45.817676545000097 ], [ 18.825866699000073, 45.818546296000193 ], [ 18.82228851300016, 45.821441652000146 ], [ 18.816358566000076, 45.824607850000064 ] ] ] ] } },
{ "type": "Feature", "properties": { "fid": 255, "GID_2": "HRV.11.20_1", "GID_0": "HRV", "COUNTRY": "Croatia", "GID_1": "HRV.11_1", "NAME_1": "Osjecko-Baranjska", "NL_NAME_1": "NA", "NAME_2": "Kneževi Vinogradi", "VARNAME_2": "NA", "NL_NAME_2": "NA", "TYPE_2": "Općina", "ENGTYPE_2": "Commune", "CC_2": "NA", "HASC_2": "HR.OB.KV" }, "geometry": { "type": "MultiPolygon", "coordinates": [ [ [ [ 18.639490128000034, 45.72880935600017 ], [ 18.633279799000036, 45.733650208000086 ], [ 18.62948226900005, 45.737648010000157 ], [ 18.626037597000163, 45.743446350000113 ], [ 18.625167847000114, 45.746215822000067 ], [ 18.625009537000153, 45.748146057000042 ], [ 18.625711442000068, 45.75013351500013 ], [ 18.629554749000022, 45.754856109000116 ], [ 18.630832672000111, 45.756771089000097 ], [ 18.633495332000166, 45.762256623000098 ], [ 18.63524436900002, 45.767971039000031 ], [ 18.637769699000103, 45.772487640000122 ], [ 18.639432907000014, 45.774532319000059 ], [ 18.642845155000089, 45.77764511200013 ], [ 18.645210266000106, 45.780296326000155 ], [ 18.649511337000092, 45.779216766000161 ], [ 18.651870728000176, 45.778823852000187 ], [ 18.655658723000158, 45.778507232999971 ], [ 18.659355164000033, 45.77841568100007 ], [ 18.66346931400011, 45.778629303000116 ], [ 18.665519715000187, 45.779197692000025 ], [ 18.668359756000086, 45.780460359000131 ], [ 18.670324324999967, 45.781501770000034 ], [ 18.672740936000025, 45.783134462000135 ], [ 18.679609298000059, 45.788955689000147 ], [ 18.680837630000099, 45.790866852000079 ], [ 18.682157517000121, 45.795211793000135 ], [ 18.683219909000115, 45.796649933000083 ], [ 18.684621810000181, 45.797992706000116 ], [ 18.687099456, 45.799835205000022 ], [ 18.688919067000029, 45.800926208000135 ], [ 18.696403504000159, 45.804622651000045 ], [ 18.699733733000073, 45.807071686000086 ], [ 18.706497193000132, 45.807933809000076 ], [ 18.715047836, 45.808090211000035 ], [ 18.718200684000124, 45.808540345000154 ], [ 18.728973388000099, 45.81200790500003 ], [ 18.734828950000178, 45.814945222000119 ], [ 18.738292695000155, 45.816322327000137 ], [ 18.746486664000145, 45.820148469000173 ], [ 18.749048233999986, 45.820617676000154 ], [ 18.753902436000033, 45.820606232000102 ], [ 18.758419036000134, 45.821334839000087 ], [ 18.769109726000067, 45.82460403500005 ], [ 18.77602386500007, 45.826072694000118 ], [ 18.778247832000147, 45.826713562000066 ], [ 18.784652710000046, 45.829795838000166 ], [ 18.788375854000037, 45.830913543000179 ], [ 18.790061951000041, 45.831081391000055 ], [ 18.795875549000186, 45.831020356000067 ], [ 18.79986763, 45.83119964600013 ], [ 18.802541733, 45.830997467000032 ], [ 18.808126450000145, 45.829315186000031 ], [ 18.810844422000173, 45.828243256000121 ], [ 18.816358566000076, 45.824607850000064 ], [ 18.810300827000049, 45.82020187400002 ], [ 18.807462691000012, 45.817665100000113 ], [ 18.805978774000096, 45.815658569000107 ], [ 18.805131912000036, 45.812984468000082 ], [ 18.804916382000101, 45.810241699000073 ], [ 18.805028915000094, 45.807491303000063 ], [ 18.805295945000182, 45.805686951000155 ], [ 18.805833817000064, 45.803928376000044 ], [ 18.806804658000033, 45.802333832000102 ], [ 18.808137893000151, 45.800987243000122 ], [ 18.810571670000172, 45.799285889000089 ], [ 18.812635421000095, 45.798286439000151 ], [ 18.81613159200009, 45.797073365000131 ], [ 18.819631577000052, 45.796630859000118 ], [ 18.825576783000088, 45.796764373000144 ], [ 18.827896119000172, 45.797054291000165 ], [ 18.830114364999986, 45.797569276000047 ], [ 18.831958771000018, 45.798355103000119 ], [ 18.8333511350001, 45.799320220000141 ], [ 18.836626053000032, 45.802795411000034 ], [ 18.838842392000174, 45.804664613000114 ], [ 18.844432831000063, 45.808086396000192 ], [ 18.844589233000022, 45.808200836000083 ], [ 18.850540162000129, 45.80195617600009 ], [ 18.863750459000073, 45.791442871000015 ], [ 18.876874924, 45.77395629900019 ], [ 18.882827758000133, 45.75645828200004 ], [ 18.883682250000163, 45.753944397000168 ], [ 18.883621215000176, 45.741039277000141 ], [ 18.884592056000088, 45.730354309000177 ], [ 18.890548707000107, 45.717185974000131 ], [ 18.897470474000045, 45.712741853000068 ], [ 18.894113541000024, 45.709655761000135 ], [ 18.890966414000104, 45.705207825000173 ], [ 18.888446808000026, 45.700084687000128 ], [ 18.887546539000027, 45.695255279000037 ], [ 18.887092590000066, 45.694530487000122 ], [ 18.885749817000033, 45.69324875 ], [ 18.883914947000108, 45.692268371000182 ], [ 18.882797241, 45.691932678 ], [ 18.88044357300015, 45.691577912000184 ], [ 18.875579833000074, 45.691665650000118 ], [ 18.869665146000159, 45.692794801000048 ], [ 18.866462708000029, 45.692993165000132 ], [ 18.863391877000026, 45.692562103000171 ], [ 18.860000611000146, 45.691440583000087 ], [ 18.856628418000071, 45.689777375000119 ], [ 18.853624344000025, 45.687301636000029 ], [ 18.848299027000053, 45.680721283000082 ], [ 18.846612931000152, 45.678100585000152 ], [ 18.845470428000056, 45.676944733000084 ], [ 18.844648361000168, 45.676460266000049 ], [ 18.842786789000115, 45.675792694000052 ], [ 18.839002609000033, 45.675128938000057 ], [ 18.836368561000029, 45.675224305000029 ], [ 18.834648133000144, 45.675796509000122 ], [ 18.833896637000123, 45.67624664300007 ], [ 18.832757949000097, 45.677402497000116 ], [ 18.832366943000068, 45.678188324000018 ], [ 18.832145691000051, 45.679798127000083 ], [ 18.832500457000094, 45.681404115000078 ], [ 18.833408355000074, 45.682926178000173 ], [ 18.837610244000189, 45.686805725000113 ], [ 18.839235305000102, 45.688949586000092 ], [ 18.839504243000135, 45.691150666000169 ], [ 18.838869095000177, 45.69271850500013 ], [ 18.836809159000097, 45.694881439000028 ], [ 18.834157944000026, 45.696746826000094 ], [ 18.824878692000141, 45.702331543000071 ], [ 18.822986604000107, 45.703296661000138 ], [ 18.82091522200011, 45.704025270000102 ], [ 18.818883896000102, 45.704349518000129 ], [ 18.816833496000072, 45.704376221000132 ], [ 18.812774657999967, 45.703903199000081 ], [ 18.809476853000092, 45.703239441000051 ], [ 18.806560516000104, 45.702011108000079 ], [ 18.804178237000087, 45.700393677000136 ], [ 18.801242828000113, 45.697910308000075 ], [ 18.797687531000179, 45.696098328000062 ], [ 18.79596710200002, 45.695484162000071 ], [ 18.793670655000028, 45.69500732500012 ], [ 18.788803100000052, 45.69465255800003 ], [ 18.782638550000172, 45.694858550000163 ], [ 18.779109954999967, 45.695545197000058 ], [ 18.775783539000088, 45.69710159300007 ], [ 18.770452499000044, 45.700679780000087 ], [ 18.767612457000098, 45.702236176000042 ], [ 18.764516831000094, 45.703063965000069 ], [ 18.762428284000066, 45.70320510900001 ], [ 18.760335923000014, 45.703086853 ], [ 18.757274627000072, 45.702266693000183 ], [ 18.754663467000171, 45.700691223000035 ], [ 18.752614976000075, 45.698711396000078 ], [ 18.750680923000175, 45.695758820000037 ], [ 18.746799469, 45.697200775000056 ], [ 18.743289947000051, 45.698921203000168 ], [ 18.741638184000067, 45.701011658000027 ], [ 18.739528656000175, 45.702308654000035 ], [ 18.736825944000032, 45.703079223000088 ], [ 18.731163026000047, 45.703746797000065 ], [ 18.727993012000127, 45.704410553000116 ], [ 18.725376130000143, 45.705738068000073 ], [ 18.723222732000124, 45.707534789000135 ], [ 18.720722199000136, 45.711109162000071 ], [ 18.720092773999966, 45.712608337000177 ], [ 18.719659805000163, 45.715179443000125 ], [ 18.719753266000168, 45.724029542000096 ], [ 18.71945381200004, 45.727447510000104 ], [ 18.71865272500014, 45.729545593000068 ], [ 18.717508316000192, 45.73121261600005 ], [ 18.716245652000168, 45.73219680800014 ], [ 18.714637757000105, 45.732868194000048 ], [ 18.713369370000066, 45.733100892000152 ], [ 18.710626601000058, 45.733081819000063 ], [ 18.704347610000184, 45.732368470000097 ], [ 18.701341629000069, 45.731506347999982 ], [ 18.696866989000057, 45.729629517000035 ], [ 18.694026948000158, 45.729190827000025 ], [ 18.692251205000048, 45.729385376000039 ], [ 18.691484452000111, 45.729633332000105 ], [ 18.688716888999977, 45.731479644000103 ], [ 18.687875748000124, 45.731811524000193 ], [ 18.685848235000151, 45.732212068000138 ], [ 18.683567048000157, 45.732349397000064 ], [ 18.681184769000083, 45.73227691600016 ], [ 18.678821563000156, 45.731990815000017 ], [ 18.674072266000053, 45.73107147200011 ], [ 18.670545578000088, 45.730945586000132 ], [ 18.667095184000061, 45.731353760000161 ], [ 18.661933899000132, 45.732830047 ], [ 18.659971237000093, 45.733104705000187 ], [ 18.657960891000016, 45.733150482000156 ], [ 18.652715683, 45.732692718000123 ], [ 18.649341584000183, 45.732112886000095 ], [ 18.639490128000034, 45.72880935600017 ] ] ] ] } },
{ "type": "Feature", "properties": { "fid": 263, "GID_2": "HRV.11.28_1", "GID_0": "HRV", "COUNTRY": "Croatia", "GID_1": "HRV.11_1", "NAME_1": "Osjecko-Baranjska", "NL_NAME_1": "NA", "NAME_2": "Petlovac", "VARNAME_2": "NA", "NL_NAME_2": "NA", "TYPE_2": "Općina", "ENGTYPE_2": "Commune", "CC_2": "NA", "HASC_2": "HR.OB.PL" }, "geometry": { "type": "MultiPolygon", "coordinates": [ [ [ [ 18.563720702000182, 45.800979615000074 ], [ 18.563747406000061, 45.800640107000049 ], [ 18.563707352000108, 45.799381256000061 ], [ 18.56343078600014, 45.798515320000149 ], [ 18.562147141000082, 45.796951294000053 ], [ 18.557229996000103, 45.793399810000039 ], [ 18.554126740000015, 45.791530610000109 ], [ 18.551609040000073, 45.789104462000068 ], [ 18.550256729000182, 45.787399292000032 ], [ 18.548809051000148, 45.785034181000185 ], [ 18.547309876000156, 45.782123567000042 ], [ 18.546926498000062, 45.780883789000143 ], [ 18.547237397000117, 45.77904510500008 ], [ 18.548103333000029, 45.777896881000117 ], [ 18.549287796000044, 45.776947022000115 ], [ 18.552387238000165, 45.774986267000145 ], [ 18.555812836000086, 45.772018433000085 ], [ 18.556781769000054, 45.770996093000065 ], [ 18.557392121000134, 45.769832611000083 ], [ 18.557319642000039, 45.768241882000154 ], [ 18.555828095000038, 45.765514374000077 ], [ 18.555089950000138, 45.763248445000102 ], [ 18.554752350000115, 45.760787965000077 ], [ 18.554641724000192, 45.757415772000058 ], [ 18.555040360000135, 45.753219605000027 ], [ 18.557931901000188, 45.743881225000109 ], [ 18.550731659000064, 45.744758606000119 ], [ 18.540988922000111, 45.745658875000117 ], [ 18.538677216000167, 45.746063232000097 ], [ 18.534990311, 45.747001649000026 ], [ 18.531431199000053, 45.747550964000084 ], [ 18.516159058000028, 45.748451234000129 ], [ 18.507467269000074, 45.748649598000043 ], [ 18.502950669000086, 45.749137878999989 ], [ 18.498369217000118, 45.750053406000177 ], [ 18.496627807999971, 45.750144958000135 ], [ 18.493965149000019, 45.749794007000105 ], [ 18.489784240000063, 45.748657226000148 ], [ 18.481077195000012, 45.7447433480001 ], [ 18.478410720000113, 45.742790221000064 ], [ 18.476028443000075, 45.740032197000119 ], [ 18.474710464, 45.738258362000181 ], [ 18.4725666060001, 45.734580994000055 ], [ 18.472148895999965, 45.73296737600009 ], [ 18.472082138000133, 45.731330872000058 ], [ 18.472328187000187, 45.729724884000063 ], [ 18.473104476000174, 45.727172852000081 ], [ 18.473207473000116, 45.72581863400012 ], [ 18.472999573000095, 45.724510192000082 ], [ 18.472185135000075, 45.722221375000117 ], [ 18.472120285000187, 45.720878602000141 ], [ 18.472621918000073, 45.719593049000082 ], [ 18.47390556300013, 45.718547820000026 ], [ 18.47569084200012, 45.717964173000155 ], [ 18.480533599000182, 45.716918946000078 ], [ 18.483572006000145, 45.715690614000039 ], [ 18.484865189000118, 45.714923858000191 ], [ 18.485855103000119, 45.71393203700012 ], [ 18.486850738000157, 45.712165834000075 ], [ 18.487085343000103, 45.710632324000017 ], [ 18.486797333000084, 45.709091187000126 ], [ 18.486444474000109, 45.708335877000195 ], [ 18.485305785000151, 45.706920623000144 ], [ 18.4830245980001, 45.705062866000162 ], [ 18.464235305000045, 45.693096160000039 ], [ 18.461879730000135, 45.695175170000084 ], [ 18.460874558000114, 45.696895600000119 ], [ 18.460130691000074, 45.704841613000099 ], [ 18.45962715200011, 45.706531525000116 ], [ 18.458135605000052, 45.708885193000185 ], [ 18.455394743999989, 45.711799622000171 ], [ 18.452722549000157, 45.713512422000122 ], [ 18.450492859000065, 45.714286805000143 ], [ 18.446874619000027, 45.71473693900009 ], [ 18.443271638000056, 45.71445465100004 ], [ 18.440458299000056, 45.71338653600003 ], [ 18.438638686000047, 45.71184539900014 ], [ 18.437107087000072, 45.709510804000161 ], [ 18.435895920000121, 45.706340791000116 ], [ 18.435594558000048, 45.703964234000068 ], [ 18.43591499300004, 45.701084137000066 ], [ 18.437154769000131, 45.697120666000103 ], [ 18.436994552000101, 45.694812775 ], [ 18.436338425000088, 45.693325043000016 ], [ 18.433353423000028, 45.689296722000051 ], [ 18.431739807999975, 45.685829162000061 ], [ 18.430534363000163, 45.68465805000011 ], [ 18.429624558000114, 45.68425750800003 ], [ 18.427608489000022, 45.68395614700006 ], [ 18.425573349000047, 45.684238435000111 ], [ 18.423936844000082, 45.685039520000089 ], [ 18.423383713000021, 45.685550689000195 ], [ 18.422605515000157, 45.686939239000139 ], [ 18.421871185000157, 45.689979554000047 ], [ 18.421014785000125, 45.692054749000079 ], [ 18.418584824000106, 45.695446015000186 ], [ 18.420227051000154, 45.698551178000173 ], [ 18.423307420000015, 45.700561523000147 ], [ 18.425542832000076, 45.70299148600003 ], [ 18.426328658999978, 45.704521180000143 ], [ 18.42682266200012, 45.706115723000153 ], [ 18.427179336000108, 45.708480836000035 ], [ 18.427129746000105, 45.709968568000193 ], [ 18.426593781000065, 45.711368561000086 ], [ 18.425933838000105, 45.71203231800007 ], [ 18.425022125000055, 45.712524415000189 ], [ 18.422958374000132, 45.712898255000027 ], [ 18.420904160000134, 45.712577820000092 ], [ 18.419420243000047, 45.71178817800012 ], [ 18.418390275000093, 45.710697175000178 ], [ 18.417764663000185, 45.709152222000114 ], [ 18.417547225000135, 45.704929352000136 ], [ 18.414461136000114, 45.702919006000059 ], [ 18.412248612000042, 45.70339965800008 ], [ 18.409191131000114, 45.704395295000097 ], [ 18.405340195000122, 45.706546783000135 ], [ 18.402854919000049, 45.707183838000162 ], [ 18.39966964700011, 45.70741653400006 ], [ 18.396318435000126, 45.707309724000083 ], [ 18.394128800000033, 45.707035066000117 ], [ 18.390424729000074, 45.706268310000098 ], [ 18.386850357000071, 45.706001282000045 ], [ 18.383277894000173, 45.706363679000049 ], [ 18.382141112999989, 45.706672669000056 ], [ 18.380458832000159, 45.707424164000145 ], [ 18.37862205600004, 45.708759309000072 ], [ 18.376613617000089, 45.710842132000153 ], [ 18.371730803, 45.717426300000113 ], [ 18.370899199000121, 45.719848634000186 ], [ 18.370761871000127, 45.725601196000071 ], [ 18.370458603000088, 45.727096558000028 ], [ 18.369539261000057, 45.728450775000056 ], [ 18.368850708000025, 45.728931427000191 ], [ 18.367252351, 45.729572297000118 ], [ 18.36557197500008, 45.729927063000162 ], [ 18.363771438000015, 45.730014800000049 ], [ 18.36097335900007, 45.729682922000109 ], [ 18.359014512000101, 45.729209900000058 ], [ 18.355876923000096, 45.727806092000094 ], [ 18.348035813000024, 45.723213196000017 ], [ 18.345771789000139, 45.722362519000058 ], [ 18.343479157000161, 45.721908570000096 ], [ 18.339935303, 45.721710206000182 ], [ 18.336402893000127, 45.721981049000135 ], [ 18.334123611, 45.72251129100016 ], [ 18.33118057300004, 45.723968507000109 ], [ 18.329002381000123, 45.725936889000081 ], [ 18.328485489000172, 45.726696015000186 ], [ 18.327856065000105, 45.728347779000046 ], [ 18.327672959000097, 45.731735231000187 ], [ 18.32803726100019, 45.734283448000099 ], [ 18.32852745100007, 45.735942840000064 ], [ 18.331932068000128, 45.742244721000077 ], [ 18.333278656000175, 45.744213105000028 ], [ 18.336122512000088, 45.747760774000028 ], [ 18.342060090000075, 45.753482820000045 ], [ 18.337265015000071, 45.755725860000041 ], [ 18.344743729000129, 45.758495332000052 ], [ 18.346811295000123, 45.759262086000035 ], [ 18.347623826000131, 45.759929657000157 ], [ 18.35971260000008, 45.769847869000102 ], [ 18.37478828400009, 45.768466949000072 ], [ 18.382083893000072, 45.767799378000177 ], [ 18.394588470000031, 45.759037018000072 ], [ 18.396286011000086, 45.757846832000041 ], [ 18.402412414000082, 45.749217987000065 ], [ 18.421585081999979, 45.747829437000121 ], [ 18.431787490000033, 45.750232697000172 ], [ 18.442066192000141, 45.752655029000039 ], [ 18.445751189000134, 45.753787994000106 ], [ 18.462974549000023, 45.759075164000024 ], [ 18.469490052000083, 45.768665314000032 ], [ 18.474613189000024, 45.776206969999976 ], [ 18.477420806000111, 45.779899598000156 ], [ 18.485353470000064, 45.790340424000192 ], [ 18.485542297000165, 45.790592194000055 ], [ 18.495931626000129, 45.794967650999979 ], [ 18.496004104000065, 45.794998170000099 ], [ 18.49618339500006, 45.795074464000038 ], [ 18.508363723000173, 45.788928986000144 ], [ 18.511796952000111, 45.787319183000079 ], [ 18.513128281000036, 45.78669357299998 ], [ 18.521835327000133, 45.782615662000183 ], [ 18.546169282000108, 45.791633605000186 ], [ 18.556560517000037, 45.800170898000033 ], [ 18.557313919000023, 45.800254822000056 ], [ 18.563720702000182, 45.800979615000074 ] ] ] ] } },
{ "type": "Feature", "properties": { "fid": 267, "GID_2": "HRV.11.32_1", "GID_0": "HRV", "COUNTRY": "Croatia", "GID_1": "HRV.11_1", "NAME_1": "Osjecko-Baranjska", "NL_NAME_1": "NA", "NAME_2": "Popovac", "VARNAME_2": "NA", "NL_NAME_2": "NA", "TYPE_2": "Općina", "ENGTYPE_2": "Commune", "CC_2": "NA", "HASC_2": "HR.OB.PP" }, "geometry": { "type": "MultiPolygon", "coordinates": [ [ [ [ 18.645210266000106, 45.780296326000155 ], [ 18.638471603000085, 45.784732819000112 ], [ 18.630237579000038, 45.791389466000169 ], [ 18.625745774000052, 45.79445266700003 ], [ 18.624778748000153, 45.795368195000094 ], [ 18.623844147, 45.796981811000194 ], [ 18.623550416000114, 45.798160553000059 ], [ 18.623624802000052, 45.799301147000108 ], [ 18.624366759000111, 45.801605225000117 ], [ 18.624332428000173, 45.803375245000041 ], [ 18.623823166000136, 45.804622651000045 ], [ 18.622379303000116, 45.806991577000076 ], [ 18.621379852000132, 45.808223725000062 ], [ 18.620035171000154, 45.809459686000139 ], [ 18.61605453500016, 45.812259674000131 ], [ 18.614305495, 45.813243865000118 ], [ 18.609136581000087, 45.815738677000127 ], [ 18.602043153000068, 45.820430757000054 ], [ 18.599277496000127, 45.822074891000057 ], [ 18.593639374000134, 45.824371339000152 ], [ 18.594575883000061, 45.824844361000032 ], [ 18.603536606000091, 45.836963654000101 ], [ 18.604059220000181, 45.83766937200005 ], [ 18.604127883000103, 45.837760925999987 ], [ 18.60679245, 45.842624664000084 ], [ 18.608728409000094, 45.84615326 ], [ 18.612104417000182, 45.852310181000064 ], [ 18.612737656000036, 45.854480743000067 ], [ 18.616630554000096, 45.867797852000137 ], [ 18.617126465000183, 45.8685112 ], [ 18.623254777000113, 45.877319335000038 ], [ 18.630901338000115, 45.874820710000165 ], [ 18.635667801000068, 45.873264313000107 ], [ 18.635841369000048, 45.873504639000089 ], [ 18.63962364200006, 45.870471954000095 ], [ 18.643392563000077, 45.870635987000071 ], [ 18.647899627000129, 45.870059966999975 ], [ 18.652961731000119, 45.869789125000125 ], [ 18.655878068000106, 45.869232179000051 ], [ 18.657421113000169, 45.868503570000087 ], [ 18.658672332000037, 45.867527009000014 ], [ 18.661937714000032, 45.863052369000172 ], [ 18.664560318000099, 45.860446930000137 ], [ 18.670198441000082, 45.856254578 ], [ 18.674583435000159, 45.853614806999985 ], [ 18.677566529000046, 45.852516175000062 ], [ 18.680578233, 45.852203369000108 ], [ 18.684488296000154, 45.852535249000027 ], [ 18.688539506000154, 45.853454590000183 ], [ 18.690828323000062, 45.85332870600007 ], [ 18.692226409000114, 45.852737426000147 ], [ 18.695821762000151, 45.849441529000046 ], [ 18.699028015000124, 45.847488403000057 ], [ 18.699514388000125, 45.846889497000063 ], [ 18.700117111, 45.845485688 ], [ 18.70041847300007, 45.84226989800004 ], [ 18.69991493200007, 45.838905335000106 ], [ 18.69828415000012, 45.835151672000109 ], [ 18.69779396000007, 45.833446502000072 ], [ 18.697879791000162, 45.831653595000148 ], [ 18.699388504000012, 45.828155519000063 ], [ 18.699649812000132, 45.826774597000053 ], [ 18.699558258000025, 45.825382234000017 ], [ 18.69833374000018, 45.821231841999975 ], [ 18.697843552000109, 45.816757202000133 ], [ 18.699733733000073, 45.807071686000086 ], [ 18.696403504000159, 45.804622651000045 ], [ 18.688919067000029, 45.800926208000135 ], [ 18.687099456, 45.799835205000022 ], [ 18.684621810000181, 45.797992706000116 ], [ 18.683219909000115, 45.796649933000083 ], [ 18.682157517000121, 45.795211793000135 ], [ 18.680837630000099, 45.790866852000079 ], [ 18.679609298000059, 45.788955689000147 ], [ 18.672740936000025, 45.783134462000135 ], [ 18.670324324999967, 45.781501770000034 ], [ 18.668359756000086, 45.780460359000131 ], [ 18.665519715000187, 45.779197692000025 ], [ 18.66346931400011, 45.778629303000116 ], [ 18.659355164000033, 45.77841568100007 ], [ 18.655658723000158, 45.778507232999971 ], [ 18.651870728000176, 45.778823852000187 ], [ 18.649511337000092, 45.779216766000161 ], [ 18.645210266000106, 45.780296326000155 ] ] ] ] } },
{ "type": "Feature", "properties": { "fid": 275, "GID_2": "HRV.11.40_1", "GID_0": "HRV", "COUNTRY": "Croatia", "GID_1": "HRV.11_1", "NAME_1": "Osjecko-Baranjska", "NL_NAME_1": "NA", "NAME_2": "Liberland", "VARNAME_2": "NA", "NL_NAME_2": "NA", "TYPE_2": "Općina", "ENGTYPE_2": "Commune", "CC_2": "NA", "HASC_2": "NA" }, "geometry": { "type": "MultiPolygon", "coordinates": [ [ [ [ 18.816358566000076, 45.824607850000064 ], [ 18.82228851300016, 45.821441652000146 ], [ 18.825866699000073, 45.818546296000193 ], [ 18.827529907000041, 45.817676545000097 ], [ 18.829521180000029, 45.817188263 ], [ 18.835027695000122, 45.816463471000077 ], [ 18.838642120000145, 45.815757751000149 ], [ 18.838817596000069, 45.815738677000127 ], [ 18.841896057000156, 45.811023713000111 ], [ 18.844589233000022, 45.808200836000083 ], [ 18.844432831000063, 45.808086396000192 ], [ 18.838842392000174, 45.804664613000114 ], [ 18.836626053000032, 45.802795411000034 ], [ 18.8333511350001, 45.799320220000141 ], [ 18.831958771000018, 45.798355103000119 ], [ 18.830114364999986, 45.797569276000047 ], [ 18.827896119000172, 45.797054291000165 ], [ 18.825576783000088, 45.796764373000144 ], [ 18.819631577000052, 45.796630859000118 ], [ 18.81613159200009, 45.797073365000131 ], [ 18.812635421000095, 45.798286439000151 ], [ 18.810571670000172, 45.799285889000089 ], [ 18.808137893000151, 45.800987243000122 ], [ 18.806804658000033, 45.802333832000102 ], [ 18.805833817000064, 45.803928376000044 ], [ 18.805295945000182, 45.805686951000155 ], [ 18.805028915000094, 45.807491303000063 ], [ 18.804916382000101, 45.810241699000073 ], [ 18.805131912000036, 45.812984468000082 ], [ 18.805978774000096, 45.815658569000107 ], [ 18.807462691000012, 45.817665100000113 ], [ 18.810300827000049, 45.82020187400002 ], [ 18.816358566000076, 45.824607850000064 ] ] ] ] } }
]
}
