{
"type": "FeatureCollection",
"name": "KM-16_Occupied-territories",
"crs": { "type": "name", "properties": { "name": "urn:ogc:def:crs:OGC:1.3:CRS84" } },
"features": [
{ "type": "Feature", "properties": { "fid": 1, "GID_2": "XKO.1.1_1", "GID_0": "XKO", "COUNTRY": "Kosovo", "GID_1": "XKO.1_1", "NAME_1": "Đakovica", "NL_NAME_1": "NA", "NAME_2": "Đakovica", "VARNAME_2": "Gjakova|Gjakovë", "NL_NAME_2": "Ђаковица", "TYPE_2": "Opštine", "ENGTYPE_2": "Town|Municipal", "CC_2": "NA", "HASC_2": "NA" }, "geometry": { "type": "MultiPolygon", "coordinates": [ [ [ [ 20.587751389000061, 41.89636993400012 ], [ 20.586198807000017, 41.899074555000027 ], [ 20.584957123000152, 41.901248932000044 ], [ 20.584606172000179, 41.902069093000136 ], [ 20.582862855000087, 41.906131746000142 ], [ 20.582170486000052, 41.911443329000065 ], [ 20.583687511000107, 41.913945438000042 ], [ 20.584365845000093, 41.915832520000038 ], [ 20.585710526000071, 41.91728210499997 ], [ 20.587055207, 41.918731689000026 ], [ 20.590799332000074, 41.922760010000161 ], [ 20.595642089000137, 41.925060273000156 ], [ 20.597379684000089, 41.925884248000045 ], [ 20.599117279000097, 41.926708222000173 ], [ 20.61012458800019, 41.929649353000059 ], [ 20.617301941000107, 41.934684754000045 ], [ 20.622764587000177, 41.943340302000195 ], [ 20.623319626000182, 41.944213868000134 ], [ 20.625338555000155, 41.950378418000071 ], [ 20.625707626000064, 41.95171737700008 ], [ 20.627883912000186, 41.958328247000111 ], [ 20.628148080000187, 41.959140778000119 ], [ 20.62755584700011, 41.967594146000181 ], [ 20.620132447000174, 41.976406098000098 ], [ 20.618686676000038, 41.977859497 ], [ 20.615440369000112, 41.983829499000137 ], [ 20.61339759800012, 41.988323212000068 ], [ 20.610662460000071, 41.99430847300016 ], [ 20.607635498000093, 42.002986909000185 ], [ 20.605100631000084, 42.007698059000063 ], [ 20.604789733000132, 42.008262634000175 ], [ 20.602426529000127, 42.012687684000184 ], [ 20.597506714000133, 42.018526459000043 ], [ 20.594749451000155, 42.026819230000058 ], [ 20.593933106000065, 42.028732301000161 ], [ 20.593233109000096, 42.039428712000131 ], [ 20.593217849000098, 42.039638520000096 ], [ 20.589529038000137, 42.045017244000121 ], [ 20.583934783000132, 42.048927307000099 ], [ 20.569356918000153, 42.059230805000141 ], [ 20.564455986000041, 42.063993455 ], [ 20.564130783000053, 42.064304353000182 ], [ 20.56029510500008, 42.070274353000116 ], [ 20.559709549000161, 42.071186066000166 ], [ 20.559123993000185, 42.072097778000114 ], [ 20.559165899000106, 42.0739582490001 ], [ 20.55801773100012, 42.079813004000016 ], [ 20.560908318000145, 42.08472824100005 ], [ 20.561765671000103, 42.094558715000176 ], [ 20.559459685999968, 42.101356506000172 ], [ 20.560052871000153, 42.109848022 ], [ 20.562252044000104, 42.117458343000067 ], [ 20.562656403000062, 42.118858337000063 ], [ 20.562267303000056, 42.121250153000119 ], [ 20.561990737000087, 42.12295913600019 ], [ 20.560987473000182, 42.129146576000039 ], [ 20.560832024000035, 42.129571915000156 ], [ 20.560676575000059, 42.12999725300017 ], [ 20.558231354000156, 42.136753083000087 ], [ 20.558110237000164, 42.137092591000112 ], [ 20.549531936000108, 42.148277283000084 ], [ 20.546321870000099, 42.152381897000055 ], [ 20.540668106, 42.15788040200016 ], [ 20.535615921000044, 42.166137695000089 ], [ 20.531835555999976, 42.176685334000183 ], [ 20.528960705000088, 42.188617707000105 ], [ 20.524585089000084, 42.201494852000167 ], [ 20.517995835000022, 42.212036133000083 ], [ 20.512590408000165, 42.217533113000172 ], [ 20.506895065000094, 42.223308562999989 ], [ 20.499788285000079, 42.230388642000037 ], [ 20.492303849000052, 42.237842560000047 ], [ 20.487049103000118, 42.242286683000145 ], [ 20.480833054000129, 42.24755478000003 ], [ 20.476800918000094, 42.250766755000143 ], [ 20.469633103000092, 42.256425858 ], [ 20.469249726000044, 42.256702423000092 ], [ 20.45871925300014, 42.264335633000144 ], [ 20.442790984000055, 42.271993638000083 ], [ 20.425943375000031, 42.278926850000119 ], [ 20.412641526000186, 42.281982423000102 ], [ 20.406990051000037, 42.281639099000131 ], [ 20.400431633000039, 42.285467148 ], [ 20.399196624000069, 42.286186218000182 ], [ 20.392871856999989, 42.291572572000177 ], [ 20.388605118000044, 42.297084808000079 ], [ 20.382213592000028, 42.299921036000114 ], [ 20.372234344000162, 42.30240504000011 ], [ 20.367670059000091, 42.303424835000044 ], [ 20.362084707000122, 42.304660797000167 ], [ 20.361797334000073, 42.304721833000031 ], [ 20.353115082000045, 42.308040619 ], [ 20.352964401000122, 42.30830192600007 ], [ 20.349880218000123, 42.31362152100013 ], [ 20.34357738500006, 42.321302415000048 ], [ 20.334688823000022, 42.324910482000064 ], [ 20.327969551000081, 42.324615478000169 ], [ 20.320275307000088, 42.322404861000166 ], [ 20.311943055000086, 42.318645478000064 ], [ 20.307817459000148, 42.31527710000006 ], [ 20.306575776000159, 42.31426620600007 ], [ 20.30530738900012, 42.313240052000083 ], [ 20.301378250000027, 42.31145477400014 ], [ 20.297586440000146, 42.312767028 ], [ 20.297410011000011, 42.314296722000108 ], [ 20.297233581000171, 42.31582641600005 ], [ 20.298582077, 42.319141389000151 ], [ 20.298719663000043, 42.319474316000026 ], [ 20.294458389000056, 42.321811677000085 ], [ 20.286638259000142, 42.322109223000041 ], [ 20.277038574000187, 42.319984436000141 ], [ 20.275156975000186, 42.319639206000033 ], [ 20.273275376000186, 42.31929397600004 ], [ 20.268425970000067, 42.318405301000155 ], [ 20.261849403000099, 42.317199707000043 ], [ 20.261289597000143, 42.317096711000033 ], [ 20.257389069000169, 42.318599701000096 ], [ 20.250965118000067, 42.321090698000035 ], [ 20.246091842000055, 42.326004028000114 ], [ 20.244491577000076, 42.327621459000113 ], [ 20.243415832000153, 42.329841613000156 ], [ 20.241054535999979, 42.334716797000112 ], [ 20.240016937000064, 42.343528747000164 ], [ 20.240007401000128, 42.343647003 ], [ 20.239821392000124, 42.345198249000134 ], [ 20.239704131999986, 42.346176148000097 ], [ 20.239704131999986, 42.346317292000094 ], [ 20.239919662999966, 42.353134155000191 ], [ 20.242633820000094, 42.360992433000092 ], [ 20.24154472400005, 42.37015915000012 ], [ 20.235687257000109, 42.380195618000073 ], [ 20.225368501000048, 42.388416290000123 ], [ 20.21738243100009, 42.39447021400008 ], [ 20.212017060000107, 42.400295257000039 ], [ 20.211954117000175, 42.40082931500018 ], [ 20.211383820000151, 42.405647278000117 ], [ 20.212991714000111, 42.409599305000143 ], [ 20.222789764000083, 42.416422845 ], [ 20.22472953800019, 42.424564362000126 ], [ 20.219041824000158, 42.433059692000143 ], [ 20.212898254000038, 42.43666839600013 ], [ 20.211222648000103, 42.437654495000118 ], [ 20.209547042000054, 42.438640594000049 ], [ 20.201681138000083, 42.443542481000179 ], [ 20.19476699900008, 42.449272157000166 ], [ 20.191591263000191, 42.454090118000124 ], [ 20.193487167000058, 42.459972381000171 ], [ 20.195085526000071, 42.463474275000181 ], [ 20.196353911000074, 42.466251373000091 ], [ 20.196382523000182, 42.466320038 ], [ 20.192689895000171, 42.471092224000188 ], [ 20.187976836000189, 42.472606660000054 ], [ 20.186816216000068, 42.472980500000062 ], [ 20.185655595000071, 42.473354340000128 ], [ 20.181632996000019, 42.476566316000117 ], [ 20.180059433000167, 42.481090546000189 ], [ 20.176727295000148, 42.489360809000118 ], [ 20.17076873700006, 42.493606567000029 ], [ 20.167715072000078, 42.497264863000055 ], [ 20.1668090820001, 42.504913329000146 ], [ 20.158843994000051, 42.510578155000076 ], [ 20.15413284300007, 42.512214661000144 ], [ 20.134405136, 42.519077301000038 ], [ 20.12824249200014, 42.52178573700013 ], [ 20.119827269999973, 42.525501251000094 ], [ 20.112964631000182, 42.528526306000174 ], [ 20.112830163000069, 42.528600693000044 ], [ 20.102930068999967, 42.534057617000144 ], [ 20.099897384000144, 42.537086487000124 ], [ 20.091680526000118, 42.545299529000033 ], [ 20.083492280000087, 42.553932191000058 ], [ 20.083106995000094, 42.554338457000085 ], [ 20.075498581000147, 42.557178498000155 ], [ 20.070236206000175, 42.558967590000179 ], [ 20.064065932000176, 42.559368134000124 ], [ 20.058155060000161, 42.559757232000152 ], [ 20.052106857000012, 42.557561875000147 ], [ 20.051557541000079, 42.557258607000108 ], [ 20.04630851800016, 42.554389953000054 ], [ 20.039748407000161, 42.551078427000164 ], [ 20.039649065999981, 42.551028011000085 ], [ 20.03962135400019, 42.551013947000172 ], [ 20.038461685000073, 42.550426484000127 ], [ 20.033109664000165, 42.548316956 ], [ 20.033267974000125, 42.550312042000087 ], [ 20.033908844000052, 42.551212311000029 ], [ 20.038810728999977, 42.561786652000194 ], [ 20.045738221000136, 42.571289062000062 ], [ 20.046930314000065, 42.574726105000138 ], [ 20.046258926000121, 42.577693940000131 ], [ 20.039493561000029, 42.586448670000095 ], [ 20.036579131999986, 42.594383239000138 ], [ 20.033964157000071, 42.599708557000042 ], [ 20.033075333000113, 42.602558137000074 ], [ 20.033849716000134, 42.6069335950001 ], [ 20.037746429000038, 42.612667084000122 ], [ 20.055603028, 42.633262634000118 ], [ 20.0632534020001, 42.639873506000185 ], [ 20.071590423000089, 42.646114351000051 ], [ 20.057537079000099, 42.654823304000104 ], [ 20.052051544000165, 42.658843995000154 ], [ 20.044824601000016, 42.665649414000029 ], [ 20.039854050000088, 42.669303895000155 ], [ 20.036266327000135, 42.671260834000122 ], [ 20.022441864000029, 42.676975250000112 ], [ 20.01440811100008, 42.6808395380001 ], [ 20.003759384000034, 42.687263489000031 ], [ 19.993244171000129, 42.695186615000125 ], [ 19.989381790000039, 42.699131013000169 ], [ 19.9893054960001, 42.699207306000176 ], [ 19.986871720000181, 42.702766418000124 ], [ 19.980272293000098, 42.716915131000064 ], [ 19.979389192000156, 42.720165253000062 ], [ 19.979396820000034, 42.723556520000102 ], [ 19.981105805000141, 42.735092163000047 ], [ 19.982139588000166, 42.739421845000152 ], [ 19.985303879000014, 42.745708465000178 ], [ 19.997327805000168, 42.761371612000062 ], [ 20.001121520000083, 42.764408112000126 ], [ 20.001474380000104, 42.764690400000177 ], [ 20.007867814000122, 42.767223358000138 ], [ 20.011550904000046, 42.767955780000193 ], [ 20.017023086, 42.768047332000151 ], [ 20.02370834400017, 42.766899108000132 ], [ 20.038274766000143, 42.763259888000164 ], [ 20.049449920000029, 42.76193618800005 ], [ 20.055688857000121, 42.760623932000158 ], [ 20.060266494000075, 42.759094238000102 ], [ 20.071979523000095, 42.753612518000011 ], [ 20.07831573500016, 42.751083375000121 ], [ 20.087713241000188, 42.748203277000187 ], [ 20.095542907000038, 42.746448517000147 ], [ 20.099765778000119, 42.746131897000055 ], [ 20.103948594000144, 42.74631118800005 ], [ 20.115734101000157, 42.748275758000091 ], [ 20.121185304000107, 42.748229981000122 ], [ 20.127740861000063, 42.746894836000195 ], [ 20.149778366000135, 42.738883973000043 ], [ 20.156383513000151, 42.737613678 ], [ 20.163339614000051, 42.736946107000108 ], [ 20.17762756400009, 42.73668289200009 ], [ 20.184688567000023, 42.737064362000069 ], [ 20.19146919200017, 42.738006592000033 ], [ 20.196094514000038, 42.739231109000173 ], [ 20.202751159000059, 42.742118834999985 ], [ 20.207868576000067, 42.745353699000134 ], [ 20.211969375000024, 42.748893737000117 ], [ 20.216569901000184, 42.754951478000123 ], [ 20.224601745000029, 42.767848968000067 ], [ 20.225997925000058, 42.77283477900005 ], [ 20.221248628000126, 42.793434144000116 ], [ 20.221691131000057, 42.797084808000193 ], [ 20.223300934000122, 42.799732209000126 ], [ 20.227367402000141, 42.802875519000111 ], [ 20.237844468000162, 42.807609558000024 ], [ 20.241752624000014, 42.808910369000102 ], [ 20.255798339000023, 42.812419891000047 ], [ 20.270261764000054, 42.817840576000151 ], [ 20.277368545, 42.819248199000185 ], [ 20.297088623999969, 42.820507050000117 ], [ 20.300565720000122, 42.820045471000071 ], [ 20.302169800000115, 42.819873810000161 ], [ 20.302932740000188, 42.819839479000052 ], [ 20.303663254000071, 42.819877626000107 ], [ 20.304252625000061, 42.819984436000084 ], [ 20.304811478000033, 42.820152283000027 ], [ 20.30533981300016, 42.820365906000177 ], [ 20.306541441999968, 42.821071624000126 ], [ 20.313747407000164, 42.826240539000139 ], [ 20.33754539500012, 42.827518464000093 ], [ 20.344295501000147, 42.828075410000167 ], [ 20.349479674000179, 42.829139710000106 ], [ 20.35579681500019, 42.831226350000122 ], [ 20.358676910000156, 42.831760407000161 ], [ 20.361715317000119, 42.831962585000042 ], [ 20.364795684000171, 42.831890106000174 ], [ 20.367813110999975, 42.831504823000159 ], [ 20.370080947000076, 42.830936432000101 ], [ 20.372186661, 42.830127716000163 ], [ 20.379432678000114, 42.825855256000182 ], [ 20.388811112000042, 42.821006776000104 ], [ 20.393533706000142, 42.819461824000143 ], [ 20.395517349000045, 42.819030761000135 ], [ 20.398393630999976, 42.818836212000065 ], [ 20.401235580000048, 42.819152832000157 ], [ 20.403768539999987, 42.81992721600011 ], [ 20.40618896400008, 42.821002961000033 ], [ 20.412235260000159, 42.824462891000167 ], [ 20.415229798000098, 42.827198029000158 ], [ 20.420671463000133, 42.832935333000194 ], [ 20.424177169000131, 42.835720063000053 ], [ 20.428739548000067, 42.838539123000089 ], [ 20.435651779000068, 42.842132569 ], [ 20.444360733000167, 42.848770142000035 ], [ 20.448247910000191, 42.850772858000028 ], [ 20.452051163000192, 42.852233887000011 ], [ 20.462078095000095, 42.854545593000182 ], [ 20.471513748000177, 42.85562896800019 ], [ 20.474599837000142, 42.856109619000108 ], [ 20.476913453000066, 42.856700897000167 ], [ 20.4790554060001, 42.857517242000085 ], [ 20.486183167000036, 42.861850738000044 ], [ 20.491363525000054, 42.864086152000084 ], [ 20.499450684000124, 42.866264344000172 ], [ 20.508684159000154, 42.868183137000187 ], [ 20.509347915000035, 42.86785125800003 ], [ 20.510969161000048, 42.867603302000077 ], [ 20.515958785000066, 42.867778778000059 ], [ 20.527425765000089, 42.869575500000053 ], [ 20.537826537000171, 42.871856689000026 ], [ 20.541824340000119, 42.872394562000068 ], [ 20.544061662000161, 42.872253418000071 ], [ 20.54627227800006, 42.871788026000161 ], [ 20.556318284000156, 42.868118286000083 ], [ 20.564802169000188, 42.866230010000152 ], [ 20.569200515000091, 42.864742278000165 ], [ 20.574453354000127, 42.861728669000115 ], [ 20.580738068000187, 42.858596802000079 ], [ 20.582878113000106, 42.85686874400011 ], [ 20.588302613, 42.849925996000138 ], [ 20.592586518000189, 42.84617614800004 ], [ 20.593898773000149, 42.844730378000122 ], [ 20.599365234000061, 42.83761215200019 ], [ 20.600629807000189, 42.835746765000124 ], [ 20.602695465000181, 42.829914093000184 ], [ 20.603502273000174, 42.828380584 ], [ 20.605531692000113, 42.826431275000118 ], [ 20.608282089000056, 42.824592591000055 ], [ 20.617498398000123, 42.81902313300003 ], [ 20.622711182000103, 42.840679168000122 ], [ 20.623500824000075, 42.842117310000106 ], [ 20.624534607999976, 42.843246460999978 ], [ 20.625663757999973, 42.843898774000081 ], [ 20.626918792000083, 42.84413147000015 ], [ 20.628236771000161, 42.843887329000097 ], [ 20.629556656000034, 42.843265534000068 ], [ 20.635402680000027, 42.839195250999978 ], [ 20.637935637999988, 42.838088989000141 ], [ 20.639814377000107, 42.837772369000049 ], [ 20.641771316000131, 42.837825775 ], [ 20.645463944000085, 42.838752748000047 ], [ 20.649539947000108, 42.840457917000037 ], [ 20.654945373000089, 42.843387605000146 ], [ 20.657079696000039, 42.844150543000183 ], [ 20.659353257000078, 42.844657899000083 ], [ 20.662340164000057, 42.844913484000188 ], [ 20.665315629000133, 42.844741821000071 ], [ 20.667556764000039, 42.844287872000109 ], [ 20.669607162000034, 42.843555450000053 ], [ 20.671926499000165, 42.842159272000174 ], [ 20.673620223000171, 42.840381622 ], [ 20.674531936, 42.838424682000095 ], [ 20.674961091000114, 42.836318971000026 ], [ 20.675447464000115, 42.830577850000111 ], [ 20.676889419000133, 42.827098847000116 ], [ 20.682502747000058, 42.81978607200017 ], [ 20.685129165000092, 42.816955566000104 ], [ 20.691091537000148, 42.812923432000048 ], [ 20.699998856000036, 42.808296203000111 ], [ 20.702522277000185, 42.806701661000147 ], [ 20.708858489000079, 42.801486969000166 ], [ 20.711191178000092, 42.799976348000143 ], [ 20.713621140000043, 42.798847198000146 ], [ 20.716085433000103, 42.798362732000044 ], [ 20.718524932000093, 42.798782350000124 ], [ 20.720853806000036, 42.799858093000068 ], [ 20.722949982000102, 42.80133438200005 ], [ 20.724605560000157, 42.803073883000025 ], [ 20.72530555700007, 42.804347993000079 ], [ 20.725515364999978, 42.806270600000119 ], [ 20.724849701000153, 42.808368684000129 ], [ 20.71936607400005, 42.819847107000157 ], [ 20.717523575000087, 42.825252533000139 ], [ 20.71603965800017, 42.83092880300012 ], [ 20.716136933000143, 42.832149506000121 ], [ 20.715848922000191, 42.833122254000159 ], [ 20.715143204000071, 42.834648132999973 ], [ 20.714057923000041, 42.836185455000191 ], [ 20.711671829000181, 42.838256837000131 ], [ 20.703252792000171, 42.843658448000042 ], [ 20.701665877000039, 42.84495925900012 ], [ 20.700557708000076, 42.846401213999968 ], [ 20.699956894000138, 42.84793090800008 ], [ 20.699966430000188, 42.849884034000013 ], [ 20.700580596000066, 42.85133743300014 ], [ 20.701686858000073, 42.85262680000011 ], [ 20.703248977000101, 42.853683472000171 ], [ 20.705102921000048, 42.854557038000166 ], [ 20.708759307000037, 42.855701447000058 ], [ 20.711524963999977, 42.855991363000044 ], [ 20.715446472999986, 42.856006623000098 ], [ 20.71832656800018, 42.85634613000019 ], [ 20.721086502000105, 42.857112885000163 ], [ 20.728479386, 42.860740663000115 ], [ 20.730934144000116, 42.861682892000147 ], [ 20.733097077000082, 42.862205506000066 ], [ 20.735309600999983, 42.862438202000135 ], [ 20.742269515000146, 42.862266540000121 ], [ 20.745239259000186, 42.862503053000069 ], [ 20.752216338999972, 42.863868714000034 ], [ 20.75625419500011, 42.865081787000122 ], [ 20.75872039799998, 42.866580964000093 ], [ 20.761220933000061, 42.869041442000082 ], [ 20.765186309000057, 42.876522065000074 ], [ 20.768302917000142, 42.884235382000099 ], [ 20.77002334600013, 42.887027740000065 ], [ 20.771669388000078, 42.886772155000131 ], [ 20.781435013000134, 42.885219575000065 ], [ 20.790105819000075, 42.884845735000056 ], [ 20.79697227600002, 42.885265350000054 ], [ 20.801853180000137, 42.885253907000106 ], [ 20.804229736000138, 42.885112763000109 ], [ 20.806995393000079, 42.88375473100001 ], [ 20.813203811000051, 42.879398347000176 ], [ 20.81588363700007, 42.876991272000055 ], [ 20.819551469000146, 42.875183105000133 ], [ 20.822635651000041, 42.874233245000028 ], [ 20.825845719000085, 42.874233245000028 ], [ 20.827127456000028, 42.874626159000059 ], [ 20.828153610000186, 42.875431061000029 ], [ 20.828725814000109, 42.876506807000055 ], [ 20.829206466000073, 42.878452301000095 ], [ 20.828388215000132, 42.880329133000089 ], [ 20.825101852000103, 42.883304596000187 ], [ 20.823556899000096, 42.884609222000108 ], [ 20.819053650000058, 42.886104584000066 ], [ 20.815137862000086, 42.886882783000033 ], [ 20.814079285000162, 42.887542724000184 ], [ 20.814378739000063, 42.890747071000192 ], [ 20.815067291000048, 42.89334487900004 ], [ 20.816604613000038, 42.89565658700019 ], [ 20.818843841000046, 42.896678925 ], [ 20.820686340000179, 42.896701813000163 ], [ 20.822542191000139, 42.896232606000126 ], [ 20.830680848000043, 42.891971589000093 ], [ 20.837207794000051, 42.889167785000097 ], [ 20.841184615000031, 42.888053895000098 ], [ 20.843374253000036, 42.887832642000035 ], [ 20.845571518000042, 42.887905121000074 ], [ 20.847593308000171, 42.888214111000082 ], [ 20.852327347000085, 42.88932418800016 ], [ 20.85476875400019, 42.890209199000083 ], [ 20.856128693000187, 42.891071319000048 ], [ 20.857074737000119, 42.892112733000033 ], [ 20.857566833000135, 42.893791199000191 ], [ 20.857130049999967, 42.895492553999986 ], [ 20.856273652000027, 42.896591188000116 ], [ 20.851331711000114, 42.900001525000107 ], [ 20.850107193000042, 42.901645659999986 ], [ 20.847635270000069, 42.907703399000013 ], [ 20.846765519000144, 42.909114837000118 ], [ 20.843948364000028, 42.912815093 ], [ 20.839895249000108, 42.917194366000103 ], [ 20.837490082000159, 42.91888046300005 ], [ 20.834594726000034, 42.920127868000122 ], [ 20.828891754000153, 42.921672821000186 ], [ 20.826032638000186, 42.922725678000177 ], [ 20.823888779000185, 42.924087524000015 ], [ 20.823062896000181, 42.925239563000048 ], [ 20.822898865000184, 42.926464080000187 ], [ 20.823749543000019, 42.928173065000124 ], [ 20.825082778000137, 42.929721833000031 ], [ 20.829259871000147, 42.93320846600011 ], [ 20.830244065000045, 42.934467315000063 ], [ 20.831018448000066, 42.936412811000139 ], [ 20.831117631000041, 42.93843460100004 ], [ 20.830533981000031, 42.940391540000064 ], [ 20.829658508000023, 42.941658020000034 ], [ 20.82847976700009, 42.942813874000137 ], [ 20.826156616000162, 42.944343568000193 ], [ 20.818021775000034, 42.946945190000179 ], [ 20.81515884300012, 42.94832992500011 ], [ 20.804321290000075, 42.954658509000069 ], [ 20.802793503000032, 42.956157684000175 ], [ 20.801538467000114, 42.957862854000041 ], [ 20.798927307000042, 42.963035584000124 ], [ 20.805904389000034, 42.968322754000042 ], [ 20.81582260100015, 42.977302552000026 ], [ 20.817564011000172, 42.978584290000185 ], [ 20.821556090000172, 42.980556488000104 ], [ 20.82538414000004, 42.981807709000179 ], [ 20.834533691000047, 42.982986450999988 ], [ 20.83954811100017, 42.98421478400013 ], [ 20.843273163, 42.984771728 ], [ 20.851144791000081, 42.985462190000135 ], [ 20.854848863000143, 42.986057283000093 ], [ 20.856927872000142, 42.986690522000174 ], [ 20.858669282000164, 42.987567900999977 ], [ 20.859981536000191, 42.988704682000161 ], [ 20.860883713000135, 42.990020751000088 ], [ 20.861331939000081, 42.991283418000194 ], [ 20.861230850000027, 42.993156433000195 ], [ 20.857587814, 42.99977493300014 ], [ 20.857509613000047, 43.00167465200002 ], [ 20.85875511100005, 43.004180909000183 ], [ 20.859874726000044, 43.005439759000069 ], [ 20.861259461000145, 43.006488800000113 ], [ 20.863710403000084, 43.007389070000158 ], [ 20.865533829000128, 43.007553100000052 ], [ 20.867357254000126, 43.007362366000109 ], [ 20.869825362000029, 43.006450653000059 ], [ 20.87474441500018, 43.002811433000034 ], [ 20.886110304999988, 42.99680709900008 ], [ 20.88889312800012, 42.996177674000137 ], [ 20.890920638000182, 42.996246338000162 ], [ 20.892892838000137, 42.996711732000108 ], [ 20.895298003000107, 42.997867584000176 ], [ 20.897359847000189, 42.999462128000118 ], [ 20.900077820000092, 43.002544403000172 ], [ 20.906185151000102, 43.010463714000025 ], [ 20.908794403000172, 43.012866974000076 ], [ 20.911203384000089, 43.01447296200007 ], [ 20.918760300000088, 43.017517090000069 ], [ 20.929468154000176, 43.021060943000123 ], [ 20.932191849000048, 43.021453857000097 ], [ 20.938644409000119, 43.021354675000055 ], [ 20.940494538000166, 43.021514892000084 ], [ 20.9421596520001, 43.021984101000101 ], [ 20.944034577000082, 43.023185730000137 ], [ 20.946660995000116, 43.026046754000106 ], [ 20.952737807000062, 43.036285401000157 ], [ 20.956165313000156, 43.04109573400018 ], [ 20.958162309000159, 43.043437959000073 ], [ 20.965549470000042, 43.049652100000117 ], [ 20.975799560000098, 43.056350709000185 ], [ 20.976556778000031, 43.05669021500006 ], [ 20.97734260500016, 43.057762146000186 ], [ 20.977739334000034, 43.059551239000143 ], [ 20.977241516000049, 43.063957215000187 ], [ 20.977437972000132, 43.066120147000106 ], [ 20.97950363200016, 43.072559356000056 ], [ 20.979639053000085, 43.073909760000049 ], [ 20.979301452000129, 43.075370788000157 ], [ 20.978469848000088, 43.076725006000117 ], [ 20.970903395999983, 43.082912446000137 ], [ 20.967895508000026, 43.084518432000152 ], [ 20.965145111000083, 43.085128785000109 ], [ 20.963867187, 43.085163117000093 ], [ 20.956687927000189, 43.084114075000173 ], [ 20.955408097000031, 43.084125518000121 ], [ 20.953626634000159, 43.084369660000107 ], [ 20.948152542000173, 43.085754394999981 ], [ 20.94421958800018, 43.087100983000028 ], [ 20.941650390000063, 43.088672639000038 ], [ 20.938781738000046, 43.091213226000036 ], [ 20.933803558000079, 43.097064972000169 ], [ 20.926654815, 43.104228973000033 ], [ 20.935594559000037, 43.107387543000073 ], [ 20.94215011600005, 43.110103608000031 ], [ 20.945051192000051, 43.110813141000165 ], [ 20.957632064000052, 43.112262727000029 ], [ 20.960456849000138, 43.112934113000165 ], [ 20.966093063000187, 43.115131379000047 ], [ 20.968904495000061, 43.115730287000076 ], [ 20.971931457000096, 43.116016388000048 ], [ 20.978193283, 43.115894317000141 ], [ 20.981241226000066, 43.115447998000093 ], [ 20.98818969600012, 43.113395692000097 ], [ 20.996364594000113, 43.109840393000184 ], [ 21.001449585000103, 43.106590271000186 ], [ 21.008390427000109, 43.100582122 ], [ 21.010847093000166, 43.098953248000043 ], [ 21.017532349000135, 43.095157623000148 ], [ 21.022230149000166, 43.091529847 ], [ 21.024707795000154, 43.0900077820001 ], [ 21.026702881000062, 43.089282990000186 ], [ 21.028848649000111, 43.088882446000071 ], [ 21.031656265000095, 43.088886261000141 ], [ 21.033634186000029, 43.089202881000062 ], [ 21.038465500000086, 43.090427399000134 ], [ 21.051740646000155, 43.094757081000068 ], [ 21.05351829500006, 43.095417022000049 ], [ 21.054979323000168, 43.096240997999985 ], [ 21.056259156000124, 43.097785951000048 ], [ 21.056751251000037, 43.099628449000079 ], [ 21.056638718000102, 43.104351044000111 ], [ 21.057249070000125, 43.106277466000165 ], [ 21.058086396000135, 43.107490540000185 ], [ 21.059192658000029, 43.108535767000035 ], [ 21.061346054000182, 43.109710694000171 ], [ 21.063068390000069, 43.110000611000089 ], [ 21.064899445000094, 43.109870912000133 ], [ 21.06718254000009, 43.109142303000112 ], [ 21.069379806000029, 43.107975006000117 ], [ 21.071443557000123, 43.106533051000099 ], [ 21.074142456000061, 43.104022980000138 ], [ 21.080364228000064, 43.095798493000075 ], [ 21.081796645000054, 43.094455720000099 ], [ 21.083538056000123, 43.093330384000069 ], [ 21.087373734000096, 43.091617584000062 ], [ 21.089353561, 43.091014863000055 ], [ 21.092367173000127, 43.090499879000049 ], [ 21.095542906999981, 43.090286255000137 ], [ 21.101972580000051, 43.090427399000134 ], [ 21.109067918000051, 43.091167451000047 ], [ 21.111087800000178, 43.091106415000183 ], [ 21.112951280000175, 43.090713502000085 ], [ 21.115310668000177, 43.089488984000184 ], [ 21.117658615000039, 43.087226868000073 ], [ 21.120677947000104, 43.081150056000126 ], [ 21.124235153000086, 43.075519562000068 ], [ 21.124813080000024, 43.073417664000033 ], [ 21.124868393000099, 43.071266175000119 ], [ 21.124414444000081, 43.0691528320001 ], [ 21.123662949000163, 43.06755828900009 ], [ 21.122568130000104, 43.066070557000103 ], [ 21.118562698000119, 43.062255859000118 ], [ 21.117446900000175, 43.060764313000163 ], [ 21.116645813000105, 43.05916595400015 ], [ 21.116094589000113, 43.057033539000031 ], [ 21.115982057000053, 43.054851532000043 ], [ 21.116283416000044, 43.05268478500011 ], [ 21.117086411000116, 43.0506095880001 ], [ 21.118581771000038, 43.048557282000104 ], [ 21.124086379, 43.042648315000122 ], [ 21.127876282000159, 43.035701752000136 ], [ 21.131149292000089, 43.026260377000085 ], [ 21.132852555000056, 43.017383576000043 ], [ 21.133573531000025, 43.015300751000098 ], [ 21.13447380100007, 43.013797759999989 ], [ 21.135715484000059, 43.012474060999978 ], [ 21.13802528500014, 43.010990144000061 ], [ 21.141439436999974, 43.009357452000131 ], [ 21.143487931000038, 43.007850647000055 ], [ 21.144346238000082, 43.00657653899998 ], [ 21.144845962000034, 43.005138397 ], [ 21.14510726900005, 43.003070832000105 ], [ 21.14500999500018, 43.000919342000088 ], [ 21.143714904000092, 42.995834351000099 ], [ 21.143529893000107, 42.993728637000117 ], [ 21.14391708300019, 42.991664886000137 ], [ 21.145196916000145, 42.989326478000123 ], [ 21.148401261000117, 42.986183166000103 ], [ 21.151668549000078, 42.983703612999989 ], [ 21.153585434000149, 42.982704163000108 ], [ 21.157535554000162, 42.981269836000195 ], [ 21.15946578900008, 42.980876923000096 ], [ 21.162254333000078, 42.980846406000126 ], [ 21.164192201000162, 42.981193542000085 ], [ 21.168184280000162, 42.982486725000058 ], [ 21.170133592000127, 42.983367919000102 ], [ 21.172388077000107, 42.98492050200008 ], [ 21.17372322000017, 42.986862183000028 ], [ 21.174057006000055, 42.988807679000104 ], [ 21.173576354999966, 42.993793488000051 ], [ 21.173927307000099, 42.995914460000051 ], [ 21.176311494000061, 43.000705719000052 ], [ 21.177419663000023, 43.00208282400007 ], [ 21.178827286000057, 43.003219605000083 ], [ 21.180585861000168, 43.004005432000156 ], [ 21.182586670000035, 43.004432679000047 ], [ 21.185274124000046, 43.004440307000152 ], [ 21.188510895000036, 43.003776551000158 ], [ 21.199966430000131, 42.999782563000053 ], [ 21.202648163000049, 42.998321533000137 ], [ 21.205860138000162, 42.996185303000175 ], [ 21.210803985000041, 42.992565155000136 ], [ 21.212913514000036, 42.990753173000144 ], [ 21.214530945000035, 42.988513948000048 ], [ 21.215375900000026, 42.986129761000029 ], [ 21.215770721000069, 42.983581544000117 ], [ 21.216222764000122, 42.975662231000115 ], [ 21.216594696000129, 42.973079682 ], [ 21.217359542, 42.970615387000123 ], [ 21.22025299000012, 42.965812684000014 ], [ 21.22290420500002, 42.962291717000141 ], [ 21.223838806000174, 42.960521699000026 ], [ 21.224117279000041, 42.958572387000061 ], [ 21.222600938000085, 42.951469422000059 ], [ 21.221235276000073, 42.947174073000042 ], [ 21.21705246, 42.940349579000042 ], [ 21.21607589700011, 42.938339234000068 ], [ 21.215885163000166, 42.936401368000134 ], [ 21.216188430000102, 42.935043335000159 ], [ 21.217016221000108, 42.933143616000052 ], [ 21.217903138000054, 42.93185424800015 ], [ 21.221738815000094, 42.927715301000092 ], [ 21.223802567000121, 42.925014495000084 ], [ 21.228059769000083, 42.918430329000103 ], [ 21.230728149000072, 42.913482667000039 ], [ 21.236314773000117, 42.907093048000092 ], [ 21.24038887100005, 42.902717590000066 ], [ 21.242509841000071, 42.900939942000036 ], [ 21.250932693000095, 42.895648956000173 ], [ 21.252769468999986, 42.894046784000125 ], [ 21.254184723000037, 42.892272950000063 ], [ 21.255098343000157, 42.890190125000117 ], [ 21.256826401000126, 42.881378175000066 ], [ 21.257808685000043, 42.87948226900005 ], [ 21.259365081000055, 42.87807846100003 ], [ 21.260936737000065, 42.877510071000074 ], [ 21.262762070000178, 42.877288819000057 ], [ 21.265380860000164, 42.877468109000176 ], [ 21.267234802000075, 42.877899170000035 ], [ 21.279552459000058, 42.882919312000126 ], [ 21.286388397000053, 42.884895325000059 ], [ 21.289390565000133, 42.885276795000038 ], [ 21.292467117000115, 42.885337830000026 ], [ 21.295526505000112, 42.885105132000149 ], [ 21.30345725900014, 42.884029389000034 ], [ 21.318828581999981, 42.88332748400012 ], [ 21.322525025000061, 42.882858277000139 ], [ 21.32488822900018, 42.882305146000078 ], [ 21.327081681000152, 42.881534577000025 ], [ 21.329679488000068, 42.880153655000129 ], [ 21.33185386700012, 42.878463746000023 ], [ 21.336488724000162, 42.873195649000138 ], [ 21.337539674000084, 42.871372224000027 ], [ 21.338054658000033, 42.869354249000139 ], [ 21.337707519, 42.864673615000072 ], [ 21.337884903000145, 42.863342285000044 ], [ 21.33851051400012, 42.862136841000165 ], [ 21.340360641000132, 42.860694886000147 ], [ 21.346548081000151, 42.857910156000116 ], [ 21.351715088000049, 42.855087281000067 ], [ 21.353736878000177, 42.854362489000096 ], [ 21.361949920000086, 42.852821350000056 ], [ 21.366722106000054, 42.851387025000122 ], [ 21.369476318000181, 42.850849152000137 ], [ 21.374263763999977, 42.850467681999987 ], [ 21.377550126000131, 42.850845337000067 ], [ 21.380180359000065, 42.851543427000081 ], [ 21.386625289000051, 42.854206085000158 ], [ 21.389448166000136, 42.855014802000028 ], [ 21.396541596000134, 42.856716157000164 ], [ 21.399663925000084, 42.857135773999971 ], [ 21.406251906000136, 42.85733795100009 ], [ 21.416233064000153, 42.856948853000063 ], [ 21.424083709000172, 42.857303620000039 ], [ 21.432428360000074, 42.858020783000143 ], [ 21.421844482000097, 42.836864472000173 ], [ 21.419631957999968, 42.833778382000048 ], [ 21.415533066000137, 42.829967499000134 ], [ 21.414358139000171, 42.828495026999974 ], [ 21.410160064000024, 42.81986999500009 ], [ 21.406751632000066, 42.809619903000055 ], [ 21.40715026800018, 42.807434083000032 ], [ 21.408060073000058, 42.805397035000055 ], [ 21.408765794000089, 42.802871704000097 ], [ 21.40905761700003, 42.800174713000104 ], [ 21.408977509000124, 42.797451020000096 ], [ 21.408399582000186, 42.794853211000031 ], [ 21.407377244000145, 42.792945861000135 ], [ 21.405746460000046, 42.791416169 ], [ 21.404119491000188, 42.790618897000115 ], [ 21.397516252000116, 42.788478852000082 ], [ 21.395652772000119, 42.787559509000118 ], [ 21.392763139000067, 42.785114289000148 ], [ 21.390996934000043, 42.782577515000014 ], [ 21.390497208000056, 42.780635834000066 ], [ 21.390596390000098, 42.778678895000041 ], [ 21.391653062000103, 42.774742126000035 ], [ 21.391645432000189, 42.773834228000055 ], [ 21.390647888000103, 42.770576478000123 ], [ 21.390321732000132, 42.768638612000188 ], [ 21.390384675000064, 42.76661682200006 ], [ 21.390850067000031, 42.764614106000124 ], [ 21.392961501000116, 42.760337831000015 ], [ 21.39337539800016, 42.758316041000114 ], [ 21.392639161000091, 42.756313325000121 ], [ 21.390327453000111, 42.753963470000087 ], [ 21.385143280000079, 42.750446320000094 ], [ 21.382572174000188, 42.748420715000066 ], [ 21.369308472000171, 42.737197876000096 ], [ 21.371147156000063, 42.735309601000097 ], [ 21.374317170000154, 42.732917786000144 ], [ 21.377216338000039, 42.731410980000192 ], [ 21.379346848000125, 42.730823518000079 ], [ 21.381544113000132, 42.730579376000094 ], [ 21.384420395000063, 42.730728151000051 ], [ 21.393236161000118, 42.732936859000063 ], [ 21.396717072000058, 42.733493805000137 ], [ 21.411832810000192, 42.734416961000136 ], [ 21.419700624000143, 42.735523223000143 ], [ 21.422679901000038, 42.735771180000143 ], [ 21.425600053000039, 42.735736848000158 ], [ 21.428323745000171, 42.735389709000117 ], [ 21.430664063000165, 42.734634399000186 ], [ 21.43727493200015, 42.729911805000029 ], [ 21.441448213, 42.727714539000146 ], [ 21.44377136200012, 42.72669982900004 ], [ 21.446153641000137, 42.726036071000181 ], [ 21.448087692000058, 42.725891114000149 ], [ 21.449981690000072, 42.726116180000133 ], [ 21.452629089000027, 42.727062226000044 ], [ 21.458713532000104, 42.729778291000173 ], [ 21.460760118000167, 42.730197906000171 ], [ 21.462932587000068, 42.730323792000092 ], [ 21.465906144000144, 42.730041504000042 ], [ 21.46869659500004, 42.729293824000138 ], [ 21.480527877000156, 42.724884034000127 ], [ 21.484964370000171, 42.722621918000186 ], [ 21.491868973000066, 42.720016479000037 ], [ 21.503879548000043, 42.714698792000092 ], [ 21.506334306000156, 42.714012147000062 ], [ 21.508819580000079, 42.713581085000101 ], [ 21.511947632000044, 42.713420866999968 ], [ 21.514968873000043, 42.713661194000053 ], [ 21.518381117999979, 42.714405061000036 ], [ 21.523168565000049, 42.715847016000112 ], [ 21.525884629000075, 42.716304780000144 ], [ 21.532346725000082, 42.716598511000029 ], [ 21.534353256000088, 42.716960908000033 ], [ 21.53625488300014, 42.717605591 ], [ 21.541315078000082, 42.720291137000174 ], [ 21.543029785000101, 42.720981599000083 ], [ 21.545930862000034, 42.721630097000116 ], [ 21.547277450000081, 42.721694947000174 ], [ 21.549198150000052, 42.721553803 ], [ 21.551937103000057, 42.721031189000144 ], [ 21.56431961100003, 42.716453552000189 ], [ 21.573705673000177, 42.713260650000166 ], [ 21.576492309000173, 42.711826325000061 ], [ 21.578769683000132, 42.710075378 ], [ 21.58090591500013, 42.707584381000061 ], [ 21.581718446000139, 42.705684662000181 ], [ 21.581960676999984, 42.704326631000185 ], [ 21.581649780000134, 42.702407836000134 ], [ 21.580520630000137, 42.70045089700011 ], [ 21.57761955400008, 42.696731568000132 ], [ 21.576866151, 42.69491958600014 ], [ 21.576900482000099, 42.694080353000061 ], [ 21.577425002000155, 42.692932130000031 ], [ 21.578395843000123, 42.691848754000091 ], [ 21.583147048, 42.688755036000089 ], [ 21.587663650000138, 42.686454773999969 ], [ 21.592241287000093, 42.685085297000114 ], [ 21.595346452000058, 42.684551239000143 ], [ 21.605895996000072, 42.683010102000082 ], [ 21.608991624000055, 42.68278884900019 ], [ 21.61210823000016, 42.682830811000088 ], [ 21.615169526000159, 42.683120727000073 ], [ 21.622949600000084, 42.684680938000156 ], [ 21.625608445000125, 42.685009003000175 ], [ 21.627475738000157, 42.684806824000077 ], [ 21.629138946000069, 42.684192658000029 ], [ 21.630504607000034, 42.683197021000183 ], [ 21.631618499000183, 42.681934357000159 ], [ 21.634334564000085, 42.677307130000031 ], [ 21.636402131000182, 42.670799255000077 ], [ 21.63923072800003, 42.663494110000045 ], [ 21.640342713000109, 42.661479951000103 ], [ 21.642107010000132, 42.659568786000136 ], [ 21.64437675500011, 42.657928467000033 ], [ 21.646312713000043, 42.656898499000079 ], [ 21.651107788000047, 42.654972076000149 ], [ 21.653886795000062, 42.654392243000189 ], [ 21.655202867000071, 42.654365540000015 ], [ 21.658054353000068, 42.654937744000108 ], [ 21.660232544999985, 42.655963897000049 ], [ 21.662120819000108, 42.657352447000164 ], [ 21.663612366000166, 42.659019471000079 ], [ 21.6646652230001, 42.661052703000109 ], [ 21.666870116000041, 42.667675019 ], [ 21.66784095700018, 42.669303895000155 ], [ 21.66916465800017, 42.670776367000144 ], [ 21.671697617000063, 42.672515870000097 ], [ 21.679134368000121, 42.676403045000086 ], [ 21.68514442500009, 42.680610657000045 ], [ 21.695579529000042, 42.678222656000116 ], [ 21.701646805000053, 42.67713165400005 ], [ 21.70311546400012, 42.677097320000087 ], [ 21.706645965000121, 42.677536011000029 ], [ 21.712207793000061, 42.678840637000178 ], [ 21.714855194000165, 42.67921829200003 ], [ 21.728862763, 42.679885864000028 ], [ 21.731536866, 42.680324554000094 ], [ 21.733636857000135, 42.680938720000142 ], [ 21.7546596520001, 42.688468933000138 ], [ 21.750486374000104, 42.674243927000134 ], [ 21.750329972000145, 42.672832490000133 ], [ 21.750722885000016, 42.671337128000062 ], [ 21.751693726000155, 42.669986725000172 ], [ 21.753171920000057, 42.668819427000187 ], [ 21.760112763000166, 42.664699554000094 ], [ 21.761728286000164, 42.663505554000096 ], [ 21.76297760000017, 42.662109375000114 ], [ 21.763877869000112, 42.660552980000034 ], [ 21.765975952000076, 42.654132844000173 ], [ 21.766872407000108, 42.652545930000144 ], [ 21.768129348000059, 42.651115418000074 ], [ 21.769798279000042, 42.649879455000189 ], [ 21.773639679000098, 42.647739410000156 ], [ 21.779104233000169, 42.645259858000145 ], [ 21.79304885900018, 42.640117645000032 ], [ 21.783338546000095, 42.633064270000091 ], [ 21.772096634000036, 42.626003266000055 ], [ 21.769975662000093, 42.625194550000117 ], [ 21.767688750000048, 42.624629974000129 ], [ 21.755529403000025, 42.623371125000176 ], [ 21.753892899000164, 42.622810364000031 ], [ 21.752273560000162, 42.621967316999985 ], [ 21.749425887000029, 42.620166780000147 ], [ 21.748281478000081, 42.619213105000028 ], [ 21.747495651000179, 42.618072509000172 ], [ 21.746786117999989, 42.615531923000106 ], [ 21.748003005000044, 42.608505249000132 ], [ 21.74780845600003, 42.606533051000156 ], [ 21.746934890000034, 42.604511261000027 ], [ 21.742641449000189, 42.596794129000102 ], [ 21.741613388000133, 42.595951080000077 ], [ 21.74028778100012, 42.595352172000105 ], [ 21.734785081000098, 42.594528199000024 ], [ 21.731288910000103, 42.593498230000193 ], [ 21.729011535000041, 42.592510224000137 ], [ 21.727682113000185, 42.591602326000157 ], [ 21.726694107000185, 42.590518951000149 ], [ 21.726013183000134, 42.58874893300009 ], [ 21.726005554000153, 42.587318421000191 ], [ 21.72642135600006, 42.585880281000016 ], [ 21.72720527600012, 42.584560394000164 ], [ 21.730346680000139, 42.581386565000173 ], [ 21.735290527000188, 42.577827454000158 ], [ 21.739530563000187, 42.573741912000116 ], [ 21.743249893000097, 42.568653106000113 ], [ 21.74397659400006, 42.566761017000147 ], [ 21.743661880000161, 42.564640045000147 ], [ 21.741924286000085, 42.560813904000042 ], [ 21.740339279000125, 42.556221008000136 ], [ 21.740304947000141, 42.554367066000054 ], [ 21.741050720000089, 42.550579072000176 ], [ 21.74101066500009, 42.549331666000171 ], [ 21.740526200000033, 42.547992706 ], [ 21.739549637000152, 42.546779633000085 ], [ 21.737390518000097, 42.54539489800004 ], [ 21.730907439000077, 42.542671204000101 ], [ 21.725528717000032, 42.539920807000158 ], [ 21.723392487000183, 42.539218902000073 ], [ 21.721103668000069, 42.538742065000122 ], [ 21.718070983000075, 42.53844833300019 ], [ 21.709743500000172, 42.53846359400012 ], [ 21.706703185000094, 42.538223267000035 ], [ 21.702478409000094, 42.53742981 ], [ 21.700439454000048, 42.536827087000177 ], [ 21.697660446000157, 42.535572053000067 ], [ 21.692565918000184, 42.532688141000165 ], [ 21.691017150000107, 42.5315818790001 ], [ 21.689517975000115, 42.530014038000161 ], [ 21.688327789000084, 42.528152466000165 ], [ 21.688016892000178, 42.525913238000157 ], [ 21.688234330000057, 42.523899079000046 ], [ 21.688764572000082, 42.521823884000185 ], [ 21.68971443200013, 42.519786834000058 ], [ 21.691276550000055, 42.517745973000046 ], [ 21.694925308000165, 42.513858796000193 ], [ 21.696285247000162, 42.511909485000103 ], [ 21.69684982300015, 42.510047912000175 ], [ 21.696807861000082, 42.508708954000042 ], [ 21.696348190000151, 42.50750732400013 ], [ 21.694828034000125, 42.506153107000046 ], [ 21.693214415999989, 42.505611420000093 ], [ 21.686939239000139, 42.504341125000053 ], [ 21.685314178000056, 42.503650665000123 ], [ 21.683601380000084, 42.502227783000194 ], [ 21.682344436000164, 42.500431062000075 ], [ 21.680318830999965, 42.496601105000025 ], [ 21.678726196000127, 42.494644165000125 ], [ 21.676584243999969, 42.49306488100018 ], [ 21.674161910000123, 42.492088318000128 ], [ 21.668756485000074, 42.490455627000131 ], [ 21.666357040000037, 42.489383697000051 ], [ 21.662168503000146, 42.48660278400007 ], [ 21.659818648000112, 42.484104157000047 ], [ 21.656574249000187, 42.477214814000149 ], [ 21.654972076000035, 42.47541046200007 ], [ 21.650131226000099, 42.472015380000187 ], [ 21.646181107000189, 42.467277528000182 ], [ 21.640642167000181, 42.4640197760001 ], [ 21.635774612000034, 42.460506439000142 ], [ 21.63225936900011, 42.45837402300009 ], [ 21.624280930000111, 42.454608917000144 ], [ 21.611587525000118, 42.447753906000059 ], [ 21.61176681600017, 42.441921235000166 ], [ 21.612178803000063, 42.440307617000087 ], [ 21.613460541000052, 42.437675476000152 ], [ 21.614137650000032, 42.436687470000095 ], [ 21.617240905000187, 42.433422089000032 ], [ 21.620658875, 42.428123474000131 ], [ 21.621755600000085, 42.426803589000087 ], [ 21.626953125000171, 42.421497345000148 ], [ 21.627742767000143, 42.419841766000047 ], [ 21.628280640000128, 42.416023254000095 ], [ 21.628355026000065, 42.414478302000134 ], [ 21.628688812000178, 42.407527922999975 ], [ 21.629295350000064, 42.40497970600012 ], [ 21.624546050000049, 42.390289307999979 ], [ 21.623596191000047, 42.388031007000109 ], [ 21.619749070000125, 42.38223648100012 ], [ 21.616741180000133, 42.375965119000057 ], [ 21.615243912000096, 42.374183656000014 ], [ 21.611324311000033, 42.371017457000164 ], [ 21.608785629000124, 42.369506837000074 ], [ 21.606033325000112, 42.368324279000092 ], [ 21.603841782000075, 42.367763520000153 ], [ 21.601575851000064, 42.367511750000062 ], [ 21.598718643000097, 42.367702485000166 ], [ 21.596767426000042, 42.36817932200006 ], [ 21.592756271000098, 42.369693756000174 ], [ 21.585437775000116, 42.373699188000103 ], [ 21.58334159900005, 42.374462129000051 ], [ 21.581102372000146, 42.374954224000192 ], [ 21.578165054000124, 42.375156404000052 ], [ 21.575244903000169, 42.374897004000104 ], [ 21.573265075000108, 42.374427795000088 ], [ 21.569261552000057, 42.373004913000102 ], [ 21.567323684000144, 42.372097016000055 ], [ 21.565067291000048, 42.370548248000148 ], [ 21.563678741000103, 42.368656159000182 ], [ 21.563207626000121, 42.366809845000034 ], [ 21.563119889000063, 42.364253998000038 ], [ 21.562519074000136, 42.362510681000117 ], [ 21.56116294800006, 42.361095428000169 ], [ 21.559637069000189, 42.360401154999977 ], [ 21.554952622000087, 42.359512329000154 ], [ 21.546836854000048, 42.35857009900019 ], [ 21.544746398000086, 42.358371735000105 ], [ 21.541755676000093, 42.358425140000179 ], [ 21.537139892000084, 42.359355926000092 ], [ 21.534156800000176, 42.360492707000105 ], [ 21.528856277000102, 42.36291885300011 ], [ 21.526985169, 42.363262177000081 ], [ 21.525106430000108, 42.363262177000081 ], [ 21.523246766000057, 42.362880706000055 ], [ 21.521669387000031, 42.362129211000138 ], [ 21.520515443000136, 42.361015321000025 ], [ 21.519786834000115, 42.359645844000113 ], [ 21.519449233000159, 42.35768890300011 ], [ 21.519664765000073, 42.35562896700003 ], [ 21.520990372000085, 42.350521087000175 ], [ 21.520912171000077, 42.34611511300011 ], [ 21.520301818000121, 42.34399795600018 ], [ 21.519573211000136, 42.34256744400011 ], [ 21.51739311200015, 42.339218140000128 ], [ 21.513238907000073, 42.33382034400006 ], [ 21.512437820000116, 42.331741332000036 ], [ 21.512075425000091, 42.329578401000049 ], [ 21.512067795000121, 42.327388763000044 ], [ 21.512414933000116, 42.325225829000146 ], [ 21.513227464000067, 42.323154450000061 ], [ 21.514703751000127, 42.321109771000124 ], [ 21.520101546000035, 42.315185546000123 ], [ 21.52527618400012, 42.306461335000108 ], [ 21.526636124, 42.304698945000098 ], [ 21.52841949600014, 42.303379058000075 ], [ 21.530101777000141, 42.302841188000116 ], [ 21.532022477000055, 42.302631378000171 ], [ 21.534753800000033, 42.302791596000134 ], [ 21.536914826000157, 42.303260803000114 ], [ 21.538972855000168, 42.303985596000132 ], [ 21.544191360000184, 42.306621552000138 ], [ 21.546907425000143, 42.307376863000172 ], [ 21.548717499000134, 42.30743789800016 ], [ 21.550376892000031, 42.307090759000118 ], [ 21.552347182000176, 42.305820465000181 ], [ 21.553726197000117, 42.303928376000044 ], [ 21.556259155000077, 42.295455932000152 ], [ 21.557912826000063, 42.292606353000167 ], [ 21.559280395000144, 42.290657044000113 ], [ 21.561088562000123, 42.288688660000105 ], [ 21.567239762000099, 42.283000946000072 ], [ 21.573995590999971, 42.275806428000067 ], [ 21.577520371000162, 42.270759582000096 ], [ 21.581258774000105, 42.263916016000167 ], [ 21.584760666000136, 42.259380341000167 ], [ 21.593921660000149, 42.247520448000046 ], [ 21.59096908700019, 42.24888992200016 ], [ 21.578279495000061, 42.248363495000035 ], [ 21.562494278000031, 42.242721558000142 ], [ 21.547908784000128, 42.240421295000147 ], [ 21.53490448000008, 42.238998414000093 ], [ 21.524267196000096, 42.2433166510001 ], [ 21.511924743, 42.252777099000184 ], [ 21.492570876000173, 42.260536193 ], [ 21.481304168000179, 42.260303497000166 ], [ 21.476985931, 42.260215760000051 ], [ 21.478557587000012, 42.242965699000194 ], [ 21.477855682000154, 42.22751998800004 ], [ 21.480104447000144, 42.219268799000076 ], [ 21.469856262000121, 42.219715118000124 ], [ 21.457586289000176, 42.224315643000182 ], [ 21.440717696000092, 42.222015381000119 ], [ 21.436117173000184, 42.217414857000165 ], [ 21.423847198000033, 42.216648101000146 ], [ 21.416179656000168, 42.218181610999977 ], [ 21.406978608000031, 42.222015381000119 ], [ 21.388549804000036, 42.222015381000119 ], [ 21.388021469000137, 42.219062805000078 ], [ 21.387758255, 42.217590333000089 ], [ 21.383802414000172, 42.204505920000088 ], [ 21.374927521000131, 42.193843843000138 ], [ 21.359174728000141, 42.182666779000101 ], [ 21.337982177000185, 42.173301698000159 ], [ 21.32135772800018, 42.163436890000185 ], [ 21.32033157300009, 42.154537201000039 ], [ 21.309597015000122, 42.135368348000043 ], [ 21.299627305000172, 42.12156295800014 ], [ 21.30192947300003, 42.112361907000093 ], [ 21.31343078600014, 42.097026826000047 ], [ 21.31151580900007, 42.093837739000037 ], [ 21.309797286000048, 42.095092773000147 ], [ 21.302129745000059, 42.098251343000186 ], [ 21.303659439000171, 42.096218110000109 ], [ 21.290449142000057, 42.098632814000041 ], [ 21.274250031000065, 42.089698792000149 ], [ 21.256523132000154, 42.083698274000142 ], [ 21.241230011000027, 42.083393097000055 ], [ 21.239177704000099, 42.0833511350001 ], [ 21.227569581000068, 42.100521087000061 ], [ 21.22252845700001, 42.107978822000064 ], [ 21.20812988199998, 42.127140044999976 ], [ 21.193805694000162, 42.141963959000122 ], [ 21.18051147500006, 42.149650574000134 ], [ 21.165737153000123, 42.154037475000109 ], [ 21.167509079000183, 42.170188904000042 ], [ 21.156265259000122, 42.174587250000116 ], [ 21.146875382000076, 42.185310363000156 ], [ 21.13326835700019, 42.187549591000163 ], [ 21.119295120000174, 42.196079254999972 ], [ 21.094049454000128, 42.197029114000145 ], [ 21.083303451000177, 42.19203949100006 ], [ 21.089252472000112, 42.206020356000181 ], [ 21.092985154000189, 42.214790344000164 ], [ 21.096120834000146, 42.224079132000099 ], [ 21.096721649000187, 42.226799012000072 ], [ 21.096792220000054, 42.232307435000109 ], [ 21.096338271000093, 42.234992981000062 ], [ 21.095411300000023, 42.237545013000044 ], [ 21.092145920000064, 42.242992401000095 ], [ 21.091859817000056, 42.244903565000129 ], [ 21.092365265000183, 42.246780396000077 ], [ 21.093647003000171, 42.248397827000076 ], [ 21.095071792000169, 42.249328613000159 ], [ 21.101552963000074, 42.252239227000075 ], [ 21.104211808000059, 42.25305175699998 ], [ 21.107912064000175, 42.253639222 ], [ 21.123472213000184, 42.254489899000134 ], [ 21.125598907000096, 42.254878998000095 ], [ 21.127466202000164, 42.255504607000091 ], [ 21.129508973000156, 42.256832122000048 ], [ 21.131162643000039, 42.258487702000082 ], [ 21.132600785000022, 42.260299682000095 ], [ 21.133443832000069, 42.262161254000091 ], [ 21.133489609000037, 42.263050080000085 ], [ 21.13271522600013, 42.264968873000157 ], [ 21.13097000199997, 42.266609192000089 ], [ 21.123455047, 42.270099641000115 ], [ 21.115863801000046, 42.275604249000139 ], [ 21.11341476399997, 42.277042389000087 ], [ 21.106464386000084, 42.280368805000194 ], [ 21.094663620000176, 42.28533935500019 ], [ 21.092506409000123, 42.286003114000152 ], [ 21.090438842000026, 42.287315368000179 ], [ 21.08839607200008, 42.288993836000145 ], [ 21.086645127000111, 42.290889740000182 ], [ 21.082611083000074, 42.297248841000055 ], [ 21.080821992000097, 42.298973084000181 ], [ 21.079185485000153, 42.299957275000168 ], [ 21.072559357000102, 42.30289459300019 ], [ 21.070026398000039, 42.303676605000078 ], [ 21.063167572000111, 42.304668426000148 ], [ 21.061157227000081, 42.305149078000113 ], [ 21.059396743000093, 42.305820465000181 ], [ 21.055164337, 42.308265687000187 ], [ 21.053663254000071, 42.309471131000066 ], [ 21.052480698000124, 42.310871124000187 ], [ 21.051589967000041, 42.312427522000178 ], [ 21.049236297000164, 42.318748473000142 ], [ 21.048267364000026, 42.320255279000094 ], [ 21.046958923000034, 42.321567535000156 ], [ 21.045278549000102, 42.322620392000147 ], [ 21.04333114700006, 42.323440553000012 ], [ 21.038808823000181, 42.324680329000103 ], [ 21.036943436000115, 42.324951172000056 ], [ 21.034997940000096, 42.32493209800009 ], [ 21.033182144000136, 42.324554443000181 ], [ 21.030895232000091, 42.323326110000096 ], [ 21.028743744000053, 42.321025847999977 ], [ 21.027797699000189, 42.318504334000068 ], [ 21.027521134000153, 42.315746308000143 ], [ 21.027717591000169, 42.312908172000164 ], [ 21.030170441000053, 42.304222107000101 ], [ 21.030412674000104, 42.301368714000148 ], [ 21.030237199000055, 42.298564910000152 ], [ 21.029479981000122, 42.295959473000153 ], [ 21.028432846999976, 42.294322968000188 ], [ 21.027021408, 42.292972565000127 ], [ 21.024850846, 42.291912078000053 ], [ 21.023012160000121, 42.291732787 ], [ 21.021017074000042, 42.291969299000073 ], [ 21.015148162000116, 42.293907166000054 ], [ 21.010126114000059, 42.296298981000177 ], [ 21.00488472100011, 42.299743653000064 ], [ 21.001995086000022, 42.30125045800014 ], [ 20.995605469000054, 42.303794859999982 ], [ 20.990625382000076, 42.305095673000096 ], [ 20.988496780000162, 42.305400848000033 ], [ 20.985403061000056, 42.305480957000157 ], [ 20.975292206000063, 42.304141999000194 ], [ 20.970157623000034, 42.303874969000162 ], [ 20.966892243000018, 42.303974150999977 ], [ 20.963041305000104, 42.304378510000163 ], [ 20.961637497000083, 42.299140930000021 ], [ 20.95915412800008, 42.293952941000043 ], [ 20.958328247000054, 42.29169845600012 ], [ 20.958227157000181, 42.290641786000094 ], [ 20.959014892000084, 42.287048340000126 ], [ 20.961231233000092, 42.282016753999983 ], [ 20.962875367000038, 42.277149201000043 ], [ 20.962778091000132, 42.275253295000027 ], [ 20.962139130000139, 42.273864747000061 ], [ 20.96100807199997, 42.272663116000047 ], [ 20.959398269000133, 42.271701813000163 ], [ 20.957450865999988, 42.270950318000075 ], [ 20.943981170000029, 42.267173767000145 ], [ 20.941051482000091, 42.266883850000056 ], [ 20.931192398, 42.26743698100006 ], [ 20.929128646000152, 42.267234802000132 ], [ 20.927211761000081, 42.266761780000081 ], [ 20.924737930000163, 42.265514374000077 ], [ 20.922090531000038, 42.263351440000179 ], [ 20.915317536000146, 42.255325318000075 ], [ 20.910234451000122, 42.250148774000081 ], [ 20.908100128, 42.24840164200009 ], [ 20.903629303, 42.245800018000125 ], [ 20.89366722200009, 42.240993500000172 ], [ 20.891120910000097, 42.239459993000025 ], [ 20.884492874000046, 42.234577179000155 ], [ 20.88177681000019, 42.233318329999975 ], [ 20.879497528000059, 42.232688903000053 ], [ 20.877046585000073, 42.232368470000097 ], [ 20.873783112000126, 42.232456207000155 ], [ 20.870292664000146, 42.233066558000132 ], [ 20.859329223000145, 42.235778808000191 ], [ 20.855735779000156, 42.234764100000064 ], [ 20.853254318000097, 42.233592988000169 ], [ 20.851613999, 42.232368470000097 ], [ 20.850563049000129, 42.230957032 ], [ 20.849990845000036, 42.229400634 ], [ 20.849832535000075, 42.227237702000139 ], [ 20.850276946000122, 42.225116731000071 ], [ 20.852132798000071, 42.221435548000045 ], [ 20.852733611000133, 42.219676971000069 ], [ 20.852548600000148, 42.217842102000077 ], [ 20.851255417000175, 42.215969087000076 ], [ 20.849086760999967, 42.214389801000152 ], [ 20.845603942000025, 42.212352753000175 ], [ 20.843681335000042, 42.210708618000126 ], [ 20.842966080999986, 42.20941925 ], [ 20.842714309000144, 42.208026887000187 ], [ 20.843042374, 42.206134796000015 ], [ 20.843740462000028, 42.204845428000112 ], [ 20.84601783700009, 42.202289581000116 ], [ 20.8475894930001, 42.201133729000048 ], [ 20.849491119000049, 42.200214386000084 ], [ 20.851646423000034, 42.199504853000121 ], [ 20.861801148000097, 42.197307587000182 ], [ 20.871246338, 42.196228027000075 ], [ 20.882146835000185, 42.194675447000179 ], [ 20.900558472000057, 42.194168091000165 ], [ 20.904148103000125, 42.193916321000074 ], [ 20.907590867000067, 42.193412780000074 ], [ 20.925382613000124, 42.188358308000034 ], [ 20.937826156000028, 42.186717987000122 ], [ 20.942331315, 42.185401917000092 ], [ 20.944917678000024, 42.184055329000046 ], [ 20.947109223000098, 42.182407379000153 ], [ 20.952096940000047, 42.177268981000054 ], [ 20.953500748000181, 42.175479890000076 ], [ 20.955762864000121, 42.171466827000131 ], [ 20.958860397000024, 42.166717529000096 ], [ 20.962356568000189, 42.162040710000156 ], [ 20.966953278, 42.156555176000097 ], [ 20.968893052000112, 42.152835846000073 ], [ 20.969635009000115, 42.150455475000172 ], [ 20.971256255000185, 42.139366150000058 ], [ 20.972381593000023, 42.131687165000187 ], [ 20.959007263000103, 42.129375457000037 ], [ 20.934461593000094, 42.127532958000074 ], [ 20.914615631000061, 42.12546920900013 ], [ 20.900787353000055, 42.117504120000035 ], [ 20.890226363000068, 42.104473115000189 ], [ 20.876596452, 42.09162902800017 ], [ 20.858495711000103, 42.089935304000164 ], [ 20.823223112999983, 42.092082977000132 ], [ 20.790443420000031, 42.072483063000107 ], [ 20.748115539000139, 42.032474518000072 ], [ 20.738958360000026, 42.02381897000015 ], [ 20.738393783000106, 42.015575409000121 ], [ 20.739610673000072, 42.003162385000167 ], [ 20.733209610000074, 41.989856719000045 ], [ 20.73597908000005, 41.975467682000101 ], [ 20.746595383000169, 41.963600159000066 ], [ 20.755109787000151, 41.952144622000162 ], [ 20.754611968000063, 41.943500519 ], [ 20.754390716000046, 41.939636231 ], [ 20.748201370000061, 41.925094604000094 ], [ 20.763738633000173, 41.916557312000123 ], [ 20.763475418000155, 41.916282654000156 ], [ 20.743074417000116, 41.894832611000027 ], [ 20.753751755000053, 41.887401581000177 ], [ 20.74510383500018, 41.878341676000105 ], [ 20.74302864100008, 41.86589050300006 ], [ 20.741182327000104, 41.865150453000126 ], [ 20.732509613000161, 41.861682893000079 ], [ 20.717090607000159, 41.85551452600015 ], [ 20.696338653000169, 41.852401733000079 ], [ 20.679738997000186, 41.857589721000181 ], [ 20.672475814000052, 41.866928101000099 ], [ 20.657949448000011, 41.866928101000099 ], [ 20.639274596000121, 41.85136795000011 ], [ 20.627861024000083, 41.848255159000189 ], [ 20.614374162000047, 41.857589721000181 ], [ 20.59109687800003, 41.878536225000119 ], [ 20.592363358000171, 41.881641388000105 ], [ 20.592942238000148, 41.88304328900017 ], [ 20.590074538000181, 41.892322541 ], [ 20.587751389000061, 41.89636993400012 ] ] ] ] } }
]
}
