{
"type": "FeatureCollection",
"name": "KM-16",
"crs": { "type": "name", "properties": { "name": "urn:ogc:def:crs:OGC:1.3:CRS84" } },
"features": [
{ "type": "Feature", "properties": { "fid": 8, "GID_2": "XKO.3.2_1", "GID_0": "XKO", "COUNTRY": "Kosovo", "GID_1": "XKO.3_1", "NAME_1": "Kosovska Mitrovica", "NL_NAME_1": "NA", "NAME_2": "Leposavić", "VARNAME_2": "Leposaviq", "NL_NAME_2": "Лепосавић", "TYPE_2": "Opštine", "ENGTYPE_2": "Town|Municipal", "CC_2": "NA", "HASC_2": "NA" }, "geometry": { "type": "MultiPolygon", "coordinates": [ [ [ [ 20.975799560000098, 43.056350709000185 ], [ 20.965549470000042, 43.049652100000117 ], [ 20.958162309000159, 43.043437959000073 ], [ 20.956165313000156, 43.04109573400018 ], [ 20.952737807000062, 43.036285401000157 ], [ 20.946660995000116, 43.026046754000106 ], [ 20.944034577000082, 43.023185730000137 ], [ 20.9421596520001, 43.021984101000101 ], [ 20.940494538000166, 43.021514892000084 ], [ 20.938644409000119, 43.021354675000055 ], [ 20.932191849000048, 43.021453857000097 ], [ 20.929468154000176, 43.021060943000123 ], [ 20.918760300000088, 43.017517090000069 ], [ 20.911203384000089, 43.01447296200007 ], [ 20.908794403000172, 43.012866974000076 ], [ 20.906185151000102, 43.010463714000025 ], [ 20.900077820000092, 43.002544403000172 ], [ 20.897359847000189, 42.999462128000118 ], [ 20.895298003000107, 42.997867584000176 ], [ 20.892892838000137, 42.996711732000108 ], [ 20.890920638000182, 42.996246338000162 ], [ 20.88889312800012, 42.996177674000137 ], [ 20.886110304999988, 42.99680709900008 ], [ 20.87474441500018, 43.002811433000034 ], [ 20.869825362000029, 43.006450653000059 ], [ 20.867357254000126, 43.007362366000109 ], [ 20.865533829000128, 43.007553100000052 ], [ 20.863710403000084, 43.007389070000158 ], [ 20.861259461000145, 43.006488800000113 ], [ 20.859874726000044, 43.005439759000069 ], [ 20.85875511100005, 43.004180909000183 ], [ 20.857509613000047, 43.00167465200002 ], [ 20.857587814, 42.99977493300014 ], [ 20.861230850000027, 42.993156433000195 ], [ 20.861331939000081, 42.991283418000194 ], [ 20.860883713000135, 42.990020751000088 ], [ 20.859981536000191, 42.988704682000161 ], [ 20.858669282000164, 42.987567900999977 ], [ 20.856927872000142, 42.986690522000174 ], [ 20.854848863000143, 42.986057283000093 ], [ 20.851144791000081, 42.985462190000135 ], [ 20.843273163, 42.984771728 ], [ 20.83954811100017, 42.98421478400013 ], [ 20.834533691000047, 42.982986450999988 ], [ 20.82538414000004, 42.981807709000179 ], [ 20.821556090000172, 42.980556488000104 ], [ 20.817564011000172, 42.978584290000185 ], [ 20.81582260100015, 42.977302552000026 ], [ 20.805904389000034, 42.968322754000042 ], [ 20.798927307000042, 42.963035584000124 ], [ 20.793273925, 42.97196197500017 ], [ 20.792312622000168, 42.973167419000106 ], [ 20.791776657000128, 42.973667145000036 ], [ 20.790567398000178, 42.974601746000189 ], [ 20.788646698000036, 42.975940704000152 ], [ 20.78730392500006, 42.976768495000158 ], [ 20.78657913100011, 42.977123261000031 ], [ 20.785011292000149, 42.977642059000118 ], [ 20.781694411999979, 42.978492736000078 ], [ 20.780017854, 42.979057312000066 ], [ 20.77924347000004, 42.979393006000123 ], [ 20.778545380000025, 42.979785919000051 ], [ 20.777967453000088, 42.980266571000186 ], [ 20.777013778000139, 42.981380463000164 ], [ 20.776168823000148, 42.98258209200003 ], [ 20.775424958000144, 42.983848572 ], [ 20.775148391000073, 42.984519958000135 ], [ 20.774991988000181, 42.985279084000069 ], [ 20.774932861000025, 42.986068726000042 ], [ 20.77495765700013, 42.987838746000136 ], [ 20.774974823000093, 42.993240357000047 ], [ 20.774925232000157, 42.994041442000139 ], [ 20.774827958000117, 42.994396211000094 ], [ 20.774614333000102, 42.994670869000061 ], [ 20.774246216000108, 42.994815826000092 ], [ 20.773759843000107, 42.994888306000064 ], [ 20.772594451000145, 42.994918822999978 ], [ 20.769912720000036, 42.99488067600015 ], [ 20.764898300000084, 42.994892122000181 ], [ 20.764104843000098, 42.995040894000056 ], [ 20.762702941999976, 42.995811462000063 ], [ 20.755550385000163, 43.002033234000066 ], [ 20.752874374000157, 43.004062654000109 ], [ 20.748615265000126, 43.006385803 ], [ 20.739816665000092, 43.010261537000076 ], [ 20.737897873000122, 43.011329652000086 ], [ 20.730165482000075, 43.017921448000152 ], [ 20.728158951000069, 43.01925277800018 ], [ 20.726448059000063, 43.019897461000141 ], [ 20.717006684000069, 43.021511079000049 ], [ 20.714210510000157, 43.021877289000145 ], [ 20.712316514000122, 43.021827699000141 ], [ 20.71046257, 43.021469117000152 ], [ 20.707870483000022, 43.020381929000052 ], [ 20.702014923000149, 43.017105103000176 ], [ 20.695749283000055, 43.014541625000163 ], [ 20.693332672000054, 43.013725282000053 ], [ 20.690891265000118, 43.01327896100014 ], [ 20.688812255000016, 43.013343811000027 ], [ 20.68676948600006, 43.013793945000145 ], [ 20.683374405000052, 43.01537322900009 ], [ 20.678413390000173, 43.018810273000042 ], [ 20.670473098000116, 43.023803711000028 ], [ 20.66843032800017, 43.02571868900003 ], [ 20.666637421000075, 43.028308868000181 ], [ 20.666149140000073, 43.030235291000167 ], [ 20.666124343999968, 43.032951355000193 ], [ 20.66575431900003, 43.034847259 ], [ 20.665008545000148, 43.036243439000089 ], [ 20.66380119300004, 43.037456514000155 ], [ 20.662101746000076, 43.038402558000087 ], [ 20.659997940000039, 43.039089203000174 ], [ 20.656492233000165, 43.039676666 ], [ 20.652563096000051, 43.039962769000169 ], [ 20.633413314000109, 43.040256500000055 ], [ 20.632709503000058, 43.041149139000083 ], [ 20.630561828000054, 43.042808532000151 ], [ 20.62777710000006, 43.044559479000156 ], [ 20.623252868000179, 43.046825410000167 ], [ 20.620697021000183, 43.04852295000012 ], [ 20.619253158000163, 43.050498963000109 ], [ 20.619035720000113, 43.051883697000108 ], [ 20.619426726000142, 43.053211212000065 ], [ 20.62034988400012, 43.054344178000179 ], [ 20.621711731000119, 43.055324554000094 ], [ 20.624340057000154, 43.056491851000146 ], [ 20.627391814000134, 43.057399751000162 ], [ 20.63682174600001, 43.059478761000037 ], [ 20.63952636800019, 43.060420990000068 ], [ 20.648771286, 43.06463623000019 ], [ 20.65121460000006, 43.066268921000187 ], [ 20.652935029, 43.068267823000156 ], [ 20.653869630000145, 43.070304871000133 ], [ 20.657190323000179, 43.082069397000112 ], [ 20.657278060000067, 43.086570740000127 ], [ 20.65689277700011, 43.088779449000185 ], [ 20.656084061000172, 43.090896606000115 ], [ 20.654838563000112, 43.092758178000111 ], [ 20.650094986000113, 43.098217011000145 ], [ 20.642974854000045, 43.105110169000113 ], [ 20.640733719000139, 43.106853486000034 ], [ 20.638166426999987, 43.108409881000114 ], [ 20.62603187600007, 43.114116669000111 ], [ 20.62369346600002, 43.115722656000059 ], [ 20.622211456000173, 43.117675781000116 ], [ 20.621690750000084, 43.119644165000068 ], [ 20.621788024000125, 43.121688843000129 ], [ 20.622821808000026, 43.126720429000102 ], [ 20.622673035000048, 43.128860474000135 ], [ 20.621974945000034, 43.130924226000161 ], [ 20.620697021000183, 43.13272857600009 ], [ 20.616954803000169, 43.13600921699998 ], [ 20.614444733000141, 43.137680053000054 ], [ 20.609556198000064, 43.140171052000028 ], [ 20.603349685000126, 43.142620087000068 ], [ 20.600442886000053, 43.143508911000026 ], [ 20.596252442000093, 43.144611360000056 ], [ 20.59312057600016, 43.145088195000142 ], [ 20.583364486000107, 43.14590072600015 ], [ 20.580249785000035, 43.146358490000182 ], [ 20.57349777200011, 43.148231507000162 ], [ 20.571645737000097, 43.14901351900005 ], [ 20.570199967, 43.149974824000083 ], [ 20.569326401000069, 43.151145935999978 ], [ 20.569078445000116, 43.152446747000056 ], [ 20.569398879000175, 43.153644561000078 ], [ 20.570793152000192, 43.155693053999983 ], [ 20.573711396000022, 43.158779144000107 ], [ 20.574560166000083, 43.160083770000028 ], [ 20.575136185000076, 43.162048340000013 ], [ 20.574977876000048, 43.164058686000089 ], [ 20.574428558000022, 43.165454863999969 ], [ 20.572290420000058, 43.168754579000051 ], [ 20.569620132000125, 43.17129898100012 ], [ 20.564554215000101, 43.174697877000142 ], [ 20.557134627000096, 43.178833008000026 ], [ 20.555942536000146, 43.18004608300015 ], [ 20.555484772000113, 43.181373595000025 ], [ 20.555688857000177, 43.182804107000095 ], [ 20.557163238000044, 43.184898378000071 ], [ 20.558658601000047, 43.186077118000071 ], [ 20.560365676000174, 43.18703460800009 ], [ 20.562143327000058, 43.187732696000126 ], [ 20.563056945000028, 43.18788147000015 ], [ 20.566276550000055, 43.185661316000164 ], [ 20.566488266000135, 43.185581206999984 ], [ 20.5669689180001, 43.185512544000119 ], [ 20.568096161000028, 43.185516357000154 ], [ 20.573122024000099, 43.185501099000135 ], [ 20.580604554000161, 43.185756683000136 ], [ 20.588918686000113, 43.186714173000155 ], [ 20.592254638000099, 43.186882018000063 ], [ 20.602809905000072, 43.186256409000066 ], [ 20.605701446000126, 43.186534882000103 ], [ 20.617403031000151, 43.188957215000073 ], [ 20.620300292000138, 43.18926239000001 ], [ 20.623310088000096, 43.189277648000029 ], [ 20.633584977000169, 43.188175201000035 ], [ 20.636659621000035, 43.188232422000056 ], [ 20.639656067000146, 43.188625335000154 ], [ 20.641685486000142, 43.189147949000073 ], [ 20.64583778400015, 43.190635682000163 ], [ 20.65053367600018, 43.193084717000033 ], [ 20.654287336999971, 43.196033477000071 ], [ 20.659463882000125, 43.200996400000122 ], [ 20.680236816000047, 43.215568543000131 ], [ 20.682510377000142, 43.218544007000105 ], [ 20.685504913000102, 43.223995210000055 ], [ 20.688114166999981, 43.227020264000032 ], [ 20.690032959000121, 43.228355407000095 ], [ 20.691774369000143, 43.228935241000158 ], [ 20.693742751000116, 43.229213715000071 ], [ 20.69655227700008, 43.229194641000106 ], [ 20.699399948000064, 43.228744507000158 ], [ 20.712024688000156, 43.224277496000127 ], [ 20.714103698000031, 43.223728180000137 ], [ 20.717960358000084, 43.223136902000078 ], [ 20.721963883000114, 43.222915649000186 ], [ 20.725980759000151, 43.222965241000168 ], [ 20.734134674000074, 43.223785400000111 ], [ 20.737155915000187, 43.223857881000129 ], [ 20.740152358000046, 43.223579408000091 ], [ 20.75104141300011, 43.22117233300014 ], [ 20.75372505200005, 43.2210350040001 ], [ 20.755577088000166, 43.221263887000077 ], [ 20.757158280000056, 43.221828461000086 ], [ 20.758703232000187, 43.223209381000117 ], [ 20.759620666000046, 43.225074768000184 ], [ 20.760007859000041, 43.227157593000129 ], [ 20.759719848000088, 43.231601716000057 ], [ 20.757553101000155, 43.238021850000109 ], [ 20.757738112000084, 43.239913941000111 ], [ 20.758445740000184, 43.241157532000045 ], [ 20.760215759000175, 43.242828370000097 ], [ 20.762645722000059, 43.244209290000128 ], [ 20.764820099000133, 43.244979858000136 ], [ 20.767234802000132, 43.245532989000139 ], [ 20.771081925000033, 43.245979310000052 ], [ 20.77519226000004, 43.246131897000112 ], [ 20.783903121000037, 43.245903016000113 ], [ 20.78836822500017, 43.245540619000053 ], [ 20.798416138000107, 43.244068146000188 ], [ 20.802501678000112, 43.237964630000192 ], [ 20.804775239000037, 43.235321046000138 ], [ 20.807432176000077, 43.232929231000185 ], [ 20.814960479000092, 43.228046417000144 ], [ 20.817392350000091, 43.226276397000049 ], [ 20.819446564000089, 43.224395751000031 ], [ 20.825965882, 43.216907501000094 ], [ 20.828367234000098, 43.21346664400005 ], [ 20.829839706000087, 43.211952210000163 ], [ 20.835706711000114, 43.208869934000177 ], [ 20.838197708000109, 43.207294465000132 ], [ 20.840211869000029, 43.205379485000151 ], [ 20.843355179000071, 43.20062255900018 ], [ 20.844074250000119, 43.198463441000058 ], [ 20.84446716400015, 43.194015503000116 ], [ 20.843778609000083, 43.190429687000062 ], [ 20.843042374, 43.18915176500019 ], [ 20.841218949000051, 43.187763215000075 ], [ 20.839399339000124, 43.187263489000088 ], [ 20.837259293000159, 43.187023163000106 ], [ 20.82780265800011, 43.186546325000108 ], [ 20.824615479000101, 43.186195374000079 ], [ 20.814653397000086, 43.184185029000105 ], [ 20.812822341000071, 43.183521271000075 ], [ 20.811456680000163, 43.182674409000185 ], [ 20.810651779000068, 43.181144714000027 ], [ 20.811332703000119, 43.179462432999969 ], [ 20.817285538000135, 43.174419404000105 ], [ 20.818668365000065, 43.172561645000144 ], [ 20.819108963000133, 43.170722961000024 ], [ 20.818668365000065, 43.168895721000183 ], [ 20.817375184000127, 43.167327882000052 ], [ 20.815902710000159, 43.166446686000143 ], [ 20.810361863000082, 43.164371491000168 ], [ 20.804599763000112, 43.162864685000159 ], [ 20.802509308000026, 43.162105560000157 ], [ 20.800733567000123, 43.161140442000033 ], [ 20.799383164, 43.159934998000153 ], [ 20.798461913000097, 43.158561706000057 ], [ 20.797880173000124, 43.156730653000125 ], [ 20.797853470000121, 43.155326844000058 ], [ 20.798326492000172, 43.154060362999985 ], [ 20.799419403000115, 43.15300369300013 ], [ 20.80096435500019, 43.15212249700005 ], [ 20.804344175999972, 43.150985719000175 ], [ 20.807056428000067, 43.150718689000087 ], [ 20.814012527000159, 43.150760650999985 ], [ 20.817058564000035, 43.150325775000113 ], [ 20.81996727100011, 43.149539948000154 ], [ 20.826736450000169, 43.146827699000028 ], [ 20.831417085000112, 43.14571762200012 ], [ 20.83759880000008, 43.145313263000105 ], [ 20.844451903, 43.145481111000151 ], [ 20.846485138000105, 43.14516449100006 ], [ 20.848361969000052, 43.14450836300017 ], [ 20.850023269000189, 43.143527984000116 ], [ 20.857475281000063, 43.137260438000055 ], [ 20.860073090000128, 43.1355361950001 ], [ 20.87178611700017, 43.128501893000021 ], [ 20.874677657000177, 43.127262115000121 ], [ 20.876831055000139, 43.126800538000055 ], [ 20.87912368800005, 43.126632690000179 ], [ 20.885841370000037, 43.12676239100017 ], [ 20.88944244400011, 43.126522065000188 ], [ 20.892480851000073, 43.126121521000073 ], [ 20.893875122000054, 43.125751496000134 ], [ 20.898366926999984, 43.116600037000069 ], [ 20.900285722000035, 43.114456177000136 ], [ 20.903211594000027, 43.112998963000052 ], [ 20.907894134, 43.111366272000055 ], [ 20.91477584800009, 43.108341218000191 ], [ 20.916156768000121, 43.107643128000177 ], [ 20.919807434000063, 43.104785919000108 ], [ 20.921169281000175, 43.104000092000035 ], [ 20.922672271000181, 43.103569032000053 ], [ 20.924261093000041, 43.103496551000035 ], [ 20.925878523999984, 43.103839874000073 ], [ 20.926654815, 43.104228973000033 ], [ 20.933803558000079, 43.097064972000169 ], [ 20.938781738000046, 43.091213226000036 ], [ 20.941650390000063, 43.088672639000038 ], [ 20.94421958800018, 43.087100983000028 ], [ 20.948152542000173, 43.085754394999981 ], [ 20.953626634000159, 43.084369660000107 ], [ 20.955408097000031, 43.084125518000121 ], [ 20.956687927000189, 43.084114075000173 ], [ 20.963867187, 43.085163117000093 ], [ 20.965145111000083, 43.085128785000109 ], [ 20.967895508000026, 43.084518432000152 ], [ 20.970903395999983, 43.082912446000137 ], [ 20.978469848000088, 43.076725006000117 ], [ 20.979301452000129, 43.075370788000157 ], [ 20.979639053000085, 43.073909760000049 ], [ 20.97950363200016, 43.072559356000056 ], [ 20.977437972000132, 43.066120147000106 ], [ 20.977241516000049, 43.063957215000187 ], [ 20.977739334000034, 43.059551239000143 ], [ 20.97734260500016, 43.057762146000186 ], [ 20.976556778000031, 43.05669021500006 ], [ 20.975799560000098, 43.056350709000185 ] ] ] ] } },
{ "type": "Feature", "properties": { "fid": 11, "GID_2": "XKO.3.5_1", "GID_0": "XKO", "COUNTRY": "Kosovo", "GID_1": "XKO.3_1", "NAME_1": "Kosovska Mitrovica", "NL_NAME_1": "NA", "NAME_2": "Zubin Potok", "VARNAME_2": "Zubin Potoku", "NL_NAME_2": "Зубин Поток", "TYPE_2": "Opštine", "ENGTYPE_2": "Town|Municipal", "CC_2": "NA", "HASC_2": "NA" }, "geometry": { "type": "MultiPolygon", "coordinates": [ [ [ [ 20.77002334600013, 42.887027740000065 ], [ 20.768302917000142, 42.884235382000099 ], [ 20.765186309000057, 42.876522065000074 ], [ 20.761220933000061, 42.869041442000082 ], [ 20.75872039799998, 42.866580964000093 ], [ 20.75625419500011, 42.865081787000122 ], [ 20.752216338999972, 42.863868714000034 ], [ 20.745239259000186, 42.862503053000069 ], [ 20.742269515000146, 42.862266540000121 ], [ 20.735309600999983, 42.862438202000135 ], [ 20.733097077000082, 42.862205506000066 ], [ 20.730934144000116, 42.861682892000147 ], [ 20.728479386, 42.860740663000115 ], [ 20.721086502000105, 42.857112885000163 ], [ 20.71832656800018, 42.85634613000019 ], [ 20.715446472999986, 42.856006623000098 ], [ 20.711524963999977, 42.855991363000044 ], [ 20.708759307000037, 42.855701447000058 ], [ 20.705102921000048, 42.854557038000166 ], [ 20.703248977000101, 42.853683472000171 ], [ 20.701686858000073, 42.85262680000011 ], [ 20.700580596000066, 42.85133743300014 ], [ 20.699966430000188, 42.849884034000013 ], [ 20.699956894000138, 42.84793090800008 ], [ 20.700557708000076, 42.846401213999968 ], [ 20.701665877000039, 42.84495925900012 ], [ 20.703252792000171, 42.843658448000042 ], [ 20.711671829000181, 42.838256837000131 ], [ 20.714057923000041, 42.836185455000191 ], [ 20.715143204000071, 42.834648132999973 ], [ 20.715848922000191, 42.833122254000159 ], [ 20.716136933000143, 42.832149506000121 ], [ 20.71603965800017, 42.83092880300012 ], [ 20.717523575000087, 42.825252533000139 ], [ 20.71936607400005, 42.819847107000157 ], [ 20.724849701000153, 42.808368684000129 ], [ 20.725515364999978, 42.806270600000119 ], [ 20.72530555700007, 42.804347993000079 ], [ 20.724605560000157, 42.803073883000025 ], [ 20.722949982000102, 42.80133438200005 ], [ 20.720853806000036, 42.799858093000068 ], [ 20.718524932000093, 42.798782350000124 ], [ 20.716085433000103, 42.798362732000044 ], [ 20.713621140000043, 42.798847198000146 ], [ 20.711191178000092, 42.799976348000143 ], [ 20.708858489000079, 42.801486969000166 ], [ 20.702522277000185, 42.806701661000147 ], [ 20.699998856000036, 42.808296203000111 ], [ 20.691091537000148, 42.812923432000048 ], [ 20.685129165000092, 42.816955566000104 ], [ 20.682502747000058, 42.81978607200017 ], [ 20.676889419000133, 42.827098847000116 ], [ 20.675447464000115, 42.830577850000111 ], [ 20.674961091000114, 42.836318971000026 ], [ 20.674531936, 42.838424682000095 ], [ 20.673620223000171, 42.840381622 ], [ 20.671926499000165, 42.842159272000174 ], [ 20.669607162000034, 42.843555450000053 ], [ 20.667556764000039, 42.844287872000109 ], [ 20.665315629000133, 42.844741821000071 ], [ 20.662340164000057, 42.844913484000188 ], [ 20.659353257000078, 42.844657899000083 ], [ 20.657079696000039, 42.844150543000183 ], [ 20.654945373000089, 42.843387605000146 ], [ 20.649539947000108, 42.840457917000037 ], [ 20.645463944000085, 42.838752748000047 ], [ 20.641771316000131, 42.837825775 ], [ 20.639814377000107, 42.837772369000049 ], [ 20.637935637999988, 42.838088989000141 ], [ 20.635402680000027, 42.839195250999978 ], [ 20.629556656000034, 42.843265534000068 ], [ 20.628236771000161, 42.843887329000097 ], [ 20.626918792000083, 42.84413147000015 ], [ 20.625663757999973, 42.843898774000081 ], [ 20.624534607999976, 42.843246460999978 ], [ 20.623500824000075, 42.842117310000106 ], [ 20.622711182000103, 42.840679168000122 ], [ 20.617498398000123, 42.81902313300003 ], [ 20.608282089000056, 42.824592591000055 ], [ 20.605531692000113, 42.826431275000118 ], [ 20.603502273000174, 42.828380584 ], [ 20.602695465000181, 42.829914093000184 ], [ 20.600629807000189, 42.835746765000124 ], [ 20.599365234000061, 42.83761215200019 ], [ 20.593898773000149, 42.844730378000122 ], [ 20.592586518000189, 42.84617614800004 ], [ 20.588302613, 42.849925996000138 ], [ 20.582878113000106, 42.85686874400011 ], [ 20.580738068000187, 42.858596802000079 ], [ 20.574453354000127, 42.861728669000115 ], [ 20.569200515000091, 42.864742278000165 ], [ 20.564802169000188, 42.866230010000152 ], [ 20.556318284000156, 42.868118286000083 ], [ 20.54627227800006, 42.871788026000161 ], [ 20.544061662000161, 42.872253418000071 ], [ 20.541824340000119, 42.872394562000068 ], [ 20.537826537000171, 42.871856689000026 ], [ 20.527425765000089, 42.869575500000053 ], [ 20.515958785000066, 42.867778778000059 ], [ 20.510969161000048, 42.867603302000077 ], [ 20.509347915000035, 42.86785125800003 ], [ 20.508684159000154, 42.868183137000187 ], [ 20.500835419000168, 42.872520447000056 ], [ 20.497365951000177, 42.874019623000152 ], [ 20.489345551000042, 42.876701356000069 ], [ 20.486505508000164, 42.878009797000061 ], [ 20.483350754000071, 42.880096435000041 ], [ 20.476871491000168, 42.883583069000053 ], [ 20.474512100000084, 42.885280610000052 ], [ 20.473228455000026, 42.886695862000124 ], [ 20.47222709600004, 42.888244629000098 ], [ 20.469411849000039, 42.893798827000126 ], [ 20.466114044000165, 42.898620606000179 ], [ 20.46471977200008, 42.89994049000012 ], [ 20.457748413000104, 42.90421676800014 ], [ 20.452255250000121, 42.909786224000129 ], [ 20.451202393000131, 42.911067964000154 ], [ 20.45050811800013, 42.912860869999975 ], [ 20.45049476500003, 42.914749146000077 ], [ 20.451139450000142, 42.916580200000055 ], [ 20.454256059000159, 42.920345306 ], [ 20.455127716999982, 42.921745301000101 ], [ 20.456455232000167, 42.92467880200013 ], [ 20.458198548000155, 42.932071686000029 ], [ 20.459196090000091, 42.934440614000096 ], [ 20.460994720000031, 42.936706543000071 ], [ 20.465999604000103, 42.940887451000151 ], [ 20.474920272000134, 42.947052002000135 ], [ 20.480907440000067, 42.950874329000101 ], [ 20.489437103000171, 42.955760956000063 ], [ 20.492855072000054, 42.953937530000189 ], [ 20.500892639000142, 42.948348999000075 ], [ 20.503906250000171, 42.946796418000133 ], [ 20.505800247000082, 42.946117401000151 ], [ 20.507654191000029, 42.945762635000108 ], [ 20.509656907000192, 42.94585800200008 ], [ 20.511476517000119, 42.946430206 ], [ 20.513017655000056, 42.947414399000195 ], [ 20.51544380100006, 42.949913024000068 ], [ 20.517316819000143, 42.953330994000055 ], [ 20.518960953000146, 42.957595826000158 ], [ 20.522016526000073, 42.962436676000152 ], [ 20.531881331000136, 42.974170686000036 ], [ 20.534416198000031, 42.976604462000182 ], [ 20.536634444000072, 42.978321075000167 ], [ 20.539817811000091, 42.980361937999987 ], [ 20.541887283000108, 42.982170106000069 ], [ 20.54644584600004, 42.987350464000031 ], [ 20.550191879000124, 42.990238189000138 ], [ 20.552989960000104, 42.991474152000194 ], [ 20.556076050000172, 42.992160797000054 ], [ 20.558225631000141, 42.992244720000144 ], [ 20.560365676000174, 42.992015839000146 ], [ 20.563398361000168, 42.991107942000099 ], [ 20.572027207000019, 42.986877441000047 ], [ 20.57622146600005, 42.985343934000127 ], [ 20.578233718000092, 42.984817505000137 ], [ 20.581167221000101, 42.984481812000183 ], [ 20.584100723000176, 42.984615325000107 ], [ 20.590869903000169, 42.986278533000075 ], [ 20.59640312200014, 42.988491059000182 ], [ 20.598056792000023, 42.989410400000111 ], [ 20.59988403300008, 42.991024018000076 ], [ 20.60321998600017, 42.995632172000114 ], [ 20.605632782000157, 43.001125336000086 ], [ 20.606613158000073, 43.002380369999969 ], [ 20.608795166000164, 43.003807067000025 ], [ 20.616214753000065, 43.006454468000129 ], [ 20.621757508000087, 43.010387420000086 ], [ 20.623882295000101, 43.01155090300017 ], [ 20.633623124000053, 43.015964509000128 ], [ 20.639680863000081, 43.012004853000064 ], [ 20.64600753700006, 43.008747100999983 ], [ 20.655181884, 43.005306245000043 ], [ 20.666797638000105, 42.999526979000052 ], [ 20.67682647800018, 42.996398925000051 ], [ 20.681989670000121, 42.99424362200017 ], [ 20.69026374800012, 42.989913941000111 ], [ 20.697017669000047, 42.986938477000137 ], [ 20.702739715000064, 42.983070373000032 ], [ 20.70829391500007, 42.979698182000163 ], [ 20.709720612000069, 42.978000640000062 ], [ 20.710565567000117, 42.976020813000105 ], [ 20.710868836000088, 42.973949433000143 ], [ 20.71072959900016, 42.971824646000073 ], [ 20.710157395000067, 42.969730378000179 ], [ 20.706577300000049, 42.962985992000085 ], [ 20.705955506000123, 42.9610786450001 ], [ 20.706405638999968, 42.958969116000105 ], [ 20.707654953000144, 42.957069397000055 ], [ 20.710134506000031, 42.954055786000026 ], [ 20.712812424000106, 42.951431275000175 ], [ 20.721441269000081, 42.945064545000093 ], [ 20.722806930000161, 42.943092347000174 ], [ 20.723293305000027, 42.941177367000137 ], [ 20.723203659000035, 42.936393738000049 ], [ 20.72352790900004, 42.93442154000013 ], [ 20.724197388000107, 42.932926178 ], [ 20.725240707000182, 42.931533812999987 ], [ 20.726644514999975, 42.930278779000105 ], [ 20.730226516000187, 42.927577973000098 ], [ 20.733873367000172, 42.924339296000085 ], [ 20.744562150000036, 42.911022187000185 ], [ 20.748163223000176, 42.90803527900016 ], [ 20.75159454400017, 42.905712128 ], [ 20.75358390800011, 42.904781342000092 ], [ 20.760580063000134, 42.902458191000164 ], [ 20.762456893000149, 42.901603698000088 ], [ 20.764747620000094, 42.899822235000045 ], [ 20.766445159999989, 42.897541047000118 ], [ 20.767421723000098, 42.895397187000185 ], [ 20.77002334600013, 42.887027740000065 ] ] ] ] } },
{ "type": "Feature", "properties": { "fid": 12, "GID_2": "XKO.3.6_1", "GID_0": "XKO", "COUNTRY": "Kosovo", "GID_1": "XKO.3_1", "NAME_1": "Kosovska Mitrovica", "NL_NAME_1": "NA", "NAME_2": "Zvečan", "VARNAME_2": "Zveçan", "NL_NAME_2": "Звечан", "TYPE_2": "Opštine", "ENGTYPE_2": "Town|Municipal", "CC_2": "NA", "HASC_2": "NA" }, "geometry": { "type": "MultiPolygon", "coordinates": [ [ [ [ 20.798927307000042, 42.963035584000124 ], [ 20.801538467000114, 42.957862854000041 ], [ 20.802793503000032, 42.956157684000175 ], [ 20.804321290000075, 42.954658509000069 ], [ 20.81515884300012, 42.94832992500011 ], [ 20.818021775000034, 42.946945190000179 ], [ 20.826156616000162, 42.944343568000193 ], [ 20.82847976700009, 42.942813874000137 ], [ 20.829658508000023, 42.941658020000034 ], [ 20.830533981000031, 42.940391540000064 ], [ 20.831117631000041, 42.93843460100004 ], [ 20.831018448000066, 42.936412811000139 ], [ 20.830244065000045, 42.934467315000063 ], [ 20.829259871000147, 42.93320846600011 ], [ 20.825082778000137, 42.929721833000031 ], [ 20.823749543000019, 42.928173065000124 ], [ 20.822898865000184, 42.926464080000187 ], [ 20.823062896000181, 42.925239563000048 ], [ 20.823888779000185, 42.924087524000015 ], [ 20.826032638000186, 42.922725678000177 ], [ 20.828891754000153, 42.921672821000186 ], [ 20.834594726000034, 42.920127868000122 ], [ 20.837490082000159, 42.91888046300005 ], [ 20.839895249000108, 42.917194366000103 ], [ 20.843948364000028, 42.912815093 ], [ 20.846765519000144, 42.909114837000118 ], [ 20.847635270000069, 42.907703399000013 ], [ 20.850107193000042, 42.901645659999986 ], [ 20.851331711000114, 42.900001525000107 ], [ 20.856273652000027, 42.896591188000116 ], [ 20.857130049999967, 42.895492553999986 ], [ 20.857566833000135, 42.893791199000191 ], [ 20.857074737000119, 42.892112733000033 ], [ 20.856128693000187, 42.891071319000048 ], [ 20.85476875400019, 42.890209199000083 ], [ 20.852327347000085, 42.88932418800016 ], [ 20.847593308000171, 42.888214111000082 ], [ 20.845571518000042, 42.887905121000074 ], [ 20.843374253000036, 42.887832642000035 ], [ 20.841184615000031, 42.888053895000098 ], [ 20.837207794000051, 42.889167785000097 ], [ 20.830680848000043, 42.891971589000093 ], [ 20.822542191000139, 42.896232606000126 ], [ 20.820686340000179, 42.896701813000163 ], [ 20.818843841000046, 42.896678925 ], [ 20.816604613000038, 42.89565658700019 ], [ 20.815067291000048, 42.89334487900004 ], [ 20.814378739000063, 42.890747071000192 ], [ 20.814079285000162, 42.887542724000184 ], [ 20.815137862000086, 42.886882783000033 ], [ 20.819053650000058, 42.886104584000066 ], [ 20.823556899000096, 42.884609222000108 ], [ 20.825101852000103, 42.883304596000187 ], [ 20.828388215000132, 42.880329133000089 ], [ 20.829206466000073, 42.878452301000095 ], [ 20.828725814000109, 42.876506807000055 ], [ 20.828153610000186, 42.875431061000029 ], [ 20.827127456000028, 42.874626159000059 ], [ 20.825845719000085, 42.874233245000028 ], [ 20.822635651000041, 42.874233245000028 ], [ 20.819551469000146, 42.875183105000133 ], [ 20.81588363700007, 42.876991272000055 ], [ 20.813203811000051, 42.879398347000176 ], [ 20.806995393000079, 42.88375473100001 ], [ 20.804229736000138, 42.885112763000109 ], [ 20.801853180000137, 42.885253907000106 ], [ 20.79697227600002, 42.885265350000054 ], [ 20.790105819000075, 42.884845735000056 ], [ 20.781435013000134, 42.885219575000065 ], [ 20.771669388000078, 42.886772155000131 ], [ 20.77002334600013, 42.887027740000065 ], [ 20.767421723000098, 42.895397187000185 ], [ 20.766445159999989, 42.897541047000118 ], [ 20.764747620000094, 42.899822235000045 ], [ 20.762456893000149, 42.901603698000088 ], [ 20.760580063000134, 42.902458191000164 ], [ 20.75358390800011, 42.904781342000092 ], [ 20.75159454400017, 42.905712128 ], [ 20.748163223000176, 42.90803527900016 ], [ 20.744562150000036, 42.911022187000185 ], [ 20.733873367000172, 42.924339296000085 ], [ 20.730226516000187, 42.927577973000098 ], [ 20.726644514999975, 42.930278779000105 ], [ 20.725240707000182, 42.931533812999987 ], [ 20.724197388000107, 42.932926178 ], [ 20.72352790900004, 42.93442154000013 ], [ 20.723203659000035, 42.936393738000049 ], [ 20.723293305000027, 42.941177367000137 ], [ 20.722806930000161, 42.943092347000174 ], [ 20.721441269000081, 42.945064545000093 ], [ 20.712812424000106, 42.951431275000175 ], [ 20.710134506000031, 42.954055786000026 ], [ 20.707654953000144, 42.957069397000055 ], [ 20.706405638999968, 42.958969116000105 ], [ 20.705955506000123, 42.9610786450001 ], [ 20.706577300000049, 42.962985992000085 ], [ 20.710157395000067, 42.969730378000179 ], [ 20.71072959900016, 42.971824646000073 ], [ 20.710868836000088, 42.973949433000143 ], [ 20.710565567000117, 42.976020813000105 ], [ 20.709720612000069, 42.978000640000062 ], [ 20.70829391500007, 42.979698182000163 ], [ 20.702739715000064, 42.983070373000032 ], [ 20.697017669000047, 42.986938477000137 ], [ 20.69026374800012, 42.989913941000111 ], [ 20.681989670000121, 42.99424362200017 ], [ 20.67682647800018, 42.996398925000051 ], [ 20.666797638000105, 42.999526979000052 ], [ 20.655181884, 43.005306245000043 ], [ 20.64600753700006, 43.008747100999983 ], [ 20.639680863000081, 43.012004853000064 ], [ 20.633623124000053, 43.015964509000128 ], [ 20.633430480000129, 43.019313813000167 ], [ 20.633033753000063, 43.02132034300007 ], [ 20.630380630000161, 43.025569917000155 ], [ 20.628210068000158, 43.028240204000042 ], [ 20.627988815000094, 43.029609681000068 ], [ 20.628572464000115, 43.03097915800015 ], [ 20.630853654000077, 43.034366609000017 ], [ 20.633413314000109, 43.040256500000055 ], [ 20.652563096000051, 43.039962769000169 ], [ 20.656492233000165, 43.039676666 ], [ 20.659997940000039, 43.039089203000174 ], [ 20.662101746000076, 43.038402558000087 ], [ 20.66380119300004, 43.037456514000155 ], [ 20.665008545000148, 43.036243439000089 ], [ 20.66575431900003, 43.034847259 ], [ 20.666124343999968, 43.032951355000193 ], [ 20.666149140000073, 43.030235291000167 ], [ 20.666637421000075, 43.028308868000181 ], [ 20.66843032800017, 43.02571868900003 ], [ 20.670473098000116, 43.023803711000028 ], [ 20.678413390000173, 43.018810273000042 ], [ 20.683374405000052, 43.01537322900009 ], [ 20.68676948600006, 43.013793945000145 ], [ 20.688812255000016, 43.013343811000027 ], [ 20.690891265000118, 43.01327896100014 ], [ 20.693332672000054, 43.013725282000053 ], [ 20.695749283000055, 43.014541625000163 ], [ 20.702014923000149, 43.017105103000176 ], [ 20.707870483000022, 43.020381929000052 ], [ 20.71046257, 43.021469117000152 ], [ 20.712316514000122, 43.021827699000141 ], [ 20.714210510000157, 43.021877289000145 ], [ 20.717006684000069, 43.021511079000049 ], [ 20.726448059000063, 43.019897461000141 ], [ 20.728158951000069, 43.01925277800018 ], [ 20.730165482000075, 43.017921448000152 ], [ 20.737897873000122, 43.011329652000086 ], [ 20.739816665000092, 43.010261537000076 ], [ 20.748615265000126, 43.006385803 ], [ 20.752874374000157, 43.004062654000109 ], [ 20.755550385000163, 43.002033234000066 ], [ 20.762702941999976, 42.995811462000063 ], [ 20.764104843000098, 42.995040894000056 ], [ 20.764898300000084, 42.994892122000181 ], [ 20.769912720000036, 42.99488067600015 ], [ 20.772594451000145, 42.994918822999978 ], [ 20.773759843000107, 42.994888306000064 ], [ 20.774246216000108, 42.994815826000092 ], [ 20.774614333000102, 42.994670869000061 ], [ 20.774827958000117, 42.994396211000094 ], [ 20.774925232000157, 42.994041442000139 ], [ 20.774974823000093, 42.993240357000047 ], [ 20.77495765700013, 42.987838746000136 ], [ 20.774932861000025, 42.986068726000042 ], [ 20.774991988000181, 42.985279084000069 ], [ 20.775148391000073, 42.984519958000135 ], [ 20.775424958000144, 42.983848572 ], [ 20.776168823000148, 42.98258209200003 ], [ 20.777013778000139, 42.981380463000164 ], [ 20.777967453000088, 42.980266571000186 ], [ 20.778545380000025, 42.979785919000051 ], [ 20.77924347000004, 42.979393006000123 ], [ 20.780017854, 42.979057312000066 ], [ 20.781694411999979, 42.978492736000078 ], [ 20.785011292000149, 42.977642059000118 ], [ 20.78657913100011, 42.977123261000031 ], [ 20.78730392500006, 42.976768495000158 ], [ 20.788646698000036, 42.975940704000152 ], [ 20.790567398000178, 42.974601746000189 ], [ 20.791776657000128, 42.973667145000036 ], [ 20.792312622000168, 42.973167419000106 ], [ 20.793273925, 42.97196197500017 ], [ 20.798927307000042, 42.963035584000124 ] ] ] ] } },
{ "type": "Feature", "properties": { "fid": 29, "GID_2": "XKO.7.3_1", "GID_0": "XKO", "COUNTRY": "Kosovo", "GID_1": "XKO.7_1", "NAME_1": "Uroševac", "NL_NAME_1": "NA", "NAME_2": "Štrpce", "VARNAME_2": "NA", "NL_NAME_2": "Штрпце", "TYPE_2": "Opštine", "ENGTYPE_2": "Town|Municipal", "CC_2": "NA", "HASC_2": "NA" }, "geometry": { "type": "MultiPolygon", "coordinates": [ [ [ [ 20.972381593000023, 42.131687165000187 ], [ 20.971256255000185, 42.139366150000058 ], [ 20.969635009000115, 42.150455475000172 ], [ 20.968893052000112, 42.152835846000073 ], [ 20.966953278, 42.156555176000097 ], [ 20.962356568000189, 42.162040710000156 ], [ 20.958860397000024, 42.166717529000096 ], [ 20.955762864000121, 42.171466827000131 ], [ 20.953500748000181, 42.175479890000076 ], [ 20.952096940000047, 42.177268981000054 ], [ 20.947109223000098, 42.182407379000153 ], [ 20.944917678000024, 42.184055329000046 ], [ 20.942331315, 42.185401917000092 ], [ 20.937826156000028, 42.186717987000122 ], [ 20.925382613000124, 42.188358308000034 ], [ 20.907590867000067, 42.193412780000074 ], [ 20.904148103000125, 42.193916321000074 ], [ 20.900558472000057, 42.194168091000165 ], [ 20.882146835000185, 42.194675447000179 ], [ 20.871246338, 42.196228027000075 ], [ 20.861801148000097, 42.197307587000182 ], [ 20.851646423000034, 42.199504853000121 ], [ 20.849491119000049, 42.200214386000084 ], [ 20.8475894930001, 42.201133729000048 ], [ 20.84601783700009, 42.202289581000116 ], [ 20.843740462000028, 42.204845428000112 ], [ 20.843042374, 42.206134796000015 ], [ 20.842714309000144, 42.208026887000187 ], [ 20.842966080999986, 42.20941925 ], [ 20.843681335000042, 42.210708618000126 ], [ 20.845603942000025, 42.212352753000175 ], [ 20.849086760999967, 42.214389801000152 ], [ 20.851255417000175, 42.215969087000076 ], [ 20.852548600000148, 42.217842102000077 ], [ 20.852733611000133, 42.219676971000069 ], [ 20.852132798000071, 42.221435548000045 ], [ 20.850276946000122, 42.225116731000071 ], [ 20.849832535000075, 42.227237702000139 ], [ 20.849990845000036, 42.229400634 ], [ 20.850563049000129, 42.230957032 ], [ 20.851613999, 42.232368470000097 ], [ 20.853254318000097, 42.233592988000169 ], [ 20.855735779000156, 42.234764100000064 ], [ 20.859329223000145, 42.235778808000191 ], [ 20.870292664000146, 42.233066558000132 ], [ 20.873783112000126, 42.232456207000155 ], [ 20.877046585000073, 42.232368470000097 ], [ 20.879497528000059, 42.232688903000053 ], [ 20.88177681000019, 42.233318329999975 ], [ 20.884492874000046, 42.234577179000155 ], [ 20.891120910000097, 42.239459993000025 ], [ 20.89366722200009, 42.240993500000172 ], [ 20.903629303, 42.245800018000125 ], [ 20.908100128, 42.24840164200009 ], [ 20.910234451000122, 42.250148774000081 ], [ 20.915317536000146, 42.255325318000075 ], [ 20.922090531000038, 42.263351440000179 ], [ 20.924737930000163, 42.265514374000077 ], [ 20.927211761000081, 42.266761780000081 ], [ 20.929128646000152, 42.267234802000132 ], [ 20.931192398, 42.26743698100006 ], [ 20.941051482000091, 42.266883850000056 ], [ 20.943981170000029, 42.267173767000145 ], [ 20.957450865999988, 42.270950318000075 ], [ 20.959398269000133, 42.271701813000163 ], [ 20.96100807199997, 42.272663116000047 ], [ 20.962139130000139, 42.273864747000061 ], [ 20.962778091000132, 42.275253295000027 ], [ 20.962875367000038, 42.277149201000043 ], [ 20.961231233000092, 42.282016753999983 ], [ 20.959014892000084, 42.287048340000126 ], [ 20.958227157000181, 42.290641786000094 ], [ 20.958328247000054, 42.29169845600012 ], [ 20.95915412800008, 42.293952941000043 ], [ 20.961637497000083, 42.299140930000021 ], [ 20.963041305000104, 42.304378510000163 ], [ 20.966892243000018, 42.303974150999977 ], [ 20.970157623000034, 42.303874969000162 ], [ 20.975292206000063, 42.304141999000194 ], [ 20.985403061000056, 42.305480957000157 ], [ 20.988496780000162, 42.305400848000033 ], [ 20.990625382000076, 42.305095673000096 ], [ 20.995605469000054, 42.303794859999982 ], [ 21.001995086000022, 42.30125045800014 ], [ 21.00488472100011, 42.299743653000064 ], [ 21.010126114000059, 42.296298981000177 ], [ 21.015148162000116, 42.293907166000054 ], [ 21.021017074000042, 42.291969299000073 ], [ 21.023012160000121, 42.291732787 ], [ 21.024850846, 42.291912078000053 ], [ 21.027021408, 42.292972565000127 ], [ 21.028432846999976, 42.294322968000188 ], [ 21.029479981000122, 42.295959473000153 ], [ 21.030237199000055, 42.298564910000152 ], [ 21.030412674000104, 42.301368714000148 ], [ 21.030170441000053, 42.304222107000101 ], [ 21.027717591000169, 42.312908172000164 ], [ 21.027521134000153, 42.315746308000143 ], [ 21.027797699000189, 42.318504334000068 ], [ 21.028743744000053, 42.321025847999977 ], [ 21.030895232000091, 42.323326110000096 ], [ 21.033182144000136, 42.324554443000181 ], [ 21.034997940000096, 42.32493209800009 ], [ 21.036943436000115, 42.324951172000056 ], [ 21.038808823000181, 42.324680329000103 ], [ 21.04333114700006, 42.323440553000012 ], [ 21.045278549000102, 42.322620392000147 ], [ 21.046958923000034, 42.321567535000156 ], [ 21.048267364000026, 42.320255279000094 ], [ 21.049236297000164, 42.318748473000142 ], [ 21.051589967000041, 42.312427522000178 ], [ 21.052480698000124, 42.310871124000187 ], [ 21.053663254000071, 42.309471131000066 ], [ 21.055164337, 42.308265687000187 ], [ 21.059396743000093, 42.305820465000181 ], [ 21.061157227000081, 42.305149078000113 ], [ 21.063167572000111, 42.304668426000148 ], [ 21.070026398000039, 42.303676605000078 ], [ 21.072559357000102, 42.30289459300019 ], [ 21.079185485000153, 42.299957275000168 ], [ 21.080821992000097, 42.298973084000181 ], [ 21.082611083000074, 42.297248841000055 ], [ 21.086645127000111, 42.290889740000182 ], [ 21.08839607200008, 42.288993836000145 ], [ 21.090438842000026, 42.287315368000179 ], [ 21.092506409000123, 42.286003114000152 ], [ 21.094663620000176, 42.28533935500019 ], [ 21.106464386000084, 42.280368805000194 ], [ 21.11341476399997, 42.277042389000087 ], [ 21.115863801000046, 42.275604249000139 ], [ 21.123455047, 42.270099641000115 ], [ 21.13097000199997, 42.266609192000089 ], [ 21.13271522600013, 42.264968873000157 ], [ 21.133489609000037, 42.263050080000085 ], [ 21.133443832000069, 42.262161254000091 ], [ 21.132600785000022, 42.260299682000095 ], [ 21.131162643000039, 42.258487702000082 ], [ 21.129508973000156, 42.256832122000048 ], [ 21.127466202000164, 42.255504607000091 ], [ 21.125598907000096, 42.254878998000095 ], [ 21.123472213000184, 42.254489899000134 ], [ 21.107912064000175, 42.253639222 ], [ 21.104211808000059, 42.25305175699998 ], [ 21.101552963000074, 42.252239227000075 ], [ 21.095071792000169, 42.249328613000159 ], [ 21.093647003000171, 42.248397827000076 ], [ 21.092365265000183, 42.246780396000077 ], [ 21.091859817000056, 42.244903565000129 ], [ 21.092145920000064, 42.242992401000095 ], [ 21.095411300000023, 42.237545013000044 ], [ 21.096338271000093, 42.234992981000062 ], [ 21.096792220000054, 42.232307435000109 ], [ 21.096721649000187, 42.226799012000072 ], [ 21.096120834000146, 42.224079132000099 ], [ 21.092985154000189, 42.214790344000164 ], [ 21.089252472000112, 42.206020356000181 ], [ 21.083303451000177, 42.19203949100006 ], [ 21.080350875000136, 42.190666199000134 ], [ 21.067464828000027, 42.182952880000073 ], [ 21.057542801000181, 42.172721863000049 ], [ 21.038021088000107, 42.162006378000115 ], [ 21.037061691000019, 42.161479951 ], [ 21.015613556000062, 42.149242400000105 ], [ 20.988098144000048, 42.144416809000063 ], [ 20.978347778000114, 42.132720947999985 ], [ 20.972381593000023, 42.131687165000187 ] ] ] ] } }
]
}
