{"type": "FeatureCollection", "features": [{"type": "Feature", "properties": {"NAME_3": "Mostar", "source": "geoBoundaries ADM3"}, "geometry": {"type": "Polygon", "coordinates": [[[17.91750235864697, 43.20449691430122], [17.918747391778766, 43.20593281594677], [17.926722250531498, 43.2097858353481], [17.937881248021256, 43.21219564071629], [17.94495901414723, 43.215190730268034], [17.950693429658088, 43.2176173556565], [17.965572093277558, 43.22785705535887], [17.97673108896862, 43.23508404329402], [17.98789008645838, 43.24772921093438], [17.994089529708106, 43.26669204130474], [17.998288619024606, 43.30070197201843], [17.99802410862577, 43.31533025988364], [17.993791955734196, 43.32687642091014], [17.987179217347034, 43.33572699180729], [17.979465114323602, 43.34507753539998], [17.97845040206448, 43.34630750398816], [17.971837662777943, 43.35669384804271], [17.964431394992914, 43.36265557709328], [17.954909051211814, 43.36746299482138], [17.949089840423824, 43.37323139481305], [17.94644474542872, 43.37957600033218], [17.9477672929263, 43.38803444163625], [17.95126939866384, 43.39597661362984], [17.9556708381387, 43.40704624728653], [17.960241563297586, 43.41233435894355], [17.963796571654484, 43.41565456420682], [17.97243016402092, 43.42549114370138], [17.974800169891978, 43.42967120516204], [17.973445880822794, 43.43360511768208], [17.968536583396656, 43.44208674620643], [17.96989087246584, 43.45253349412553], [17.975646600110565, 43.45892355677677], [17.983095189991047, 43.46297843890386], [17.989528062170393, 43.46678732227713], [17.9946066452805, 43.47059596553146], [18.00087023267514, 43.47550998979426], [18.00816772699058, 43.47892258434911], [17.997414623685984, 43.482118845808145], [17.98768948638076, 43.48640791049672], [17.981015372861236, 43.49069667121444], [17.980443306013797, 43.4930484424317], [17.983303640250824, 43.49526179089901], [17.98959637647164, 43.49761338494983], [17.990549821517106, 43.499826566143156], [17.985973285838497, 43.502039666397536], [17.97872710547159, 43.50452930638244], [17.970718169607892, 43.507018843844605], [17.963471989240986, 43.50854017748725], [17.9465006715688, 43.51033806794754], [17.928575909750464, 43.5171142500227], [17.915036993162744, 43.522230454471924], [17.90493047855881, 43.53094083275329], [17.898447053688642, 43.53895879870964], [17.892535696565176, 43.54504068258149], [17.88624296034442, 43.549463484552234], [17.878043335831308, 43.550707339572114], [17.86927164357155, 43.55167476457876], [17.864145774108238, 43.55300153169537], [17.856829189415635, 43.54895384234601], [17.847294740759708, 43.54916979295166], [17.836568486246676, 43.55132925763917], [17.82911969941466, 43.55543202686658], [17.820777057515215, 43.561693608773055], [17.815711881498203, 43.56428441799153], [17.809156948834186, 43.56514799648289], [17.803495870338168, 43.56234132119505], [17.79753684105242, 43.555863880413824], [17.794855277648992, 43.55132925763917], [17.79038600411087, 43.54830598603246], [17.784426974825067, 43.54830598603246], [17.772508914454875, 43.551761140864016], [17.763570369177273, 43.555647954089864], [17.75373796973156, 43.559318601772134], [17.748970746302973, 43.56428441799153], [17.74539532873149, 43.572487912287386], [17.74420352197501, 43.58025861324444], [17.74033015271442, 43.58500688166231], [17.734967025907565, 43.58932316343328], [17.727220286487068, 43.59363913673684], [17.713514517780823, 43.600975580258876], [17.701298506620844, 43.608311128955506], [17.689976349628864, 43.61284146196397], [17.67627058092262, 43.61780286431082], [17.664948423930696, 43.62103834084678], [17.650646751846182, 43.62578339059104], [17.64200615825763, 43.62815577606824], [17.630088098786757, 43.63009674866606], [17.622043407677154, 43.62815577606824], [17.61459462084514, 43.62470500363304], [17.608933542349178, 43.62103834084678], [17.599697045382413, 43.618881375375224], [17.58479947081895, 43.61866567478114], [17.578162792478963, 43.61849408143678], [17.578162792478963, 43.61526913416327], [17.570375630331114, 43.610979341023835], [17.565127760637665, 43.60460536994191], [17.56038774979487, 43.59712735064676], [17.5588641741424, 43.59381711167043], [17.56072632206218, 43.5846210455249], [17.575115642073285, 43.57799900814774], [17.585611380560806, 43.57125359187984], [17.583918520123632, 43.56573405318409], [17.579009222697493, 43.559723312880635], [17.575284927757252, 43.55420271748147], [17.5712220605497, 43.54929509729095], [17.566143477439596, 43.54647303370359], [17.557002027121882, 43.54524600949577], [17.551584871744467, 43.5467184362069], [17.54549057093317, 43.55162626683881], [17.53838055421926, 43.55555224284177], [17.53160910887334, 43.55555224284177], [17.527884813933042, 43.55260778512127], [17.525345523277338, 43.54978587711656], [17.523991233308834, 43.54708653681428], [17.521451941753753, 43.543896253009734], [17.515696214109028, 43.54033765905575], [17.507909052860555, 43.53923322593266], [17.49961403276143, 43.53861964278235], [17.49690545462306, 43.534815288394896], [17.500121890712762, 43.53101069388845], [17.50689333605868, 43.52708311889086], [17.511294774634166, 43.52475099965898], [17.51823550566411, 43.52278704038963], [17.525853381228615, 43.52070026430579], [17.532963397942524, 43.51689477857121], [17.537534123101352, 43.513580129319564], [17.538863673247253, 43.50972315370011], [17.539226984437846, 43.50866920142255], [17.548368434755503, 43.49982852486659], [17.554124162400228, 43.49417963758026], [17.560218463211584, 43.48988121724443], [17.56868276899462, 43.48423139826048], [17.575284927757252, 43.48152912436967], [17.581379227669288, 43.478089692385424], [17.586288525095426, 43.47219306705648], [17.59441425951053, 43.46617300168276], [17.597630695600174, 43.46273269555752], [17.610415183513965, 43.452081249350215], [17.61864926015528, 43.44736196518261], [17.623633043030566, 43.442406320295504], [17.62569156331506, 43.43745026981418], [17.624824817411422, 43.43469673276803], [17.620707779540453, 43.429976092422805], [17.6172407995233, 43.426435370695856], [17.616374054519042, 43.4235239558659], [17.619407662034007, 43.41919591725781], [17.623633043030566, 43.41895983352953], [17.630241973688157, 43.41990416214742], [17.6343657834542, 43.422048522721184], [17.64367651945588, 43.42438460796336], [17.652817970672857, 43.42524524836955], [17.663313710059697, 43.42340100415305], [17.67617945531765, 43.41799089676255], [17.681596610695067, 43.41454784950372], [17.694293070269055, 43.40704624728653], [17.712041026272402, 43.39873191154851], [17.72038344603925, 43.394559553680494], [17.72276699570034, 43.38983578369454], [17.719408357909458, 43.38550533760133], [17.711390968418527, 43.38133207051868], [17.70684055714605, 43.37849723296097], [17.69535618673865, 43.37715851475372], [17.68408850258237, 43.37566226410223], [17.679863120686548, 43.374087224745665], [17.677479571924778, 43.36825922128611], [17.682680041950448, 43.36203681474723], [17.687230453222867, 43.35904353193348], [17.692322579223685, 43.3549472207377], [17.69123914796836, 43.34462644175693], [17.688747256980378, 43.33785001416686], [17.6873387963484, 43.33359466146453], [17.681379924444002, 43.32981187551769], [17.680079806937613, 43.32397961916416], [17.683763474105092, 43.321536208829], [17.690697433240018, 43.31964447051598], [17.695139500487585, 43.320511524887024], [17.698173107103287, 43.32232441603901], [17.70434866615807, 43.322560876583225], [17.71041588028868, 43.320511524887024], [17.7151829769129, 43.31609730064997], [17.720275102913718, 43.31357474367951], [17.72417545633232, 43.30947536399691], [17.724392142583383, 43.305375707323094], [17.72320036820247, 43.29914685534317], [17.721358534169042, 43.29307508075044], [17.71897498540733, 43.29007839760004], [17.71366617315539, 43.28684496792101], [17.707490615899246, 43.28479441203257], [17.698064763977698, 43.28384797810173], [17.697572929247315, 43.28396327748334], [17.697723088150042, 43.281230513877176], [17.697723088150042, 43.27689220051468], [17.699510797385415, 43.27103498797436], [17.703682118335166, 43.265828102185196], [17.710832954377395, 43.26127171311913], [17.718877645486998, 43.25953585609494], [17.729305947411603, 43.259752840920896], [17.737350637621887, 43.260620772131006], [17.746289182899545, 43.26235659857821], [17.75939904912684, 43.26300752068056], [17.76952939936234, 43.263224492916095], [17.776978187093732, 43.26127171311913], [17.782639265589694, 43.25649798669281], [17.78412902223664, 43.24911967343422], [17.782043363110745, 43.24282569974628], [17.778169992950836, 43.23544573083586], [17.779957702186266, 43.229150344312984], [17.784724926514173, 43.224808319448414], [17.792173713346244, 43.22003173497666], [17.798430695220475, 43.216340482027704], [17.799324549388473, 43.21004312239222], [17.793365519203405, 43.20309355732189], [17.78353311975775, 43.19614319994878], [17.77578638123657, 43.191581598412085], [17.773104817833143, 43.18723689896376], [17.776084332925677, 43.181153799208516], [17.781149508043427, 43.17615651391202], [17.786214683161177, 43.17181071639152], [17.792993815911927, 43.168371273615435], [17.7930675675143, 43.16833385552309], [17.797834791842206, 43.16985500660331], [17.80498562788449, 43.173766364126436], [17.809156948834186, 43.178763844575826], [17.816307784876415, 43.181153799208516], [17.830907408650035, 43.181153799208516], [17.842229564742695, 43.18376091583366], [17.848784498305974, 43.188974815435415], [17.852657867566563, 43.188757578799255], [17.856233285138046, 43.18636792094287], [17.86308616949117, 43.18376091583366], [17.863525447841198, 43.18376091583366], [17.8693431513654, 43.18376091583366], [17.870832908911666, 43.18745414099584], [17.86546978210481, 43.192016051899316], [17.861894363634008, 43.195491563784685], [17.8648738787266, 43.201790426187245], [17.87262061724772, 43.20874013964578], [17.884836629307074, 43.21720903197132], [17.89347722289557, 43.222420074426964], [17.90181986479496, 43.225676749782224], [17.908374797458976, 43.22502542748157], [17.910162506694405, 43.221551598227734], [17.91373792516515, 43.21547191949355], [17.91750235864697, 43.20449691430122]]]}}]}