{
"type": "FeatureCollection",
"name": "SI-39",
"crs": { "type": "name", "properties": { "name": "urn:ogc:def:crs:OGC:1.3:CRS84" } },
"features": [
{ "type": "Feature", "properties": { "fid": 43, "GID_2": "SRB.5.8_1", "GID_0": "SRB", "COUNTRY": "Serbia", "GID_1": "SRB.5_1", "NAME_1": "Južno-Bački", "NL_NAME_1": "Јужнобачки", "NAME_2": "Sremski Karlovci", "VARNAME_2": "Karlóca|Karlofça", "NL_NAME_2": "Сремски Карловци", "TYPE_2": "Opštine", "ENGTYPE_2": "Town|Municipal", "CC_2": "NA", "HASC_2": "NA" }, "geometry": { "type": "MultiPolygon", "coordinates": [ [ [ [ 19.868076324000128, 45.14642715400015 ], [ 19.883464814000092, 45.159427643000129 ], [ 19.885707855000135, 45.16158294600001 ], [ 19.88692665200017, 45.16323089600013 ], [ 19.888780594000082, 45.167854310000052 ], [ 19.890878677000046, 45.176528932000167 ], [ 19.892698287000144, 45.179782866999972 ], [ 19.895994187000156, 45.183845520000148 ], [ 19.896776198000111, 45.185359955000138 ], [ 19.897192, 45.186931609000112 ], [ 19.897123337000153, 45.188945771000192 ], [ 19.896606445000032, 45.190498351000031 ], [ 19.895732879000036, 45.191970825000169 ], [ 19.892358779000119, 45.195686340000179 ], [ 19.891353607000099, 45.197174072 ], [ 19.890924454000185, 45.198650361000034 ], [ 19.891468047000103, 45.20051193300003 ], [ 19.895887374000097, 45.204822540000123 ], [ 19.898401260000128, 45.209861756000123 ], [ 19.90090560900012, 45.212451935000161 ], [ 19.915988921000064, 45.222999572000049 ], [ 19.921064376000118, 45.22661590600012 ], [ 19.923294068000075, 45.225059509000062 ], [ 19.92438125700005, 45.224136353000063 ], [ 19.924909592000176, 45.223354341000174 ], [ 19.925329209000154, 45.222537995000152 ], [ 19.925714492000111, 45.22171783400006 ], [ 19.925970078000148, 45.220916749000082 ], [ 19.925945282000043, 45.22053909400006 ], [ 19.925762175999978, 45.220222474000138 ], [ 19.925464630000079, 45.219921112000065 ], [ 19.924692154000127, 45.219329835000053 ], [ 19.922868728000026, 45.218093872000054 ], [ 19.923101424000095, 45.217475891000163 ], [ 19.924215317000176, 45.216350555000133 ], [ 19.926885604000063, 45.214618684000072 ], [ 19.9302730550001, 45.213039398000149 ], [ 19.935476304000133, 45.211189271000137 ], [ 19.941705704000071, 45.209373473000142 ], [ 19.945358277000025, 45.208755494000116 ], [ 19.95623016400009, 45.207675934000122 ], [ 19.959508895000056, 45.207042694000108 ], [ 19.96829414400014, 45.204277039000033 ], [ 19.971651077000161, 45.20367050100009 ], [ 19.975261688000046, 45.203353881000169 ], [ 19.990694046000044, 45.20281982400013 ], [ 19.99460983300014, 45.202472687000125 ], [ 19.998453140000095, 45.201793671000075 ], [ 20.003599166000072, 45.200126648000037 ], [ 20.016336441000135, 45.195201874000077 ], [ 19.994758607, 45.184272767000039 ], [ 19.982242583000072, 45.179374695000149 ], [ 19.975456238000163, 45.175796510000112 ], [ 19.973846435000098, 45.174713134000172 ], [ 19.972795486000109, 45.173648834000062 ], [ 19.972248077000188, 45.1725006100001 ], [ 19.972366333000025, 45.171150206999982 ], [ 19.973161698000183, 45.16981506400009 ], [ 19.975173950000055, 45.168079376000037 ], [ 19.979478836000112, 45.164916993000134 ], [ 19.980899810000039, 45.163406372000111 ], [ 19.981487275000063, 45.161895751000088 ], [ 19.981153487000029, 45.160797119000108 ], [ 19.980251312000064, 45.159748078000121 ], [ 19.978027343000178, 45.158206940000127 ], [ 19.973445893000189, 45.155765534000068 ], [ 19.964218139000138, 45.151336671000195 ], [ 19.961048127000026, 45.150012969000102 ], [ 19.95768737800006, 45.148906707000037 ], [ 19.954172135000078, 45.148071288000097 ], [ 19.940914154000097, 45.146526336000193 ], [ 19.936311721000038, 45.145599365000123 ], [ 19.929704666000077, 45.144580842000153 ], [ 19.912622451, 45.14257812600016 ], [ 19.905750274000127, 45.143028259 ], [ 19.903995514000087, 45.143363953000119 ], [ 19.899698258000114, 45.144847870000035 ], [ 19.898035050000033, 45.145149231000175 ], [ 19.883802413000012, 45.145606995000037 ], [ 19.868076324000128, 45.14642715400015 ] ] ] ] } },
{ "type": "Feature", "properties": { "fid": 126, "GID_2": "SRB.20.1_1", "GID_0": "SRB", "COUNTRY": "Serbia", "GID_1": "SRB.20_1", "NAME_1": "Sremski", "NL_NAME_1": "Сремски", "NAME_2": "Inđija", "VARNAME_2": "NA", "NL_NAME_2": "Инђија", "TYPE_2": "Opštine", "ENGTYPE_2": "Town|Municipal", "CC_2": "NA", "HASC_2": "NA" }, "geometry": { "type": "MultiPolygon", "coordinates": [ [ [ [ 20.016336441000135, 45.195201874000077 ], [ 20.016529081999977, 45.194274903 ], [ 20.017545700000085, 45.192554475000122 ], [ 20.019109726000181, 45.190689088000056 ], [ 20.02280044600019, 45.187297821000072 ], [ 20.023897170000168, 45.185832978000121 ], [ 20.024814606000064, 45.183578492000095 ], [ 20.025127409999982, 45.181224824000026 ], [ 20.024942399000054, 45.178878784000062 ], [ 20.024221420000174, 45.176628113999982 ], [ 20.023340226000073, 45.175128936000135 ], [ 20.021480559000167, 45.172676086000024 ], [ 20.016614914000172, 45.167194367000093 ], [ 20.015344619000132, 45.165470123000034 ], [ 20.014770507000094, 45.163772584000185 ], [ 20.015216828000121, 45.162174224000125 ], [ 20.01645851100011, 45.160678864000033 ], [ 20.018760682000106, 45.159084319000158 ], [ 20.021316529000103, 45.1578407290001 ], [ 20.024080276000063, 45.157089233000079 ], [ 20.027391434000094, 45.157157899000083 ], [ 20.035732270000096, 45.158576965000123 ], [ 20.039741515000117, 45.158668517000194 ], [ 20.042598724000186, 45.158325196000135 ], [ 20.045322419000172, 45.157657623000034 ], [ 20.050756454000123, 45.155357362000075 ], [ 20.053398132000041, 45.154846191000161 ], [ 20.056100846000163, 45.154838563000055 ], [ 20.058582305000073, 45.155368805000023 ], [ 20.065057754000179, 45.159095765000018 ], [ 20.073495864000051, 45.162990570000147 ], [ 20.076158524000107, 45.164798737000126 ], [ 20.078195572000084, 45.167095185000051 ], [ 20.079517364000026, 45.169788361000144 ], [ 20.080104829000049, 45.174110413000164 ], [ 20.079801560000078, 45.178054810000106 ], [ 20.09866714400016, 45.178218841000103 ], [ 20.106525422, 45.177818299000137 ], [ 20.110141754000097, 45.177280427000085 ], [ 20.118940354000131, 45.174865724000028 ], [ 20.126359939000054, 45.172046662000184 ], [ 20.130575179000118, 45.170665742000153 ], [ 20.13701629600007, 45.168956757000046 ], [ 20.140165328000023, 45.168483735000166 ], [ 20.146762847000105, 45.16815948500016 ], [ 20.153421402000106, 45.168327332000104 ], [ 20.167503357000044, 45.169849396000131 ], [ 20.172761918000049, 45.169898986000135 ], [ 20.17745590300018, 45.169162751000044 ], [ 20.18549728500011, 45.16710662800017 ], [ 20.18813514600015, 45.166038513 ], [ 20.19760322500008, 45.161388397 ], [ 20.203067781000129, 45.158065796000187 ], [ 20.234836579000046, 45.13537216300017 ], [ 20.248054504000095, 45.12541198700012 ], [ 20.251611710000077, 45.123622895000096 ], [ 20.255201339000166, 45.122287750000169 ], [ 20.263488770000095, 45.119865417000028 ], [ 20.264690399000131, 45.114151001000096 ], [ 20.265441894000048, 45.112182617000144 ], [ 20.26884460500014, 45.106941223000035 ], [ 20.27249908400006, 45.102050782000163 ], [ 20.276878357000157, 45.097763061000023 ], [ 20.277744293000183, 45.096614837000061 ], [ 20.278314590000036, 45.095218659000182 ], [ 20.278652190000116, 45.090526582 ], [ 20.277656556000125, 45.082328797 ], [ 20.269483566000133, 45.080665589000091 ], [ 20.264951705999977, 45.079311371000131 ], [ 20.252050399000041, 45.074920655000085 ], [ 20.243461609000121, 45.071281433000081 ], [ 20.238039017000176, 45.068050386000152 ], [ 20.233755111000107, 45.06480789200009 ], [ 20.220935821000069, 45.053012849000027 ], [ 20.219432830000187, 45.050830841000163 ], [ 20.218891145000043, 45.048763275000113 ], [ 20.219039917000089, 45.046638490000078 ], [ 20.222232819000112, 45.036945343000184 ], [ 20.22348976000012, 45.033866882000154 ], [ 20.22398948600005, 45.031627654000147 ], [ 20.224077225000144, 45.029357910000101 ], [ 20.223257064000052, 45.02558136100015 ], [ 20.221260071000074, 45.019657135999978 ], [ 20.220224380000104, 45.017608642000141 ], [ 20.217863084000157, 45.015155792000087 ], [ 20.215391158000045, 45.013702392000084 ], [ 20.21338653700019, 45.013092041000107 ], [ 20.211158752000188, 45.012722016000112 ], [ 20.203180313000018, 45.012355804000038 ], [ 20.124118804000148, 45.013053894000052 ], [ 20.120088577000047, 45.013351440000179 ], [ 20.116250992, 45.013961792000032 ], [ 20.113937377000184, 45.014633178000167 ], [ 20.111831665000011, 45.015541078000126 ], [ 20.104518890000065, 45.020404816000053 ], [ 20.101877212000034, 45.021102906000067 ], [ 20.099977493000097, 45.020992279000097 ], [ 20.098203659000092, 45.020416259 ], [ 20.096647261999976, 45.019428253000171 ], [ 20.094018936000111, 45.016921997999987 ], [ 20.08465767000007, 45.003704071000129 ], [ 20.082267760000036, 45.001045226000144 ], [ 20.079109191999976, 44.998512268000184 ], [ 20.077121734000059, 44.997623443000066 ], [ 20.074878692000084, 44.997005462 ], [ 20.071384429999966, 44.996517181000058 ], [ 20.067684174000078, 44.996318817000144 ], [ 20.048681259000091, 44.996025086000088 ], [ 20.045064927, 44.995639801000095 ], [ 20.040672301000029, 44.994873047000056 ], [ 20.0336208330001, 44.994274139000083 ], [ 20.014209748000098, 44.994068147000064 ], [ 19.999050141000168, 44.99364089900007 ], [ 19.997291566000058, 44.995300294000174 ], [ 19.995130539000058, 44.998252868 ], [ 19.993629456000122, 45.003383636000194 ], [ 19.989212037000129, 45.006904603000123 ], [ 19.987367631000097, 45.009185790000117 ], [ 19.985546113000169, 45.013519288 ], [ 19.983886718000122, 45.016510011000094 ], [ 19.983411788000069, 45.018211365000184 ], [ 19.983409882999979, 45.021846771000071 ], [ 19.985925675000146, 45.034141540000121 ], [ 19.987464905000138, 45.033851623000032 ], [ 19.989330293000137, 45.03419113200016 ], [ 19.990472794000084, 45.035686492000025 ], [ 19.989997864000031, 45.037723542000037 ], [ 19.988462447000074, 45.039337158000137 ], [ 19.985841752000056, 45.041484833000084 ], [ 19.984369278000088, 45.043312072000049 ], [ 19.983243942000058, 45.045372009 ], [ 19.981658935999974, 45.0499572760001 ], [ 19.981477737000034, 45.051406861000032 ], [ 19.981748580000101, 45.05342483600009 ], [ 19.984165191000159, 45.058181763000164 ], [ 19.984617234000154, 45.060111999000128 ], [ 19.984460829999989, 45.062038422000114 ], [ 19.983627320000153, 45.063869477000026 ], [ 19.982093811000027, 45.065364838 ], [ 19.980510712000182, 45.066154480000137 ], [ 19.972007751000035, 45.06877136200012 ], [ 19.968118669000091, 45.071338655000034 ], [ 19.966922759999989, 45.07254028400007 ], [ 19.965387343000089, 45.074768066000161 ], [ 19.962898254000095, 45.080715179000094 ], [ 19.95882034300007, 45.086071015000016 ], [ 19.958265305000168, 45.087493897000172 ], [ 19.958211899000048, 45.088947294999969 ], [ 19.958969115000173, 45.090873718000125 ], [ 19.961635590000071, 45.094715118000181 ], [ 19.962610245000121, 45.096694946000014 ], [ 19.962789536000173, 45.09862136900017 ], [ 19.962459564000028, 45.099975587000131 ], [ 19.961284638000166, 45.102245331000177 ], [ 19.957195282000043, 45.108230591000165 ], [ 19.955408096000099, 45.110244750999982 ], [ 19.950870513000098, 45.114330292000091 ], [ 19.944061279000152, 45.119483947999981 ], [ 19.937910081000155, 45.12510299700017 ], [ 19.929389954000158, 45.130588531000171 ], [ 19.922849655000164, 45.135501862000183 ], [ 19.912622451, 45.14257812600016 ], [ 19.929704666000077, 45.144580842000153 ], [ 19.936311721000038, 45.145599365000123 ], [ 19.940914154000097, 45.146526336000193 ], [ 19.954172135000078, 45.148071288000097 ], [ 19.95768737800006, 45.148906707000037 ], [ 19.961048127000026, 45.150012969000102 ], [ 19.964218139000138, 45.151336671000195 ], [ 19.973445893000189, 45.155765534000068 ], [ 19.978027343000178, 45.158206940000127 ], [ 19.980251312000064, 45.159748078000121 ], [ 19.981153487000029, 45.160797119000108 ], [ 19.981487275000063, 45.161895751000088 ], [ 19.980899810000039, 45.163406372000111 ], [ 19.979478836000112, 45.164916993000134 ], [ 19.975173950000055, 45.168079376000037 ], [ 19.973161698000183, 45.16981506400009 ], [ 19.972366333000025, 45.171150206999982 ], [ 19.972248077000188, 45.1725006100001 ], [ 19.972795486000109, 45.173648834000062 ], [ 19.973846435000098, 45.174713134000172 ], [ 19.975456238000163, 45.175796510000112 ], [ 19.982242583000072, 45.179374695000149 ], [ 19.994758607, 45.184272767000039 ], [ 20.016336441000135, 45.195201874000077 ] ] ] ] } },
{ "type": "Feature", "properties": { "fid": 127, "GID_2": "SRB.20.2_1", "GID_0": "SRB", "COUNTRY": "Serbia", "GID_1": "SRB.20_1", "NAME_1": "Sremski", "NL_NAME_1": "Сремски", "NAME_2": "Irig", "VARNAME_2": "NA", "NL_NAME_2": "Ириг", "TYPE_2": "Opštine", "ENGTYPE_2": "Town|Municipal", "CC_2": "NA", "HASC_2": "NA" }, "geometry": { "type": "MultiPolygon", "coordinates": [ [ [ [ 19.698797226000124, 45.141712190000135 ], [ 19.718097688000114, 45.14694595300017 ], [ 19.725254058000189, 45.149459838000098 ], [ 19.730443954000066, 45.151725769000052 ], [ 19.733133315000089, 45.152648925000051 ], [ 19.736232758000142, 45.153194428000177 ], [ 19.749538421000125, 45.153942108000194 ], [ 19.752681731000166, 45.154529571000069 ], [ 19.755409241000052, 45.155559539000194 ], [ 19.75799560500019, 45.15693283100012 ], [ 19.76323890600014, 45.160278320000089 ], [ 19.773094177000132, 45.167099 ], [ 19.783855439000035, 45.157054902000027 ], [ 19.792020797000077, 45.147125244000165 ], [ 19.793523788000186, 45.146030425000106 ], [ 19.795318603999988, 45.145347596000192 ], [ 19.797306060000153, 45.145103454000036 ], [ 19.79915618900003, 45.145252228000118 ], [ 19.808082580000075, 45.147232056000121 ], [ 19.811805724000124, 45.147769929000162 ], [ 19.819704056000091, 45.148166657000104 ], [ 19.83607482900004, 45.148162842000033 ], [ 19.853357316000142, 45.147903443000189 ], [ 19.862262726000154, 45.147457122000105 ], [ 19.8660278320001, 45.146995545000038 ], [ 19.868076324000128, 45.14642715400015 ], [ 19.883802413000012, 45.145606995000037 ], [ 19.898035050000033, 45.145149231000175 ], [ 19.899698258000114, 45.144847870000035 ], [ 19.903995514000087, 45.143363953000119 ], [ 19.905750274000127, 45.143028259 ], [ 19.912622451, 45.14257812600016 ], [ 19.922849655000164, 45.135501862000183 ], [ 19.929389954000158, 45.130588531000171 ], [ 19.937910081000155, 45.12510299700017 ], [ 19.944061279000152, 45.119483947999981 ], [ 19.950870513000098, 45.114330292000091 ], [ 19.955408096000099, 45.110244750999982 ], [ 19.957195282000043, 45.108230591000165 ], [ 19.961284638000166, 45.102245331000177 ], [ 19.962459564000028, 45.099975587000131 ], [ 19.962789536000173, 45.09862136900017 ], [ 19.962610245000121, 45.096694946000014 ], [ 19.961635590000071, 45.094715118000181 ], [ 19.958969115000173, 45.090873718000125 ], [ 19.958211899000048, 45.088947294999969 ], [ 19.958265305000168, 45.087493897000172 ], [ 19.95882034300007, 45.086071015000016 ], [ 19.962898254000095, 45.080715179000094 ], [ 19.965387343000089, 45.074768066000161 ], [ 19.966922759999989, 45.07254028400007 ], [ 19.968118669000091, 45.071338655000034 ], [ 19.972007751000035, 45.06877136200012 ], [ 19.980510712000182, 45.066154480000137 ], [ 19.982093811000027, 45.065364838 ], [ 19.983627320000153, 45.063869477000026 ], [ 19.984460829999989, 45.062038422000114 ], [ 19.984617234000154, 45.060111999000128 ], [ 19.984165191000159, 45.058181763000164 ], [ 19.981748580000101, 45.05342483600009 ], [ 19.981477737000034, 45.051406861000032 ], [ 19.981658935999974, 45.0499572760001 ], [ 19.983243942000058, 45.045372009 ], [ 19.984369278000088, 45.043312072000049 ], [ 19.985841752000056, 45.041484833000084 ], [ 19.988462447000074, 45.039337158000137 ], [ 19.989997864000031, 45.037723542000037 ], [ 19.990472794000084, 45.035686492000025 ], [ 19.989330293000137, 45.03419113200016 ], [ 19.987464905000138, 45.033851623000032 ], [ 19.985925675000146, 45.034141540000121 ], [ 19.976606369000024, 45.030647278000174 ], [ 19.962341308000191, 45.02624130200013 ], [ 19.960086822000164, 45.025875092000035 ], [ 19.95259857200017, 45.025375366000105 ], [ 19.949605941000129, 45.024860382000099 ], [ 19.941623687000117, 45.022178649000182 ], [ 19.931409836000114, 45.019664764000083 ], [ 19.928285599000162, 45.019157410000048 ], [ 19.91493034400014, 45.017818452000085 ], [ 19.912939071000096, 45.017940521000185 ], [ 19.911088944000085, 45.018398284000114 ], [ 19.908706665000068, 45.019706726000038 ], [ 19.905656814000054, 45.022174836000147 ], [ 19.903217315000063, 45.023811340000179 ], [ 19.900522231000025, 45.024959564000142 ], [ 19.891450881000139, 45.027191162000065 ], [ 19.886995315000092, 45.028785706000178 ], [ 19.879507064000165, 45.033081055000025 ], [ 19.873584747000166, 45.035911560000045 ], [ 19.868288041000142, 45.038120271000082 ], [ 19.865760803000114, 45.039100647000168 ], [ 19.863187789000051, 45.03977966400015 ], [ 19.860372543000153, 45.039958954000042 ], [ 19.856344223000065, 45.039436340000179 ], [ 19.850412367999979, 45.038288116 ], [ 19.839206696000076, 45.035129548000157 ], [ 19.829849242000023, 45.033462525000175 ], [ 19.82747459300009, 45.032840729000043 ], [ 19.823368073000097, 45.03114318900009 ], [ 19.816362380000157, 45.026782990000186 ], [ 19.811891556000091, 45.025165559000072 ], [ 19.802383423000038, 45.023151397 ], [ 19.796770097000092, 45.021339417000036 ], [ 19.792818069000134, 45.020381927000187 ], [ 19.789545059000034, 45.019935609000015 ], [ 19.785440446000166, 45.019824981000113 ], [ 19.782209397000088, 45.017566680000073 ], [ 19.781995772000073, 45.017482759000131 ], [ 19.781507492000173, 45.017417908000027 ], [ 19.780359268000041, 45.017433167000092 ], [ 19.777303695000057, 45.017395020000038 ], [ 19.776063919000023, 45.017517090000013 ], [ 19.775625229000127, 45.017692566000164 ], [ 19.775371552000024, 45.017993928000067 ], [ 19.775245666000046, 45.018379211000024 ], [ 19.775157929000159, 45.01925277700019 ], [ 19.775173187000178, 45.020168305000084 ], [ 19.775327682000125, 45.021072387000117 ], [ 19.775747299000102, 45.021919252000146 ], [ 19.776340485000162, 45.022731782000051 ], [ 19.776695251000035, 45.023113250000165 ], [ 19.777124404000062, 45.023464204000049 ], [ 19.777647018000152, 45.023757935000106 ], [ 19.778877257999966, 45.024250031000122 ], [ 19.780267716000083, 45.02470398000014 ], [ 19.781972886000119, 45.024696350000056 ], [ 19.782516479000094, 45.025020600000062 ], [ 19.783222199000022, 45.026004791000048 ], [ 19.784032822000029, 45.028087616000164 ], [ 19.784547807000138, 45.030586243000187 ], [ 19.785051345000056, 45.03699874900019 ], [ 19.784877777000077, 45.055252076000102 ], [ 19.78461265500016, 45.058116913000106 ], [ 19.783428192000144, 45.063938141000165 ], [ 19.783412934000125, 45.066089631000011 ], [ 19.784185410000077, 45.071205139000142 ], [ 19.783966064000026, 45.0732269290001 ], [ 19.783477784000127, 45.074569702000076 ], [ 19.782613754000067, 45.075645447 ], [ 19.780530929000122, 45.0765037540001 ], [ 19.778692245000059, 45.076507569000114 ], [ 19.776737213000104, 45.076076507000153 ], [ 19.774143219000052, 45.074943542000142 ], [ 19.77167511100015, 45.073402404000149 ], [ 19.768730162999987, 45.070980072999987 ], [ 19.762279511000088, 45.06467056300005 ], [ 19.76077079800001, 45.062461854000162 ], [ 19.759269715000073, 45.059162140000183 ], [ 19.755174638000085, 45.053722382000046 ], [ 19.752227782000148, 45.048770905000083 ], [ 19.749681473000066, 45.039890289000141 ], [ 19.747814178, 45.035484315000133 ], [ 19.747516632000099, 45.033336639000026 ], [ 19.747953415000097, 45.020679474000019 ], [ 19.747682572000144, 45.017910004000044 ], [ 19.746965408000165, 45.015289306000113 ], [ 19.746074676000148, 45.013668060000043 ], [ 19.744798659000026, 45.012241363000044 ], [ 19.743116377999968, 45.011051178000059 ], [ 19.73925590500005, 45.009262086000035 ], [ 19.737237930000163, 45.008644105000144 ], [ 19.734195710000165, 45.008144378999987 ], [ 19.731077194000022, 45.008022308000136 ], [ 19.728069305000133, 45.008247376000099 ], [ 19.726016999000137, 45.008674621000182 ], [ 19.724266052000132, 45.009399415000132 ], [ 19.722524643000042, 45.010963441 ], [ 19.721424104000164, 45.012981415000183 ], [ 19.720869065000159, 45.015186311000036 ], [ 19.720794677000072, 45.019874573000152 ], [ 19.721220017000064, 45.022197725000183 ], [ 19.722068787000126, 45.024417877000189 ], [ 19.726305008000054, 45.030132294000055 ], [ 19.729160309000179, 45.035064698000099 ], [ 19.729656220000095, 45.037181854000153 ], [ 19.729639054000074, 45.039299011000082 ], [ 19.728992461000132, 45.044197083000142 ], [ 19.729125976999967, 45.046890259000065 ], [ 19.728841781000085, 45.048248291000164 ], [ 19.72812652500005, 45.049499512000011 ], [ 19.726192475000119, 45.051044464000142 ], [ 19.722793578000164, 45.052837373000102 ], [ 19.715282441000113, 45.057918549000192 ], [ 19.713098526000181, 45.059730531000014 ], [ 19.711580277000053, 45.061954498000091 ], [ 19.711162568000077, 45.063964844000168 ], [ 19.711534500000084, 45.066013336000026 ], [ 19.712762833000056, 45.068115234 ], [ 19.716125488000159, 45.072273254000152 ], [ 19.71731948900009, 45.074459075999982 ], [ 19.717586516999972, 45.076087952000137 ], [ 19.717304231000071, 45.077735902000086 ], [ 19.715866088000041, 45.08009338300019 ], [ 19.711107253000023, 45.084098816 ], [ 19.709587097000167, 45.085769654000046 ], [ 19.712350846000163, 45.089939116999972 ], [ 19.713357926000128, 45.092899323000154 ], [ 19.715408325000055, 45.095016480000083 ], [ 19.715789795000035, 45.096122742000148 ], [ 19.715425490000143, 45.097316742000146 ], [ 19.714223861000107, 45.099155426000038 ], [ 19.711086274000138, 45.101539613000057 ], [ 19.711793900000089, 45.102958679000039 ], [ 19.713172912000118, 45.107990265000183 ], [ 19.71488762000007, 45.112377168000137 ], [ 19.714687348000041, 45.114513398000156 ], [ 19.710584641000082, 45.120033264000142 ], [ 19.710231782000108, 45.121059418000129 ], [ 19.709899902000188, 45.125030518000074 ], [ 19.709182740000188, 45.12638855 ], [ 19.704738617000089, 45.129348756000184 ], [ 19.703205108000134, 45.131122589000142 ], [ 19.701568603000169, 45.135623932000158 ], [ 19.698797226000124, 45.141712190000135 ] ] ] ] } },
{ "type": "Feature", "properties": { "fid": 128, "GID_2": "SRB.20.3_1", "GID_0": "SRB", "COUNTRY": "Serbia", "GID_1": "SRB.20_1", "NAME_1": "Sremski", "NL_NAME_1": "Сремски", "NAME_2": "Pećinci", "VARNAME_2": "NA", "NL_NAME_2": "Пећинци", "TYPE_2": "Opštine", "ENGTYPE_2": "Town|Municipal", "CC_2": "NA", "HASC_2": "NA" }, "geometry": { "type": "MultiPolygon", "coordinates": [ [ [ [ 20.108747483000116, 44.691547393000064 ], [ 20.105091095000091, 44.68909072800011 ], [ 20.101520538000159, 44.687271118000183 ], [ 20.097902298000122, 44.686019897000108 ], [ 20.086137772000143, 44.683868408000194 ], [ 20.078910828000119, 44.681747437000126 ], [ 20.065340042000116, 44.676757813000108 ], [ 20.057727813000042, 44.67338180500019 ], [ 20.052854537000087, 44.671817779000094 ], [ 20.047660828000119, 44.670799256000123 ], [ 20.038055421000024, 44.669948579000163 ], [ 20.035102845000154, 44.669391633000089 ], [ 20.032232285000134, 44.668300629000044 ], [ 20.030355453000141, 44.667072296000129 ], [ 20.026712417000113, 44.663356782000164 ], [ 20.019569397000112, 44.657047272 ], [ 20.017936706000114, 44.655876159 ], [ 20.016006470000093, 44.654953003 ], [ 20.013833999000042, 44.654247283000075 ], [ 20.003602982000018, 44.652053833000139 ], [ 19.994279862000099, 44.650604247000103 ], [ 19.992025376000072, 44.649959565000017 ], [ 19.990005494000116, 44.649066925000056 ], [ 19.986715317000119, 44.646549225000115 ], [ 19.979404450000175, 44.639068604000158 ], [ 19.966598509999983, 44.628150940000126 ], [ 19.962547303000065, 44.626480102000073 ], [ 19.956045151000183, 44.623310088000153 ], [ 19.944349290000105, 44.616283417000034 ], [ 19.941368103000116, 44.614921570000092 ], [ 19.936471938000068, 44.6136131290001 ], [ 19.932767867000109, 44.613178253000171 ], [ 19.925119399000039, 44.612911224000186 ], [ 19.917396545000145, 44.612934112000119 ], [ 19.909780503000093, 44.613258362000124 ], [ 19.906127929000036, 44.613735199000075 ], [ 19.903699875000029, 44.614315034000185 ], [ 19.901430129000175, 44.615116119000106 ], [ 19.898719787000061, 44.61655426100009 ], [ 19.896392823000099, 44.618301391000045 ], [ 19.888326645000063, 44.626071930000194 ], [ 19.88689613300005, 44.628173829000104 ], [ 19.886308670000176, 44.630279541999982 ], [ 19.886425018000068, 44.632419587000072 ], [ 19.886894225000049, 44.633907318000126 ], [ 19.889585496000052, 44.639595031000113 ], [ 19.89201545800006, 44.642230987000062 ], [ 19.894443512, 44.644016266000051 ], [ 19.897396087000175, 44.645362854000098 ], [ 19.899734497, 44.646038056 ], [ 19.902208328000143, 44.646499635000112 ], [ 19.905460358000141, 44.646774293000078 ], [ 19.912059784000121, 44.646602630000189 ], [ 19.922828674000129, 44.644935609000186 ], [ 19.929273606000095, 44.644847870000149 ], [ 19.93450736900013, 44.645622254000102 ], [ 19.943031311000027, 44.647747041000116 ], [ 19.945775987000104, 44.648670197000115 ], [ 19.956968307000182, 44.653450013000167 ], [ 19.959571837999988, 44.654640199000085 ], [ 19.962797165000154, 44.656742097000063 ], [ 19.964845658000115, 44.658706665000068 ], [ 19.969100952000133, 44.66372680700016 ], [ 19.969652176000068, 44.665023803000167 ], [ 19.969741822, 44.666374206000057 ], [ 19.969331741000133, 44.668369292000136 ], [ 19.968574525000179, 44.669929504999971 ], [ 19.967439652000166, 44.671398164000095 ], [ 19.965253830000108, 44.673229216999971 ], [ 19.96268653900006, 44.674819947000174 ], [ 19.958070755000051, 44.676628114000096 ], [ 19.955993653000178, 44.67721176200007 ], [ 19.952322006000031, 44.677799224000182 ], [ 19.936683656000184, 44.678520203000062 ], [ 19.932891846000132, 44.678878785000052 ], [ 19.925273896000078, 44.680019378000054 ], [ 19.91803550700007, 44.680576324000128 ], [ 19.898811341, 44.680778504000159 ], [ 19.884157181999967, 44.680587770000159 ], [ 19.880794524000123, 44.680713653 ], [ 19.87673187200005, 44.681236268000191 ], [ 19.881643294000185, 44.687808991000168 ], [ 19.882877350000115, 44.689834595000093 ], [ 19.883745193000095, 44.692279815000063 ], [ 19.884096146000104, 44.694747926000105 ], [ 19.88403892600013, 44.697181702000194 ], [ 19.883592605000104, 44.699535370000092 ], [ 19.882465363000051, 44.702716827000131 ], [ 19.880739212000151, 44.709606172000065 ], [ 19.87912750300012, 44.713314056000058 ], [ 19.873466491000158, 44.721752166000158 ], [ 19.863489151000067, 44.73503875900019 ], [ 19.86275863700007, 44.736755372000175 ], [ 19.863008499000102, 44.738533020000034 ], [ 19.864408494000031, 44.739974975000052 ], [ 19.866167069000142, 44.740650177000134 ], [ 19.868421555000168, 44.741058351000163 ], [ 19.871952057000101, 44.741317748000029 ], [ 19.884143829000038, 44.74111938600015 ], [ 19.88757324200003, 44.738689422000164 ], [ 19.889255523000031, 44.737453462000019 ], [ 19.890077592000125, 44.73692321700014 ], [ 19.890937805000135, 44.736454010000102 ], [ 19.891788482000095, 44.736106874000029 ], [ 19.893533706000085, 44.735595703000058 ], [ 19.894397736000144, 44.735420227000134 ], [ 19.895233154000152, 44.735324860000162 ], [ 19.896026611000025, 44.735359191000043 ], [ 19.896799087000147, 44.735591889000091 ], [ 19.897512435000181, 44.735965730000032 ], [ 19.898166656000058, 44.736419678000118 ], [ 19.898742675000051, 44.73692321700014 ], [ 19.899179458, 44.737483978000057 ], [ 19.89942932200006, 44.738143922000177 ], [ 19.899528504000102, 44.738849640000126 ], [ 19.899469375000137, 44.740291595000144 ], [ 19.899293899000156, 44.741001128000107 ], [ 19.898994445000085, 44.741638183000191 ], [ 19.898588181000036, 44.742244721000077 ], [ 19.898096085000191, 44.742820741000116 ], [ 19.897493362000148, 44.743339538000157 ], [ 19.896747589000142, 44.743774413000153 ], [ 19.895896912000183, 44.744155884 ], [ 19.894008636000081, 44.74485397400008 ], [ 19.89088630700013, 44.745910646000084 ], [ 19.886980057000073, 44.748828888000162 ], [ 19.87534141600014, 44.760616302000017 ], [ 19.87268829400017, 44.762359619000108 ], [ 19.865667343000041, 44.766094209000016 ], [ 19.860815048000063, 44.769386291000103 ], [ 19.859786987000177, 44.770503998000152 ], [ 19.859247207000124, 44.771652222000114 ], [ 19.85923767200012, 44.772476196000071 ], [ 19.860033036000061, 44.773967743000128 ], [ 19.861600875000022, 44.775344850000124 ], [ 19.863693238, 44.776538849000019 ], [ 19.870630265000159, 44.779411316000107 ], [ 19.876234055000168, 44.782382965000068 ], [ 19.878395080000189, 44.783229827000127 ], [ 19.885408401000063, 44.785305024000138 ], [ 19.887073516000044, 44.786087036000026 ], [ 19.888706207000041, 44.78757095300017 ], [ 19.88966369700006, 44.789356232000159 ], [ 19.88983345000014, 44.79158782900015 ], [ 19.88882255599998, 44.793655396000077 ], [ 19.887735367000175, 44.794895171000064 ], [ 19.883531570000116, 44.798587799000074 ], [ 19.882272721000106, 44.800571442000148 ], [ 19.882028580000053, 44.801975250000112 ], [ 19.882291794000025, 44.803371431000073 ], [ 19.88403892600013, 44.805801392000149 ], [ 19.888065338000047, 44.809829711000134 ], [ 19.891660691000084, 44.815502167000147 ], [ 19.893747329000064, 44.817771913000172 ], [ 19.901315689000114, 44.82410431 ], [ 19.903396606000058, 44.826187135000112 ], [ 19.904603958000109, 44.828273773000092 ], [ 19.904529572, 44.830074310000157 ], [ 19.903436660000182, 44.831661224000186 ], [ 19.900342941000076, 44.833370209000066 ], [ 19.896667481000122, 44.834762574000081 ], [ 19.891805648000059, 44.835968018000187 ], [ 19.889757157000133, 44.83626556500019 ], [ 19.886819839000111, 44.83626556500019 ], [ 19.880668641000113, 44.835285186000192 ], [ 19.877693176000037, 44.835113525999986 ], [ 19.87271118100017, 44.835475923000047 ], [ 19.870697021000126, 44.835811616000058 ], [ 19.868953705000138, 44.836326600000177 ], [ 19.867198945000098, 44.837558748000163 ], [ 19.866792678000138, 44.838756561000082 ], [ 19.866966247, 44.840129853000178 ], [ 19.870212556000126, 44.846931457000039 ], [ 19.873828888000048, 44.851558685999976 ], [ 19.875314713000137, 44.853897096000026 ], [ 19.876699447000135, 44.859565734000114 ], [ 19.877578736000146, 44.861606597000105 ], [ 19.879850388000136, 44.864181518000066 ], [ 19.882154465000099, 44.865848541000105 ], [ 19.884862900000087, 44.867206574000079 ], [ 19.887134552000134, 44.8679580700001 ], [ 19.889572143000123, 44.868488312000125 ], [ 19.893247605000113, 44.868904114000031 ], [ 19.91266441300013, 44.869167329000049 ], [ 19.91645050000011, 44.869396210000104 ], [ 19.920036316000164, 44.869907378999983 ], [ 19.92663192700013, 44.87198257600005 ], [ 19.928468703000192, 44.873004914000035 ], [ 19.929615022000121, 44.874176026000157 ], [ 19.929843903000119, 44.875221253 ], [ 19.929370880000135, 44.876201631000129 ], [ 19.928134918000012, 44.877040863000104 ], [ 19.926324845000124, 44.877674103000118 ], [ 19.923517226000058, 44.878208160000156 ], [ 19.913906098000098, 44.879386903000068 ], [ 19.903459549000047, 44.88140869200015 ], [ 19.901430129000175, 44.881969452000135 ], [ 19.899679184000149, 44.882747650000056 ], [ 19.897842408000031, 44.884292603000063 ], [ 19.894161223000026, 44.890205384000183 ], [ 19.89229965100003, 44.89222335900007 ], [ 19.88989067100016, 44.893898009999987 ], [ 19.88567352300015, 44.896228790000123 ], [ 19.884365082000159, 44.897220611000193 ], [ 19.883359909000035, 44.898872375999986 ], [ 19.883106232000046, 44.900764465000179 ], [ 19.883558274000166, 44.902725219000047 ], [ 19.885343552000109, 44.905384064000032 ], [ 19.887300492000179, 44.907356263000054 ], [ 19.889682771000025, 44.90906143300009 ], [ 19.896642685000188, 44.912155151000093 ], [ 19.905101776000095, 44.916561127000136 ], [ 19.908060074000105, 44.917827607000106 ], [ 19.912876130000143, 44.919086456000116 ], [ 19.925083160000099, 44.92027282600003 ], [ 19.928960801000073, 44.920909881000057 ], [ 19.937116623000065, 44.923370361000082 ], [ 19.940973282000186, 44.924026490000074 ], [ 19.953060151000102, 44.925189972000055 ], [ 19.957447051000145, 44.925968171000079 ], [ 19.969659806000152, 44.927371979000043 ], [ 19.972023009000054, 44.927875520000043 ], [ 19.975309371000151, 44.929061890000185 ], [ 19.982656480000117, 44.933330536000028 ], [ 19.985872268000094, 44.934940338 ], [ 19.993099212000118, 44.937938691 ], [ 20.002912522000088, 44.934421539000141 ], [ 20.007522583000082, 44.93251800500002 ], [ 20.023061753000036, 44.923919677000072 ], [ 20.033256531000177, 44.919788360999974 ], [ 20.036056520000102, 44.918228150000118 ], [ 20.039583205000156, 44.915111542000034 ], [ 20.040565491000052, 44.91378784200009 ], [ 20.041465758000015, 44.911834716000158 ], [ 20.041793824000024, 44.908992768000189 ], [ 20.041402818000165, 44.907600403000174 ], [ 20.039070129000152, 44.903926850000062 ], [ 20.038738250000108, 44.901981354000043 ], [ 20.039493561000029, 44.900535584000124 ], [ 20.040925980000111, 44.89925765900017 ], [ 20.042829514000061, 44.898250579000148 ], [ 20.045488357000067, 44.897602081000173 ], [ 20.047380448000013, 44.897583008000083 ], [ 20.049234390000152, 44.897907258000089 ], [ 20.05643654000005, 44.901168823000035 ], [ 20.063089371000103, 44.903175355000144 ], [ 20.065946578000023, 44.903415681000126 ], [ 20.068046569000103, 44.903278350000051 ], [ 20.070028304000061, 44.90283966200019 ], [ 20.072649002000162, 44.901615142000082 ], [ 20.075529099000164, 44.89947891200012 ], [ 20.077703476000067, 44.896938325000121 ], [ 20.0798435210001, 44.891483307000158 ], [ 20.081041335000066, 44.889335632000154 ], [ 20.084243775, 44.884090423000032 ], [ 20.088256836000141, 44.878932954000106 ], [ 20.095949174000168, 44.870914459 ], [ 20.09811592, 44.869167329000049 ], [ 20.101297379000073, 44.867229463000115 ], [ 20.103332520000151, 44.865653992000091 ], [ 20.104337692, 44.864353181000183 ], [ 20.104949951000151, 44.862945557000046 ], [ 20.105892182000048, 44.85833358900004 ], [ 20.107416153000088, 44.855541229999972 ], [ 20.110111237000126, 44.852207184000179 ], [ 20.114723206000122, 44.848663331000125 ], [ 20.118341446000159, 44.846687318000193 ], [ 20.122455596, 44.845188140000118 ], [ 20.126586914000086, 44.844440460000044 ], [ 20.130773543000032, 44.844146728999988 ], [ 20.135961533000113, 44.844177246000129 ], [ 20.134578703999978, 44.837211609000121 ], [ 20.133829116000129, 44.829864502000191 ], [ 20.13299942000009, 44.827594758000146 ], [ 20.131504060000168, 44.825382232000038 ], [ 20.127887725000164, 44.82119369600008 ], [ 20.126438140000062, 44.819019319000176 ], [ 20.125543595000181, 44.816486358000134 ], [ 20.125131606000139, 44.813819885000044 ], [ 20.124486923000177, 44.802917480000076 ], [ 20.123786926000037, 44.800395966000167 ], [ 20.122919083000113, 44.798797606999983 ], [ 20.121685027000126, 44.797378540000125 ], [ 20.118194581000182, 44.795104981000179 ], [ 20.114524842000037, 44.793399811000143 ], [ 20.10773277300018, 44.791095733000134 ], [ 20.100755692000121, 44.789611816000161 ], [ 20.097837447000131, 44.789524079000103 ], [ 20.093782425000029, 44.789836884000124 ], [ 20.090953827000078, 44.78982925400004 ], [ 20.088941573000056, 44.789558411000087 ], [ 20.087152480999976, 44.788993835000099 ], [ 20.085176469000089, 44.787662507000107 ], [ 20.082576752000023, 44.784572602000139 ], [ 20.081762314000116, 44.78314590500014 ], [ 20.080934525000146, 44.780391694000059 ], [ 20.080694199000163, 44.777488708000192 ], [ 20.080930710000075, 44.774574279000035 ], [ 20.081747056000097, 44.771797181000125 ], [ 20.082689285000185, 44.77018737800006 ], [ 20.084005356000091, 44.768753051000147 ], [ 20.087671281000098, 44.766460419000168 ], [ 20.091510772999982, 44.764759064000145 ], [ 20.098608016000071, 44.762550355000087 ], [ 20.106498718000125, 44.760715485000162 ], [ 20.108144760000073, 44.759948731000122 ], [ 20.109685898000066, 44.758430482 ], [ 20.110439300000053, 44.756557465000185 ], [ 20.110435485000153, 44.754585267000095 ], [ 20.108634948000145, 44.749767304000159 ], [ 20.107627869, 44.747875212999986 ], [ 20.106195449000154, 44.746269227000028 ], [ 20.104705811000031, 44.745349884000063 ], [ 20.098724366000113, 44.742557526000098 ], [ 20.097484587999986, 44.741619110000102 ], [ 20.096860886000115, 44.74009704600013 ], [ 20.097269058000109, 44.739101409000057 ], [ 20.102617264000116, 44.734191894 ], [ 20.103412628000058, 44.732391357000154 ], [ 20.103477479000162, 44.730438233000029 ], [ 20.103126525000107, 44.729030610000166 ], [ 20.100761414000033, 44.723415374000069 ], [ 20.095949174000168, 44.717247010000051 ], [ 20.091875076, 44.713352203000113 ], [ 20.088563920000183, 44.710754396000027 ], [ 20.08586692900019, 44.709346772000117 ], [ 20.082256317000088, 44.707847595000146 ], [ 20.080299378000063, 44.706577300000106 ], [ 20.079669953000121, 44.705081940000184 ], [ 20.080142975000172, 44.704128265000065 ], [ 20.081207275000111, 44.70323562599998 ], [ 20.082944870000119, 44.702354432000106 ], [ 20.092065811999987, 44.699401856000065 ], [ 20.09614563000008, 44.697784423000087 ], [ 20.104089738000084, 44.694023132000154 ], [ 20.108747483000116, 44.691547393000064 ] ] ] ] } },
{ "type": "Feature", "properties": { "fid": 129, "GID_2": "SRB.20.4_1", "GID_0": "SRB", "COUNTRY": "Serbia", "GID_1": "SRB.20_1", "NAME_1": "Sremski", "NL_NAME_1": "Сремски", "NAME_2": "Ruma", "VARNAME_2": "NA", "NL_NAME_2": "Рума", "TYPE_2": "Opštine", "ENGTYPE_2": "Town|Municipal", "CC_2": "NA", "HASC_2": "NA" }, "geometry": { "type": "MultiPolygon", "coordinates": [ [ [ [ 19.832630157000153, 44.691131591000101 ], [ 19.828708649000021, 44.695369720000031 ], [ 19.823646546000134, 44.699882507000098 ], [ 19.805572510000047, 44.713298798000039 ], [ 19.802867890000073, 44.715492247999975 ], [ 19.796316146000152, 44.721775055000194 ], [ 19.793825149000156, 44.723815918000184 ], [ 19.785690308000085, 44.729644775999986 ], [ 19.782968520000111, 44.73129653899997 ], [ 19.777818679000063, 44.733638763000158 ], [ 19.768188477000137, 44.736251831000175 ], [ 19.765060424000012, 44.736648559000173 ], [ 19.761865616000023, 44.736759187000075 ], [ 19.758684158000051, 44.736614228000064 ], [ 19.755603790000066, 44.736171722000051 ], [ 19.748588562000123, 44.734180451000043 ], [ 19.739641190000043, 44.73131561200006 ], [ 19.737550735000184, 44.730785370000035 ], [ 19.73379516600005, 44.73021698000008 ], [ 19.725839616000144, 44.729827882000052 ], [ 19.709461213000054, 44.729820252000138 ], [ 19.701360703000034, 44.73013687200006 ], [ 19.697448730000076, 44.73062515200013 ], [ 19.69262886000007, 44.731948854000052 ], [ 19.689689637000185, 44.733299255000134 ], [ 19.68404960700019, 44.736732482999969 ], [ 19.670545577000155, 44.746242524000195 ], [ 19.669242859, 44.747520446000067 ], [ 19.667594909000115, 44.749916076000034 ], [ 19.666667938000046, 44.752605439000035 ], [ 19.666074753000089, 44.758396148000031 ], [ 19.66610908399997, 44.782184601000154 ], [ 19.667001724000158, 44.78784942599998 ], [ 19.668077469000082, 44.790931703000012 ], [ 19.668670654000039, 44.793697357000099 ], [ 19.669347763000189, 44.814086915000132 ], [ 19.673309327000027, 44.828880311000034 ], [ 19.676103592000061, 44.833858490000068 ], [ 19.683025360000045, 44.843421935000094 ], [ 19.687887192000176, 44.848781586000086 ], [ 19.693124770000111, 44.855442048000157 ], [ 19.697942734000094, 44.860828401000049 ], [ 19.706701279000129, 44.872379304000162 ], [ 19.710510254999974, 44.875926971000183 ], [ 19.715713501000096, 44.879783631000066 ], [ 19.722085952000043, 44.883918763000054 ], [ 19.732404708000104, 44.890037537000069 ], [ 19.738534927999979, 44.88506698600014 ], [ 19.740936278000106, 44.883476257000041 ], [ 19.743391038000141, 44.882183076000047 ], [ 19.74587249700005, 44.881343842000092 ], [ 19.748001099000135, 44.881107331000123 ], [ 19.75004959000006, 44.881317137999986 ], [ 19.752841949000072, 44.882366180000133 ], [ 19.759042739000108, 44.885845185000107 ], [ 19.762132644000076, 44.887168885000051 ], [ 19.77233123700006, 44.890048980000017 ], [ 19.774549483000101, 44.890865326000096 ], [ 19.777296067000179, 44.892322541000112 ], [ 19.779438020000043, 44.894180298000094 ], [ 19.789474488000167, 44.906394958000192 ], [ 19.792545319000169, 44.911136628000122 ], [ 19.79524421800005, 44.917568207000159 ], [ 19.799013137000088, 44.923336030000144 ], [ 19.799900056000183, 44.925922394000111 ], [ 19.800323486000025, 44.92864227299998 ], [ 19.800331116000166, 44.934181213000159 ], [ 19.799886703000084, 44.936866761000147 ], [ 19.798894882000127, 44.93936920100009 ], [ 19.797145844000056, 44.941448211000136 ], [ 19.794622421000042, 44.943122864000088 ], [ 19.792545319000169, 44.944129944000053 ], [ 19.786376953000115, 44.946712495000156 ], [ 19.765544891000047, 44.954006195000034 ], [ 19.758459092000066, 44.956104278000169 ], [ 19.74922943200005, 44.958003999000027 ], [ 19.745159149000187, 44.959403992000148 ], [ 19.740818023000145, 44.961227418000021 ], [ 19.738115311000172, 44.962768555000082 ], [ 19.73312187200014, 44.966838836000193 ], [ 19.730646133000164, 44.9679489130001 ], [ 19.72771835400016, 44.96866989200015 ], [ 19.724248886000112, 44.969089509000128 ], [ 19.701822280000101, 44.969615936000082 ], [ 19.698274612000034, 44.969955444000107 ], [ 19.694976807000103, 44.970630646000188 ], [ 19.686649322000051, 44.97369384700005 ], [ 19.679565430000139, 44.975883484000121 ], [ 19.673366547000171, 44.977336883000078 ], [ 19.668737412000041, 44.97892761200012 ], [ 19.666074753000089, 44.980426787999988 ], [ 19.663888930000155, 44.982212066000102 ], [ 19.661373137999988, 44.985397338000041 ], [ 19.660360337000157, 44.987636566000049 ], [ 19.660289764000083, 44.988887787000124 ], [ 19.6612854010001, 44.990661622000061 ], [ 19.663448334000122, 44.992023468000127 ], [ 19.66596794000003, 44.992923736000193 ], [ 19.669935226, 44.993877410000039 ], [ 19.672988892000092, 44.994094848000088 ], [ 19.682697297000175, 44.993961334000062 ], [ 19.686431884000172, 44.994148255000141 ], [ 19.689983368000071, 44.994670868000128 ], [ 19.693996428999981, 44.995967866000171 ], [ 19.697799681999982, 44.997924805000139 ], [ 19.699327468000092, 44.999362945000144 ], [ 19.700227738000024, 45.000999450999984 ], [ 19.700304032000076, 45.003379823000159 ], [ 19.697795869000117, 45.011177063000105 ], [ 19.696361542000034, 45.019641877000083 ], [ 19.695497514000124, 45.022342682000158 ], [ 19.691213608000055, 45.03047943100006 ], [ 19.690441132000103, 45.033008576000157 ], [ 19.69002914500004, 45.035644532000106 ], [ 19.689252854000188, 45.046421052000028 ], [ 19.688795090000156, 45.048999786000081 ], [ 19.687963486000058, 45.051406861000032 ], [ 19.68655014, 45.053699494000114 ], [ 19.685024260999967, 45.055549622000058 ], [ 19.683998108000083, 45.057323456000063 ], [ 19.683946610000078, 45.058147430000076 ], [ 19.684642793000023, 45.059806825000123 ], [ 19.689453126000046, 45.065074921000075 ], [ 19.69087982200017, 45.067031861000032 ], [ 19.691770554000129, 45.069194794000168 ], [ 19.692228318000161, 45.07147216900006 ], [ 19.69250488400013, 45.075420379000036 ], [ 19.692962647000115, 45.077735902000086 ], [ 19.694963456000153, 45.081619262 ], [ 19.697006225000166, 45.083881378000171 ], [ 19.699409485000047, 45.085914613000057 ], [ 19.702733993000152, 45.088237762000176 ], [ 19.702539444000138, 45.097652436000033 ], [ 19.7027626040001, 45.099571228000173 ], [ 19.703111648000061, 45.100025177000134 ], [ 19.703786850000142, 45.100296022000123 ], [ 19.707923889000028, 45.10068130500008 ], [ 19.711086274000138, 45.101539613000057 ], [ 19.714223861000107, 45.099155426000038 ], [ 19.715425490000143, 45.097316742000146 ], [ 19.715789795000035, 45.096122742000148 ], [ 19.715408325000055, 45.095016480000083 ], [ 19.713357926000128, 45.092899323000154 ], [ 19.712350846000163, 45.089939116999972 ], [ 19.709587097000167, 45.085769654000046 ], [ 19.711107253000023, 45.084098816 ], [ 19.715866088000041, 45.08009338300019 ], [ 19.717304231000071, 45.077735902000086 ], [ 19.717586516999972, 45.076087952000137 ], [ 19.71731948900009, 45.074459075999982 ], [ 19.716125488000159, 45.072273254000152 ], [ 19.712762833000056, 45.068115234 ], [ 19.711534500000084, 45.066013336000026 ], [ 19.711162568000077, 45.063964844000168 ], [ 19.711580277000053, 45.061954498000091 ], [ 19.713098526000181, 45.059730531000014 ], [ 19.715282441000113, 45.057918549000192 ], [ 19.722793578000164, 45.052837373000102 ], [ 19.726192475000119, 45.051044464000142 ], [ 19.72812652500005, 45.049499512000011 ], [ 19.728841781000085, 45.048248291000164 ], [ 19.729125976999967, 45.046890259000065 ], [ 19.728992461000132, 45.044197083000142 ], [ 19.729639054000074, 45.039299011000082 ], [ 19.729656220000095, 45.037181854000153 ], [ 19.729160309000179, 45.035064698000099 ], [ 19.726305008000054, 45.030132294000055 ], [ 19.722068787000126, 45.024417877000189 ], [ 19.721220017000064, 45.022197725000183 ], [ 19.720794677000072, 45.019874573000152 ], [ 19.720869065000159, 45.015186311000036 ], [ 19.721424104000164, 45.012981415000183 ], [ 19.722524643000042, 45.010963441 ], [ 19.724266052000132, 45.009399415000132 ], [ 19.726016999000137, 45.008674621000182 ], [ 19.728069305000133, 45.008247376000099 ], [ 19.731077194000022, 45.008022308000136 ], [ 19.734195710000165, 45.008144378999987 ], [ 19.737237930000163, 45.008644105000144 ], [ 19.73925590500005, 45.009262086000035 ], [ 19.743116377999968, 45.011051178000059 ], [ 19.744798659000026, 45.012241363000044 ], [ 19.746074676000148, 45.013668060000043 ], [ 19.746965408000165, 45.015289306000113 ], [ 19.747682572000144, 45.017910004000044 ], [ 19.747953415000097, 45.020679474000019 ], [ 19.747516632000099, 45.033336639000026 ], [ 19.747814178, 45.035484315000133 ], [ 19.749681473000066, 45.039890289000141 ], [ 19.752227782000148, 45.048770905000083 ], [ 19.755174638000085, 45.053722382000046 ], [ 19.759269715000073, 45.059162140000183 ], [ 19.76077079800001, 45.062461854000162 ], [ 19.762279511000088, 45.06467056300005 ], [ 19.768730162999987, 45.070980072999987 ], [ 19.77167511100015, 45.073402404000149 ], [ 19.774143219000052, 45.074943542000142 ], [ 19.776737213000104, 45.076076507000153 ], [ 19.778692245000059, 45.076507569000114 ], [ 19.780530929000122, 45.0765037540001 ], [ 19.782613754000067, 45.075645447 ], [ 19.783477784000127, 45.074569702000076 ], [ 19.783966064000026, 45.0732269290001 ], [ 19.784185410000077, 45.071205139000142 ], [ 19.783412934000125, 45.066089631000011 ], [ 19.783428192000144, 45.063938141000165 ], [ 19.78461265500016, 45.058116913000106 ], [ 19.784877777000077, 45.055252076000102 ], [ 19.785051345000056, 45.03699874900019 ], [ 19.784547807000138, 45.030586243000187 ], [ 19.784032822000029, 45.028087616000164 ], [ 19.783222199000022, 45.026004791000048 ], [ 19.782516479000094, 45.025020600000062 ], [ 19.781972886000119, 45.024696350000056 ], [ 19.780267716000083, 45.02470398000014 ], [ 19.778877257999966, 45.024250031000122 ], [ 19.777647018000152, 45.023757935000106 ], [ 19.777124404000062, 45.023464204000049 ], [ 19.776695251000035, 45.023113250000165 ], [ 19.776340485000162, 45.022731782000051 ], [ 19.775747299000102, 45.021919252000146 ], [ 19.775327682000125, 45.021072387000117 ], [ 19.775173187000178, 45.020168305000084 ], [ 19.775157929000159, 45.01925277700019 ], [ 19.775245666000046, 45.018379211000024 ], [ 19.775371552000024, 45.017993928000067 ], [ 19.775625229000127, 45.017692566000164 ], [ 19.776063919000023, 45.017517090000013 ], [ 19.777303695000057, 45.017395020000038 ], [ 19.780359268000041, 45.017433167000092 ], [ 19.781507492000173, 45.017417908000027 ], [ 19.781995772000073, 45.017482759000131 ], [ 19.782209397000088, 45.017566680000073 ], [ 19.785440446000166, 45.019824981000113 ], [ 19.789545059000034, 45.019935609000015 ], [ 19.792818069000134, 45.020381927000187 ], [ 19.796770097000092, 45.021339417000036 ], [ 19.802383423000038, 45.023151397 ], [ 19.811891556000091, 45.025165559000072 ], [ 19.816362380000157, 45.026782990000186 ], [ 19.823368073000097, 45.03114318900009 ], [ 19.82747459300009, 45.032840729000043 ], [ 19.829849242000023, 45.033462525000175 ], [ 19.839206696000076, 45.035129548000157 ], [ 19.850412367999979, 45.038288116 ], [ 19.856344223000065, 45.039436340000179 ], [ 19.860372543000153, 45.039958954000042 ], [ 19.863187789000051, 45.03977966400015 ], [ 19.865760803000114, 45.039100647000168 ], [ 19.868288041000142, 45.038120271000082 ], [ 19.873584747000166, 45.035911560000045 ], [ 19.879507064000165, 45.033081055000025 ], [ 19.886995315000092, 45.028785706000178 ], [ 19.891450881000139, 45.027191162000065 ], [ 19.900522231000025, 45.024959564000142 ], [ 19.903217315000063, 45.023811340000179 ], [ 19.905656814000054, 45.022174836000147 ], [ 19.908706665000068, 45.019706726000038 ], [ 19.911088944000085, 45.018398284000114 ], [ 19.912939071000096, 45.017940521000185 ], [ 19.91493034400014, 45.017818452000085 ], [ 19.928285599000162, 45.019157410000048 ], [ 19.931409836000114, 45.019664764000083 ], [ 19.941623687000117, 45.022178649000182 ], [ 19.949605941000129, 45.024860382000099 ], [ 19.95259857200017, 45.025375366000105 ], [ 19.960086822000164, 45.025875092000035 ], [ 19.962341308000191, 45.02624130200013 ], [ 19.976606369000024, 45.030647278000174 ], [ 19.985925675000146, 45.034141540000121 ], [ 19.983409882999979, 45.021846771000071 ], [ 19.983411788000069, 45.018211365000184 ], [ 19.983886718000122, 45.016510011000094 ], [ 19.985546113000169, 45.013519288 ], [ 19.987367631000097, 45.009185790000117 ], [ 19.989212037000129, 45.006904603000123 ], [ 19.993629456000122, 45.003383636000194 ], [ 19.995130539000058, 44.998252868 ], [ 19.997291566000058, 44.995300294000174 ], [ 19.999050141000168, 44.99364089900007 ], [ 20.001882553000087, 44.988956452000025 ], [ 20.002775193000048, 44.986701966000169 ], [ 20.00318908700018, 44.984546661000081 ], [ 20.003179549000095, 44.982452392000084 ], [ 20.002733231000093, 44.980476380000027 ], [ 20.002008439000178, 44.978912354000101 ], [ 19.998376847000088, 44.97226715000005 ], [ 19.996728897000139, 44.965446473000156 ], [ 19.995901108000112, 44.963260651000155 ], [ 19.991800308000109, 44.957553863000101 ], [ 19.991060255999969, 44.955516815000124 ], [ 19.990713120000066, 44.953338623000036 ], [ 19.990718843000082, 44.948677062000058 ], [ 19.991531371000178, 44.943618775000175 ], [ 19.993099212000118, 44.937938691 ], [ 19.985872268000094, 44.934940338 ], [ 19.982656480000117, 44.933330536000028 ], [ 19.975309371000151, 44.929061890000185 ], [ 19.972023009000054, 44.927875520000043 ], [ 19.969659806000152, 44.927371979000043 ], [ 19.957447051000145, 44.925968171000079 ], [ 19.953060151000102, 44.925189972000055 ], [ 19.940973282000186, 44.924026490000074 ], [ 19.937116623000065, 44.923370361000082 ], [ 19.928960801000073, 44.920909881000057 ], [ 19.925083160000099, 44.92027282600003 ], [ 19.912876130000143, 44.919086456000116 ], [ 19.908060074000105, 44.917827607000106 ], [ 19.905101776000095, 44.916561127000136 ], [ 19.896642685000188, 44.912155151000093 ], [ 19.889682771000025, 44.90906143300009 ], [ 19.887300492000179, 44.907356263000054 ], [ 19.885343552000109, 44.905384064000032 ], [ 19.883558274000166, 44.902725219000047 ], [ 19.883106232000046, 44.900764465000179 ], [ 19.883359909000035, 44.898872375999986 ], [ 19.884365082000159, 44.897220611000193 ], [ 19.88567352300015, 44.896228790000123 ], [ 19.88989067100016, 44.893898009999987 ], [ 19.89229965100003, 44.89222335900007 ], [ 19.894161223000026, 44.890205384000183 ], [ 19.897842408000031, 44.884292603000063 ], [ 19.899679184000149, 44.882747650000056 ], [ 19.901430129000175, 44.881969452000135 ], [ 19.903459549000047, 44.88140869200015 ], [ 19.913906098000098, 44.879386903000068 ], [ 19.923517226000058, 44.878208160000156 ], [ 19.926324845000124, 44.877674103000118 ], [ 19.928134918000012, 44.877040863000104 ], [ 19.929370880000135, 44.876201631000129 ], [ 19.929843903000119, 44.875221253 ], [ 19.929615022000121, 44.874176026000157 ], [ 19.928468703000192, 44.873004914000035 ], [ 19.92663192700013, 44.87198257600005 ], [ 19.920036316000164, 44.869907378999983 ], [ 19.91645050000011, 44.869396210000104 ], [ 19.91266441300013, 44.869167329000049 ], [ 19.893247605000113, 44.868904114000031 ], [ 19.889572143000123, 44.868488312000125 ], [ 19.887134552000134, 44.8679580700001 ], [ 19.884862900000087, 44.867206574000079 ], [ 19.882154465000099, 44.865848541000105 ], [ 19.879850388000136, 44.864181518000066 ], [ 19.877578736000146, 44.861606597000105 ], [ 19.876699447000135, 44.859565734000114 ], [ 19.875314713000137, 44.853897096000026 ], [ 19.873828888000048, 44.851558685999976 ], [ 19.870212556000126, 44.846931457000039 ], [ 19.866966247, 44.840129853000178 ], [ 19.866792678000138, 44.838756561000082 ], [ 19.867198945000098, 44.837558748000163 ], [ 19.868953705000138, 44.836326600000177 ], [ 19.870697021000126, 44.835811616000058 ], [ 19.87271118100017, 44.835475923000047 ], [ 19.877693176000037, 44.835113525999986 ], [ 19.880668641000113, 44.835285186000192 ], [ 19.886819839000111, 44.83626556500019 ], [ 19.889757157000133, 44.83626556500019 ], [ 19.891805648000059, 44.835968018000187 ], [ 19.896667481000122, 44.834762574000081 ], [ 19.900342941000076, 44.833370209000066 ], [ 19.903436660000182, 44.831661224000186 ], [ 19.904529572, 44.830074310000157 ], [ 19.904603958000109, 44.828273773000092 ], [ 19.903396606000058, 44.826187135000112 ], [ 19.901315689000114, 44.82410431 ], [ 19.893747329000064, 44.817771913000172 ], [ 19.891660691000084, 44.815502167000147 ], [ 19.888065338000047, 44.809829711000134 ], [ 19.88403892600013, 44.805801392000149 ], [ 19.882291794000025, 44.803371431000073 ], [ 19.882028580000053, 44.801975250000112 ], [ 19.882272721000106, 44.800571442000148 ], [ 19.883531570000116, 44.798587799000074 ], [ 19.887735367000175, 44.794895171000064 ], [ 19.88882255599998, 44.793655396000077 ], [ 19.88983345000014, 44.79158782900015 ], [ 19.88966369700006, 44.789356232000159 ], [ 19.888706207000041, 44.78757095300017 ], [ 19.887073516000044, 44.786087036000026 ], [ 19.885408401000063, 44.785305024000138 ], [ 19.878395080000189, 44.783229827000127 ], [ 19.876234055000168, 44.782382965000068 ], [ 19.870630265000159, 44.779411316000107 ], [ 19.863693238, 44.776538849000019 ], [ 19.861600875000022, 44.775344850000124 ], [ 19.860033036000061, 44.773967743000128 ], [ 19.85923767200012, 44.772476196000071 ], [ 19.859247207000124, 44.771652222000114 ], [ 19.859786987000177, 44.770503998000152 ], [ 19.860815048000063, 44.769386291000103 ], [ 19.865667343000041, 44.766094209000016 ], [ 19.87268829400017, 44.762359619000108 ], [ 19.87534141600014, 44.760616302000017 ], [ 19.886980057000073, 44.748828888000162 ], [ 19.89088630700013, 44.745910646000084 ], [ 19.894008636000081, 44.74485397400008 ], [ 19.895896912000183, 44.744155884 ], [ 19.896747589000142, 44.743774413000153 ], [ 19.897493362000148, 44.743339538000157 ], [ 19.898096085000191, 44.742820741000116 ], [ 19.898588181000036, 44.742244721000077 ], [ 19.898994445000085, 44.741638183000191 ], [ 19.899293899000156, 44.741001128000107 ], [ 19.899469375000137, 44.740291595000144 ], [ 19.899528504000102, 44.738849640000126 ], [ 19.89942932200006, 44.738143922000177 ], [ 19.899179458, 44.737483978000057 ], [ 19.898742675000051, 44.73692321700014 ], [ 19.898166656000058, 44.736419678000118 ], [ 19.897512435000181, 44.735965730000032 ], [ 19.896799087000147, 44.735591889000091 ], [ 19.896026611000025, 44.735359191000043 ], [ 19.895233154000152, 44.735324860000162 ], [ 19.894397736000144, 44.735420227000134 ], [ 19.893533706000085, 44.735595703000058 ], [ 19.891788482000095, 44.736106874000029 ], [ 19.890937805000135, 44.736454010000102 ], [ 19.890077592000125, 44.73692321700014 ], [ 19.889255523000031, 44.737453462000019 ], [ 19.88757324200003, 44.738689422000164 ], [ 19.884143829000038, 44.74111938600015 ], [ 19.871952057000101, 44.741317748000029 ], [ 19.868421555000168, 44.741058351000163 ], [ 19.866167069000142, 44.740650177000134 ], [ 19.864408494000031, 44.739974975000052 ], [ 19.863008499000102, 44.738533020000034 ], [ 19.86275863700007, 44.736755372000175 ], [ 19.863489151000067, 44.73503875900019 ], [ 19.873466491000158, 44.721752166000158 ], [ 19.87912750300012, 44.713314056000058 ], [ 19.880739212000151, 44.709606172000065 ], [ 19.882465363000051, 44.702716827000131 ], [ 19.883592605000104, 44.699535370000092 ], [ 19.88403892600013, 44.697181702000194 ], [ 19.884096146000104, 44.694747926000105 ], [ 19.883745193000095, 44.692279815000063 ], [ 19.882877350000115, 44.689834595000093 ], [ 19.881643294000185, 44.687808991000168 ], [ 19.87673187200005, 44.681236268000191 ], [ 19.854530334, 44.68387222400014 ], [ 19.850515365000092, 44.685356141000113 ], [ 19.844940186000031, 44.686954498000091 ], [ 19.832630157000153, 44.691131591000101 ] ] ] ] } },
{ "type": "Feature", "properties": { "fid": 130, "GID_2": "SRB.20.5_1", "GID_0": "SRB", "COUNTRY": "Serbia", "GID_1": "SRB.20_1", "NAME_1": "Sremski", "NL_NAME_1": "Сремски", "NAME_2": "Šid", "VARNAME_2": "NA", "NL_NAME_2": "Шид", "TYPE_2": "Opštine", "ENGTYPE_2": "Town|Municipal", "CC_2": "NA", "HASC_2": "NA" }, "geometry": { "type": "MultiPolygon", "coordinates": [ [ [ [ 19.180461884000181, 44.931819915000176 ], [ 19.179395675000137, 44.931819915000176 ], [ 19.16926193200004, 44.931819915000176 ], [ 19.15875244200015, 44.926197052000077 ], [ 19.14656448400018, 44.918472290000068 ], [ 19.134634017000053, 44.913570405000144 ], [ 19.118766784, 44.91100311200006 ], [ 19.116075515000034, 44.908500672000116 ], [ 19.108758927, 44.901706696000019 ], [ 19.097637176000035, 44.896186830000033 ], [ 19.088094711000167, 44.892818452000029 ], [ 19.084831238000049, 44.891666413 ], [ 19.072423935000131, 44.884204864000026 ], [ 19.059375763, 44.876853944 ], [ 19.033163070000171, 44.870052338 ], [ 18.99973106300007, 44.898433685000043 ], [ 18.990331650000144, 44.906414032000157 ], [ 19.008638381000026, 44.915061951999974 ], [ 19.025743485000078, 44.923145294 ], [ 19.028835297000114, 44.92168045000011 ], [ 19.059404372000131, 44.907192231000124 ], [ 19.061998366000182, 44.90976715100004 ], [ 19.076059342000121, 44.923728943000071 ], [ 19.087682725000036, 44.922821046000195 ], [ 19.091714859000035, 44.922508241000173 ], [ 19.105033875000174, 44.931728363000104 ], [ 19.128013612000188, 44.942886353000119 ], [ 19.149763106000137, 44.950199128000065 ], [ 19.160076142000094, 44.96039199900008 ], [ 19.154264450000085, 44.961887359 ], [ 19.143701552000095, 44.964607238999974 ], [ 19.135549545000117, 44.986061096000071 ], [ 19.116447448000145, 44.98021698000008 ], [ 19.107995987000152, 44.977630616000113 ], [ 19.104379654000127, 44.976524352000069 ], [ 19.101137160000064, 44.97735595600011 ], [ 19.087995529000125, 44.980728149000186 ], [ 19.059324264000111, 44.979091645000096 ], [ 19.056283951000182, 44.978916169000172 ], [ 19.055767059, 44.979701996000074 ], [ 19.054149628000062, 44.982166291000112 ], [ 19.051340104000133, 44.986438752000083 ], [ 19.068433762000097, 44.993827820000035 ], [ 19.083553314000028, 45.001312256000062 ], [ 19.096727371000156, 45.011035919000165 ], [ 19.10125732299997, 45.015823364000028 ], [ 19.104330062000145, 45.019069671000182 ], [ 19.097810744000185, 45.029018402000077 ], [ 19.101116181, 45.044471741000166 ], [ 19.097578048000116, 45.048290253000062 ], [ 19.086933137000187, 45.059772491000103 ], [ 19.082735063000086, 45.076976777000027 ], [ 19.093124390000014, 45.093620301000101 ], [ 19.081663132000131, 45.098659515000122 ], [ 19.079320908000113, 45.112201690000177 ], [ 19.078264236000109, 45.114162444000044 ], [ 19.072807312000123, 45.124294281 ], [ 19.070764542000063, 45.13465118400012 ], [ 19.070125580000138, 45.137893676000033 ], [ 19.074460983000108, 45.152160645000151 ], [ 19.075790405000134, 45.156536102000075 ], [ 19.127986908000139, 45.148689270000091 ], [ 19.136510850000036, 45.150119782000161 ], [ 19.145534516000055, 45.16246414200009 ], [ 19.158861160000072, 45.171451569000055 ], [ 19.167770385000154, 45.179264070000158 ], [ 19.174240113000053, 45.19299316300004 ], [ 19.177650451000147, 45.20352935700015 ], [ 19.177909850000049, 45.20433044400005 ], [ 19.160205617000031, 45.208717135000029 ], [ 19.157963189000156, 45.209273973999984 ], [ 19.153631210000071, 45.210350037000126 ], [ 19.154737165000029, 45.213112412000157 ], [ 19.158924000000127, 45.223568000000171 ], [ 19.159699135000039, 45.223499641000103 ], [ 19.170694352000055, 45.222530365000011 ], [ 19.18411254800003, 45.219303131000174 ], [ 19.196341000000189, 45.212452 ], [ 19.203340530000105, 45.207412719000104 ], [ 19.210239410000156, 45.202442169000051 ], [ 19.220649720000154, 45.192070007000041 ], [ 19.228729249000139, 45.191467284000169 ], [ 19.278408050000166, 45.187747955000191 ], [ 19.276372909000088, 45.196079255000086 ], [ 19.272407531000056, 45.212303163000115 ], [ 19.271640777000073, 45.2154464730001 ], [ 19.277650834000042, 45.213760376000153 ], [ 19.309499741000081, 45.204826355000137 ], [ 19.317235946000096, 45.202655793000133 ], [ 19.33372878900019, 45.176002502000131 ], [ 19.335279464000166, 45.173496247000116 ], [ 19.338003158999982, 45.173030853000171 ], [ 19.343872070000032, 45.172027588000049 ], [ 19.362228394000056, 45.183956147000174 ], [ 19.383613587000127, 45.181743621000066 ], [ 19.400083541000072, 45.165580749000128 ], [ 19.407276153000112, 45.158527375000062 ], [ 19.408622741000102, 45.157459258000074 ], [ 19.411298752000107, 45.155803681000123 ], [ 19.412635804000104, 45.154808044000106 ], [ 19.413236618000042, 45.154270171000064 ], [ 19.414228439000112, 45.153110504000153 ], [ 19.416019440000071, 45.150695801000097 ], [ 19.416521072000023, 45.150131225000109 ], [ 19.417108536000114, 45.149627686000088 ], [ 19.417814254000064, 45.14920806900011 ], [ 19.418600081000022, 45.148841859000186 ], [ 19.423736572000166, 45.146930695000151 ], [ 19.425466538000137, 45.146366121000142 ], [ 19.426326750999976, 45.146156311000027 ], [ 19.427183151000179, 45.14606857400014 ], [ 19.428035736000083, 45.146148683000092 ], [ 19.428874970000095, 45.146358490000125 ], [ 19.429698944000052, 45.14664459200003 ], [ 19.430482865000158, 45.146995545000038 ], [ 19.431163788000106, 45.147377013000153 ], [ 19.432441712000127, 45.148227693000194 ], [ 19.434831619000079, 45.150054931 ], [ 19.43662262100014, 45.151790619999986 ], [ 19.448087693000161, 45.16359710800009 ], [ 19.450307847000033, 45.16004562400019 ], [ 19.452331542000024, 45.157444 ], [ 19.457433701000014, 45.152275085000042 ], [ 19.458318710000185, 45.150344850000124 ], [ 19.458482743000161, 45.148254394000162 ], [ 19.457981109000059, 45.146148683000092 ], [ 19.457223891000069, 45.144706726000095 ], [ 19.454278946000045, 45.140434265000181 ], [ 19.44810295100018, 45.129062653 ], [ 19.444862367000098, 45.124629975000062 ], [ 19.443990708, 45.122493745000099 ], [ 19.44401931699997, 45.121582032000049 ], [ 19.44486618000019, 45.119682313000169 ], [ 19.447881698000117, 45.115745544000106 ], [ 19.44899749800004, 45.113204957000164 ], [ 19.449611664000031, 45.110435487000132 ], [ 19.450208665000162, 45.101615906000063 ], [ 19.450080871000068, 45.095703124000067 ], [ 19.44971656700011, 45.09283065700015 ], [ 19.448909759000173, 45.090099334000172 ], [ 19.44815063600015, 45.088611602000185 ], [ 19.445970536000061, 45.085178376000158 ], [ 19.44254493800014, 45.08089828500016 ], [ 19.441553117000069, 45.078903199000081 ], [ 19.441495896, 45.078083039000092 ], [ 19.442485810000051, 45.074619294000115 ], [ 19.441986084000064, 45.072769165000068 ], [ 19.440549850000082, 45.070934296000019 ], [ 19.433534621000035, 45.065841675000115 ], [ 19.429336547000162, 45.060939790000191 ], [ 19.426704406000056, 45.058380128000124 ], [ 19.424249649000103, 45.056613922000167 ], [ 19.421319961000165, 45.055255889000193 ], [ 19.419008255000051, 45.054550171000017 ], [ 19.416553498000042, 45.054046632000052 ], [ 19.412639617000139, 45.053630830000088 ], [ 19.408590317000119, 45.053470613000059 ], [ 19.396226883000168, 45.053516388000048 ], [ 19.383953095000152, 45.053886415000193 ], [ 19.376182556000174, 45.054725647000168 ], [ 19.368978501000186, 45.056110382000099 ], [ 19.366907119000189, 45.056316376000098 ], [ 19.363990785000112, 45.056232452000074 ], [ 19.348913193000158, 45.053180694000162 ], [ 19.34561538600002, 45.052001954000161 ], [ 19.341276168000036, 45.049518585000101 ], [ 19.337902070000098, 45.047084809000182 ], [ 19.333866118000117, 45.042228699000191 ], [ 19.331836701000157, 45.04026794400005 ], [ 19.329227448000154, 45.038677217000156 ], [ 19.324926377000168, 45.036926270000151 ], [ 19.320827485000166, 45.035766601000034 ], [ 19.317731857000183, 45.03540039100011 ], [ 19.314540863000104, 45.035388948000104 ], [ 19.303941726, 45.036628724000025 ], [ 19.300987243000066, 45.036544800000172 ], [ 19.298976898000092, 45.036209106000115 ], [ 19.297269821000157, 45.035564423000153 ], [ 19.295591355000056, 45.034088135000047 ], [ 19.294578552000189, 45.03213501 ], [ 19.29413413900005, 45.029983520000144 ], [ 19.294113160000052, 45.027725219000104 ], [ 19.294500351000181, 45.025470733000077 ], [ 19.29539108300014, 45.023334503000058 ], [ 19.297178269000085, 45.021236420000093 ], [ 19.299747467000032, 45.019538879999971 ], [ 19.304098128000192, 45.017562866999981 ], [ 19.308179855000105, 45.015941619000159 ], [ 19.31814765900009, 45.012508393000132 ], [ 19.322280883000133, 45.010627747000115 ], [ 19.323951721000185, 45.009395600000062 ], [ 19.327526093000188, 45.005867005000027 ], [ 19.329313277000097, 45.003837585000156 ], [ 19.330438615000105, 45.001869202000137 ], [ 19.330993653000178, 45.000415802000134 ], [ 19.331300735000184, 44.998279572000115 ], [ 19.331062317000033, 44.996116638000046 ], [ 19.328563690000124, 44.987937927000189 ], [ 19.326091766000047, 44.982002259000069 ], [ 19.325992584, 44.980083466 ], [ 19.326396943000191, 44.978725433000193 ], [ 19.32743453900008, 44.976818086000037 ], [ 19.329189301000099, 44.974918367000157 ], [ 19.335924149000107, 44.969562531000179 ], [ 19.336906433000024, 44.968116761000147 ], [ 19.337402344000111, 44.966579438 ], [ 19.336471558000028, 44.955074310000043 ], [ 19.33583259500017, 44.952396394000175 ], [ 19.334835053000063, 44.950538634999987 ], [ 19.333280563000073, 44.949245454000049 ], [ 19.331737518000182, 44.948818206000055 ], [ 19.329963685000052, 44.94880676300005 ], [ 19.322553635000133, 44.95056915300006 ], [ 19.319698334000066, 44.950824738000165 ], [ 19.312639236000052, 44.950630189000094 ], [ 19.305809021000073, 44.951095581000061 ], [ 19.303871155000138, 44.950969697000119 ], [ 19.302103042000113, 44.950523376000092 ], [ 19.299934388000111, 44.949234008000133 ], [ 19.297403335000013, 44.946956634000173 ], [ 19.293416978000153, 44.944446564000145 ], [ 19.291639327000041, 44.943649292000089 ], [ 19.28858947700013, 44.942760468000074 ], [ 19.27916908300017, 44.941715241000054 ], [ 19.273227691999978, 44.940582275000111 ], [ 19.27044296300005, 44.940498352000134 ], [ 19.264764785000125, 44.940948487000185 ], [ 19.262680055000089, 44.940723419000051 ], [ 19.26067352300015, 44.940174104000164 ], [ 19.255340576000094, 44.937755585000161 ], [ 19.253240585000128, 44.937126161000094 ], [ 19.251005173000067, 44.936775207000039 ], [ 19.248102189000065, 44.936805726000159 ], [ 19.245857239000145, 44.937213897999982 ], [ 19.243740081999988, 44.937938691 ], [ 19.241226197000117, 44.939350128000171 ], [ 19.23914527900007, 44.941112518000182 ], [ 19.235971451000182, 44.944770814000151 ], [ 19.234048843000096, 44.946220397000104 ], [ 19.232290268000156, 44.94687652500005 ], [ 19.230298995000169, 44.947227479000105 ], [ 19.227449417000116, 44.947299957999974 ], [ 19.224552156000073, 44.946945191000054 ], [ 19.216550826000116, 44.944454194000059 ], [ 19.207332611000083, 44.942596435000098 ], [ 19.205005645000085, 44.941951752000136 ], [ 19.202829360000067, 44.941135406000114 ], [ 19.197257997000122, 44.938293458000146 ], [ 19.195100783000157, 44.937480927000138 ], [ 19.192802428000164, 44.936843873000043 ], [ 19.186849594000023, 44.935684204000097 ], [ 19.184791565000182, 44.935165406000181 ], [ 19.182994843000017, 44.934436798000092 ], [ 19.181001663000131, 44.932811736000076 ], [ 19.180461884000181, 44.931819915000176 ] ] ] ] } },
{ "type": "Feature", "properties": { "fid": 131, "GID_2": "SRB.20.6_1", "GID_0": "SRB", "COUNTRY": "Serbia", "GID_1": "SRB.20_1", "NAME_1": "Sremski", "NL_NAME_1": "Сремски", "NAME_2": "Sremska Mitrovica", "VARNAME_2": "Szávaszentdemeter|Dimitrofçe", "NL_NAME_2": "Сремска Митровица", "TYPE_2": "Opštine", "ENGTYPE_2": "Town|Municipal", "CC_2": "NA", "HASC_2": "NA" }, "geometry": { "type": "MultiPolygon", "coordinates": [ [ [ [ 19.304231644000026, 44.911781311000084 ], [ 19.30028152400007, 44.913047790000121 ], [ 19.284860612000102, 44.914970398000037 ], [ 19.27354812700014, 44.916194915 ], [ 19.26022720300017, 44.919429779000154 ], [ 19.244548798000153, 44.921630860000107 ], [ 19.232944489000033, 44.918827056000111 ], [ 19.222576141000104, 44.913665772000115 ], [ 19.21376800500019, 44.909942627000191 ], [ 19.212900162000039, 44.909576417000039 ], [ 19.200351714000078, 44.913146972000163 ], [ 19.197742462000178, 44.919567108000081 ], [ 19.193201064000107, 44.927268982000157 ], [ 19.181962967000118, 44.931819915000176 ], [ 19.180461884000181, 44.931819915000176 ], [ 19.181001663000131, 44.932811736000076 ], [ 19.182994843000017, 44.934436798000092 ], [ 19.184791565000182, 44.935165406000181 ], [ 19.186849594000023, 44.935684204000097 ], [ 19.192802428000164, 44.936843873000043 ], [ 19.195100783000157, 44.937480927000138 ], [ 19.197257997000122, 44.938293458000146 ], [ 19.202829360000067, 44.941135406000114 ], [ 19.205005645000085, 44.941951752000136 ], [ 19.207332611000083, 44.942596435000098 ], [ 19.216550826000116, 44.944454194000059 ], [ 19.224552156000073, 44.946945191000054 ], [ 19.227449417000116, 44.947299957999974 ], [ 19.230298995000169, 44.947227479000105 ], [ 19.232290268000156, 44.94687652500005 ], [ 19.234048843000096, 44.946220397000104 ], [ 19.235971451000182, 44.944770814000151 ], [ 19.23914527900007, 44.941112518000182 ], [ 19.241226197000117, 44.939350128000171 ], [ 19.243740081999988, 44.937938691 ], [ 19.245857239000145, 44.937213897999982 ], [ 19.248102189000065, 44.936805726000159 ], [ 19.251005173000067, 44.936775207000039 ], [ 19.253240585000128, 44.937126161000094 ], [ 19.255340576000094, 44.937755585000161 ], [ 19.26067352300015, 44.940174104000164 ], [ 19.262680055000089, 44.940723419000051 ], [ 19.264764785000125, 44.940948487000185 ], [ 19.27044296300005, 44.940498352000134 ], [ 19.273227691999978, 44.940582275000111 ], [ 19.27916908300017, 44.941715241000054 ], [ 19.28858947700013, 44.942760468000074 ], [ 19.291639327000041, 44.943649292000089 ], [ 19.293416978000153, 44.944446564000145 ], [ 19.297403335000013, 44.946956634000173 ], [ 19.299934388000111, 44.949234008000133 ], [ 19.302103042000113, 44.950523376000092 ], [ 19.303871155000138, 44.950969697000119 ], [ 19.305809021000073, 44.951095581000061 ], [ 19.312639236000052, 44.950630189000094 ], [ 19.319698334000066, 44.950824738000165 ], [ 19.322553635000133, 44.95056915300006 ], [ 19.329963685000052, 44.94880676300005 ], [ 19.331737518000182, 44.948818206000055 ], [ 19.333280563000073, 44.949245454000049 ], [ 19.334835053000063, 44.950538634999987 ], [ 19.33583259500017, 44.952396394000175 ], [ 19.336471558000028, 44.955074310000043 ], [ 19.337402344000111, 44.966579438 ], [ 19.336906433000024, 44.968116761000147 ], [ 19.335924149000107, 44.969562531000179 ], [ 19.329189301000099, 44.974918367000157 ], [ 19.32743453900008, 44.976818086000037 ], [ 19.326396943000191, 44.978725433000193 ], [ 19.325992584, 44.980083466 ], [ 19.326091766000047, 44.982002259000069 ], [ 19.328563690000124, 44.987937927000189 ], [ 19.331062317000033, 44.996116638000046 ], [ 19.331300735000184, 44.998279572000115 ], [ 19.330993653000178, 45.000415802000134 ], [ 19.330438615000105, 45.001869202000137 ], [ 19.329313277000097, 45.003837585000156 ], [ 19.327526093000188, 45.005867005000027 ], [ 19.323951721000185, 45.009395600000062 ], [ 19.322280883000133, 45.010627747000115 ], [ 19.31814765900009, 45.012508393000132 ], [ 19.308179855000105, 45.015941619000159 ], [ 19.304098128000192, 45.017562866999981 ], [ 19.299747467000032, 45.019538879999971 ], [ 19.297178269000085, 45.021236420000093 ], [ 19.29539108300014, 45.023334503000058 ], [ 19.294500351000181, 45.025470733000077 ], [ 19.294113160000052, 45.027725219000104 ], [ 19.29413413900005, 45.029983520000144 ], [ 19.294578552000189, 45.03213501 ], [ 19.295591355000056, 45.034088135000047 ], [ 19.297269821000157, 45.035564423000153 ], [ 19.298976898000092, 45.036209106000115 ], [ 19.300987243000066, 45.036544800000172 ], [ 19.303941726, 45.036628724000025 ], [ 19.314540863000104, 45.035388948000104 ], [ 19.317731857000183, 45.03540039100011 ], [ 19.320827485000166, 45.035766601000034 ], [ 19.324926377000168, 45.036926270000151 ], [ 19.329227448000154, 45.038677217000156 ], [ 19.331836701000157, 45.04026794400005 ], [ 19.333866118000117, 45.042228699000191 ], [ 19.337902070000098, 45.047084809000182 ], [ 19.341276168000036, 45.049518585000101 ], [ 19.34561538600002, 45.052001954000161 ], [ 19.348913193000158, 45.053180694000162 ], [ 19.363990785000112, 45.056232452000074 ], [ 19.366907119000189, 45.056316376000098 ], [ 19.368978501000186, 45.056110382000099 ], [ 19.376182556000174, 45.054725647000168 ], [ 19.383953095000152, 45.053886415000193 ], [ 19.396226883000168, 45.053516388000048 ], [ 19.408590317000119, 45.053470613000059 ], [ 19.412639617000139, 45.053630830000088 ], [ 19.416553498000042, 45.054046632000052 ], [ 19.419008255000051, 45.054550171000017 ], [ 19.421319961000165, 45.055255889000193 ], [ 19.424249649000103, 45.056613922000167 ], [ 19.426704406000056, 45.058380128000124 ], [ 19.429336547000162, 45.060939790000191 ], [ 19.433534621000035, 45.065841675000115 ], [ 19.440549850000082, 45.070934296000019 ], [ 19.441986084000064, 45.072769165000068 ], [ 19.442485810000051, 45.074619294000115 ], [ 19.441495896, 45.078083039000092 ], [ 19.441553117000069, 45.078903199000081 ], [ 19.44254493800014, 45.08089828500016 ], [ 19.445970536000061, 45.085178376000158 ], [ 19.44815063600015, 45.088611602000185 ], [ 19.448909759000173, 45.090099334000172 ], [ 19.44971656700011, 45.09283065700015 ], [ 19.450080871000068, 45.095703124000067 ], [ 19.450208665000162, 45.101615906000063 ], [ 19.449611664000031, 45.110435487000132 ], [ 19.44899749800004, 45.113204957000164 ], [ 19.447881698000117, 45.115745544000106 ], [ 19.44486618000019, 45.119682313000169 ], [ 19.44401931699997, 45.121582032000049 ], [ 19.443990708, 45.122493745000099 ], [ 19.444862367000098, 45.124629975000062 ], [ 19.44810295100018, 45.129062653 ], [ 19.454278946000045, 45.140434265000181 ], [ 19.457223891000069, 45.144706726000095 ], [ 19.457981109000059, 45.146148683000092 ], [ 19.458482743000161, 45.148254394000162 ], [ 19.458318710000185, 45.150344850000124 ], [ 19.457433701000014, 45.152275085000042 ], [ 19.452331542000024, 45.157444 ], [ 19.450307847000033, 45.16004562400019 ], [ 19.448087693000161, 45.16359710800009 ], [ 19.447366714000111, 45.164382935000162 ], [ 19.446697235000045, 45.166641236000032 ], [ 19.44711494500018, 45.168426514000146 ], [ 19.448263169000143, 45.170005799000194 ], [ 19.450084687000185, 45.171203614000092 ], [ 19.452299118000042, 45.172088624000082 ], [ 19.457353592000061, 45.173576356000126 ], [ 19.460924149000164, 45.174156188000097 ], [ 19.462432860000035, 45.174095155000145 ], [ 19.464748383000028, 45.173645019 ], [ 19.466871261, 45.172809600000051 ], [ 19.472028732000183, 45.169364929000096 ], [ 19.474199294000186, 45.168445588000111 ], [ 19.476621628000032, 45.167816163000168 ], [ 19.481044770000096, 45.167289734000065 ], [ 19.504005433000145, 45.165725708000139 ], [ 19.504930497000089, 45.165313721000075 ], [ 19.509674072000109, 45.161331177000079 ], [ 19.512508392000143, 45.159584045000088 ], [ 19.514728546000185, 45.158790588000102 ], [ 19.517129898000064, 45.158241272000112 ], [ 19.523786545000064, 45.157234192000089 ], [ 19.526996613000108, 45.156612396000185 ], [ 19.529371262000041, 45.155910493000079 ], [ 19.531547546000184, 45.154987335000101 ], [ 19.538619995000147, 45.15049362200017 ], [ 19.542795181000088, 45.148788452000133 ], [ 19.545225143000039, 45.148208619 ], [ 19.549104691000082, 45.147693635000053 ], [ 19.561096191000161, 45.146968842000035 ], [ 19.564928055000109, 45.14646148800017 ], [ 19.575344086000143, 45.144176483000194 ], [ 19.58981323200004, 45.140476227000079 ], [ 19.600061417000063, 45.13836669900013 ], [ 19.603084563999971, 45.138156891000051 ], [ 19.606103897000139, 45.138347625000165 ], [ 19.620586396000192, 45.141262053999981 ], [ 19.624408723000158, 45.141757965000068 ], [ 19.62838745200014, 45.141986848000101 ], [ 19.640670777000139, 45.142082215000073 ], [ 19.698797226000124, 45.141712190000135 ], [ 19.701568603000169, 45.135623932000158 ], [ 19.703205108000134, 45.131122589000142 ], [ 19.704738617000089, 45.129348756000184 ], [ 19.709182740000188, 45.12638855 ], [ 19.709899902000188, 45.125030518000074 ], [ 19.710231782000108, 45.121059418000129 ], [ 19.710584641000082, 45.120033264000142 ], [ 19.714687348000041, 45.114513398000156 ], [ 19.71488762000007, 45.112377168000137 ], [ 19.713172912000118, 45.107990265000183 ], [ 19.711793900000089, 45.102958679000039 ], [ 19.711086274000138, 45.101539613000057 ], [ 19.707923889000028, 45.10068130500008 ], [ 19.703786850000142, 45.100296022000123 ], [ 19.703111648000061, 45.100025177000134 ], [ 19.7027626040001, 45.099571228000173 ], [ 19.702539444000138, 45.097652436000033 ], [ 19.702733993000152, 45.088237762000176 ], [ 19.699409485000047, 45.085914613000057 ], [ 19.697006225000166, 45.083881378000171 ], [ 19.694963456000153, 45.081619262 ], [ 19.692962647000115, 45.077735902000086 ], [ 19.69250488400013, 45.075420379000036 ], [ 19.692228318000161, 45.07147216900006 ], [ 19.691770554000129, 45.069194794000168 ], [ 19.69087982200017, 45.067031861000032 ], [ 19.689453126000046, 45.065074921000075 ], [ 19.684642793000023, 45.059806825000123 ], [ 19.683946610000078, 45.058147430000076 ], [ 19.683998108000083, 45.057323456000063 ], [ 19.685024260999967, 45.055549622000058 ], [ 19.68655014, 45.053699494000114 ], [ 19.687963486000058, 45.051406861000032 ], [ 19.688795090000156, 45.048999786000081 ], [ 19.689252854000188, 45.046421052000028 ], [ 19.69002914500004, 45.035644532000106 ], [ 19.690441132000103, 45.033008576000157 ], [ 19.691213608000055, 45.03047943100006 ], [ 19.695497514000124, 45.022342682000158 ], [ 19.696361542000034, 45.019641877000083 ], [ 19.697795869000117, 45.011177063000105 ], [ 19.700304032000076, 45.003379823000159 ], [ 19.700227738000024, 45.000999450999984 ], [ 19.699327468000092, 44.999362945000144 ], [ 19.697799681999982, 44.997924805000139 ], [ 19.693996428999981, 44.995967866000171 ], [ 19.689983368000071, 44.994670868000128 ], [ 19.686431884000172, 44.994148255000141 ], [ 19.682697297000175, 44.993961334000062 ], [ 19.672988892000092, 44.994094848000088 ], [ 19.669935226, 44.993877410000039 ], [ 19.66596794000003, 44.992923736000193 ], [ 19.663448334000122, 44.992023468000127 ], [ 19.6612854010001, 44.990661622000061 ], [ 19.660289764000083, 44.988887787000124 ], [ 19.660360337000157, 44.987636566000049 ], [ 19.661373137999988, 44.985397338000041 ], [ 19.663888930000155, 44.982212066000102 ], [ 19.666074753000089, 44.980426787999988 ], [ 19.668737412000041, 44.97892761200012 ], [ 19.673366547000171, 44.977336883000078 ], [ 19.679565430000139, 44.975883484000121 ], [ 19.686649322000051, 44.97369384700005 ], [ 19.694976807000103, 44.970630646000188 ], [ 19.698274612000034, 44.969955444000107 ], [ 19.701822280000101, 44.969615936000082 ], [ 19.724248886000112, 44.969089509000128 ], [ 19.72771835400016, 44.96866989200015 ], [ 19.730646133000164, 44.9679489130001 ], [ 19.73312187200014, 44.966838836000193 ], [ 19.738115311000172, 44.962768555000082 ], [ 19.740818023000145, 44.961227418000021 ], [ 19.745159149000187, 44.959403992000148 ], [ 19.74922943200005, 44.958003999000027 ], [ 19.758459092000066, 44.956104278000169 ], [ 19.765544891000047, 44.954006195000034 ], [ 19.786376953000115, 44.946712495000156 ], [ 19.792545319000169, 44.944129944000053 ], [ 19.794622421000042, 44.943122864000088 ], [ 19.797145844000056, 44.941448211000136 ], [ 19.798894882000127, 44.93936920100009 ], [ 19.799886703000084, 44.936866761000147 ], [ 19.800331116000166, 44.934181213000159 ], [ 19.800323486000025, 44.92864227299998 ], [ 19.799900056000183, 44.925922394000111 ], [ 19.799013137000088, 44.923336030000144 ], [ 19.79524421800005, 44.917568207000159 ], [ 19.792545319000169, 44.911136628000122 ], [ 19.789474488000167, 44.906394958000192 ], [ 19.779438020000043, 44.894180298000094 ], [ 19.777296067000179, 44.892322541000112 ], [ 19.774549483000101, 44.890865326000096 ], [ 19.77233123700006, 44.890048980000017 ], [ 19.762132644000076, 44.887168885000051 ], [ 19.759042739000108, 44.885845185000107 ], [ 19.752841949000072, 44.882366180000133 ], [ 19.75004959000006, 44.881317137999986 ], [ 19.748001099000135, 44.881107331000123 ], [ 19.74587249700005, 44.881343842000092 ], [ 19.743391038000141, 44.882183076000047 ], [ 19.740936278000106, 44.883476257000041 ], [ 19.738534927999979, 44.88506698600014 ], [ 19.732404708000104, 44.890037537000069 ], [ 19.724796295000033, 44.894844055000021 ], [ 19.720804215000157, 44.896888733000083 ], [ 19.718282699000042, 44.897769929 ], [ 19.715650558000107, 44.898368834999985 ], [ 19.712226868000187, 44.898784637000119 ], [ 19.70191764700013, 44.899314881000123 ], [ 19.69861221300016, 44.899700165000183 ], [ 19.696111680000115, 44.900245668000139 ], [ 19.693746567000119, 44.901031495000041 ], [ 19.689901352, 44.902984619000165 ], [ 19.682670593000125, 44.907653810000056 ], [ 19.678812027000049, 44.909801483000194 ], [ 19.676454544000137, 44.910789489000081 ], [ 19.671773910000127, 44.912342072000172 ], [ 19.669471742000042, 44.912815094000052 ], [ 19.666057587000068, 44.912891388000162 ], [ 19.663404465000099, 44.91246795800015 ], [ 19.661069871000052, 44.911762237000062 ], [ 19.659231187000159, 44.910755158000143 ], [ 19.641368865000118, 44.913230896000186 ], [ 19.633380891, 44.913955688000101 ], [ 19.612388612000132, 44.914360047000116 ], [ 19.604257584000038, 44.914257049000071 ], [ 19.600315094000166, 44.914009094999983 ], [ 19.596555710000189, 44.913467407000155 ], [ 19.589525223000123, 44.911487580000028 ], [ 19.572040559000129, 44.905178071000137 ], [ 19.562368393000099, 44.901950837000072 ], [ 19.558256150000091, 44.900909424000133 ], [ 19.555202485000109, 44.900550842000143 ], [ 19.552072526000018, 44.900512695000089 ], [ 19.548950195000089, 44.900775910000107 ], [ 19.541433335000022, 44.90192794900014 ], [ 19.531675340000106, 44.902873993000071 ], [ 19.526487349000092, 44.904003144000171 ], [ 19.520351409000057, 44.906223297999986 ], [ 19.517597198000033, 44.907825470000034 ], [ 19.508422852000137, 44.91400528000014 ], [ 19.506034850999981, 44.915340423000032 ], [ 19.503568650000147, 44.916378021000071 ], [ 19.500526428000114, 44.916973114000029 ], [ 19.499151231000099, 44.91695404100011 ], [ 19.496294022000086, 44.916355133000138 ], [ 19.493444443000101, 44.915306091000048 ], [ 19.489191054000173, 44.913364410000042 ], [ 19.486539839999978, 44.911758422000048 ], [ 19.482576369000071, 44.908683778000182 ], [ 19.477933884000095, 44.904178620000096 ], [ 19.473930359, 44.901386261000084 ], [ 19.47123527500014, 44.900192260000154 ], [ 19.469085694000171, 44.899684906000118 ], [ 19.466888429, 44.899574279000092 ], [ 19.46493721000013, 44.89984130900018 ], [ 19.460842133000142, 44.901084900000114 ], [ 19.45878028900006, 44.901985169000056 ], [ 19.45624733, 44.903598784999986 ], [ 19.454406739000035, 44.905639648000033 ], [ 19.451463699000101, 44.911911012000076 ], [ 19.447488785000189, 44.918201447000115 ], [ 19.444452285000125, 44.924488069000176 ], [ 19.442928314000028, 44.926338196000074 ], [ 19.438940049, 44.92976760900001 ], [ 19.433603287000039, 44.933254242000146 ], [ 19.422073364000084, 44.939159394000058 ], [ 19.419332503000192, 44.940311433000034 ], [ 19.414428711000028, 44.941577912000128 ], [ 19.411254882000037, 44.941905975000168 ], [ 19.408191681000176, 44.941905975000168 ], [ 19.406084060000126, 44.94167709400017 ], [ 19.404262542000026, 44.941215515000067 ], [ 19.402400970000031, 44.939979554000047 ], [ 19.401905059000114, 44.938728332999972 ], [ 19.401947021000069, 44.937267303000056 ], [ 19.40254402100004, 44.935268402000133 ], [ 19.403305054000043, 44.933830261000082 ], [ 19.410827637000125, 44.922260284000174 ], [ 19.411537170000145, 44.920185090000018 ], [ 19.411567689000094, 44.917793275000122 ], [ 19.410724640000069, 44.916152953000108 ], [ 19.409255981000115, 44.914745332000109 ], [ 19.407558441000162, 44.913761139000087 ], [ 19.403867721000154, 44.912506104999977 ], [ 19.40205955600004, 44.912288667000098 ], [ 19.400030136000169, 44.912494659000117 ], [ 19.398097993000079, 44.91314315700015 ], [ 19.394672395000157, 44.915435792000039 ], [ 19.386905671000022, 44.921619415000123 ], [ 19.385183334999965, 44.922637940000129 ], [ 19.383289337000122, 44.923271179000039 ], [ 19.381303786000046, 44.923454285000105 ], [ 19.379520417000037, 44.923213959000122 ], [ 19.377752305000115, 44.922691345000032 ], [ 19.374006272000031, 44.92085266100014 ], [ 19.370971679000036, 44.918148041000165 ], [ 19.366817475000062, 44.913581848000092 ], [ 19.364059448000035, 44.911201476000144 ], [ 19.36149215800009, 44.909759521000126 ], [ 19.359485626000151, 44.909160613000097 ], [ 19.357297896000148, 44.908817292000037 ], [ 19.354211807000127, 44.908672333000027 ], [ 19.351060867, 44.908821107000108 ], [ 19.34795761100014, 44.90927887100014 ], [ 19.33655738900012, 44.91260528700019 ], [ 19.325994492000177, 44.915149689000032 ], [ 19.32275200000015, 44.915630341000053 ], [ 19.319414139000116, 44.915893556000071 ], [ 19.312797546000184, 44.915916441999968 ], [ 19.309741973000087, 44.915637969000159 ], [ 19.307712555000023, 44.915229797000109 ], [ 19.306049347000055, 44.914577484000063 ], [ 19.304534911000189, 44.913047790000121 ], [ 19.304231644000026, 44.911781311000084 ] ] ] ] } },
{ "type": "Feature", "properties": { "fid": 132, "GID_2": "SRB.20.7_1", "GID_0": "SRB", "COUNTRY": "Serbia", "GID_1": "SRB.20_1", "NAME_1": "Sremski", "NL_NAME_1": "Сремски", "NAME_2": "Stara Pazova", "VARNAME_2": "Pazova", "NL_NAME_2": "Стара Пазова", "TYPE_2": "Opštine", "ENGTYPE_2": "Town|Municipal", "CC_2": "NA", "HASC_2": "NA" }, "geometry": { "type": "MultiPolygon", "coordinates": [ [ [ [ 20.277656556000125, 45.082328797 ], [ 20.280815124000185, 45.07283783000014 ], [ 20.282173156999988, 45.070037842000147 ], [ 20.284185409000031, 45.067276002000028 ], [ 20.288112641000112, 45.063846589000093 ], [ 20.29798698400009, 45.058628082000041 ], [ 20.305397033000077, 45.05377197200005 ], [ 20.310146331000112, 45.049999238000169 ], [ 20.312101365000046, 45.047981263000111 ], [ 20.313562393000154, 45.045970916000101 ], [ 20.315303803000177, 45.043033601000161 ], [ 20.316055298000094, 45.04081726000004 ], [ 20.317354201000171, 45.033889770000087 ], [ 20.318071365000151, 45.03166198800011 ], [ 20.322284699000079, 45.023548126000094 ], [ 20.323062896000067, 45.020854950000171 ], [ 20.323495864, 45.015228271000126 ], [ 20.323341369000104, 45.012435913000161 ], [ 20.322116852000136, 45.006790161000026 ], [ 20.32215499900019, 45.001914979000105 ], [ 20.321695327000157, 44.999946595000097 ], [ 20.320171356000117, 44.997745514000144 ], [ 20.31796455500006, 44.995639801000095 ], [ 20.307401657000185, 44.987533570000039 ], [ 20.303850174000047, 44.98514556900011 ], [ 20.301761628000122, 44.984291075999977 ], [ 20.299455643000158, 44.98368454000007 ], [ 20.28987312300012, 44.982521058000088 ], [ 20.286787034000099, 44.981964112000185 ], [ 20.282838821000041, 44.980625152000073 ], [ 20.279077530000109, 44.978656769 ], [ 20.277566909000086, 44.977214814000149 ], [ 20.276666642000123, 44.975585938000052 ], [ 20.276514053000028, 44.973239898000088 ], [ 20.277238846000046, 44.968540193000138 ], [ 20.276863099000138, 44.96709823600014 ], [ 20.275943756000174, 44.965774536000026 ], [ 20.274505616, 44.964630127000135 ], [ 20.270986555999968, 44.962707520000095 ], [ 20.263093949000051, 44.959537506000174 ], [ 20.260307313000055, 44.958145140999989 ], [ 20.258085251000011, 44.95639419600019 ], [ 20.255723953000086, 44.953540803000067 ], [ 20.255033493000155, 44.951538086000028 ], [ 20.254951477000077, 44.949405671000079 ], [ 20.256019592000087, 44.94412231400014 ], [ 20.257629395000151, 44.940589906000071 ], [ 20.258892059000175, 44.939018250000061 ], [ 20.265859603000081, 44.933296204000044 ], [ 20.280910491000157, 44.919307709000179 ], [ 20.258527755000046, 44.915500640000062 ], [ 20.24630165200017, 44.915344238000102 ], [ 20.243125915000064, 44.915103912000063 ], [ 20.238758088000054, 44.914196014000083 ], [ 20.235950469000045, 44.912921907000111 ], [ 20.229930877000072, 44.909488678000173 ], [ 20.22331237700007, 44.906318665000185 ], [ 20.215576172000112, 44.901081085000044 ], [ 20.202701569000055, 44.89382171699998 ], [ 20.200805665000189, 44.892917634000071 ], [ 20.198062896000181, 44.892189025000107 ], [ 20.195026397000049, 44.891811370000028 ], [ 20.187160493000079, 44.891647340000134 ], [ 20.179147720000117, 44.892059327000027 ], [ 20.171005249000075, 44.893051148000097 ], [ 20.168008805000113, 44.893051148000097 ], [ 20.16571045000012, 44.892707825000059 ], [ 20.163545609000153, 44.892078400000116 ], [ 20.161296844000162, 44.891048432000161 ], [ 20.156848908000029, 44.888206481000111 ], [ 20.155040740000175, 44.886383056000113 ], [ 20.154348373000175, 44.88497924800015 ], [ 20.154037476000099, 44.883464814000092 ], [ 20.153734207000127, 44.877532959000177 ], [ 20.153295516000185, 44.87529373100017 ], [ 20.150087356000142, 44.865440369000055 ], [ 20.147031784999967, 44.860153199000138 ], [ 20.135961533000113, 44.844177246000129 ], [ 20.130773543000032, 44.844146728999988 ], [ 20.126586914000086, 44.844440460000044 ], [ 20.122455596, 44.845188140000118 ], [ 20.118341446000159, 44.846687318000193 ], [ 20.114723206000122, 44.848663331000125 ], [ 20.110111237000126, 44.852207184000179 ], [ 20.107416153000088, 44.855541229999972 ], [ 20.105892182000048, 44.85833358900004 ], [ 20.104949951000151, 44.862945557000046 ], [ 20.104337692, 44.864353181000183 ], [ 20.103332520000151, 44.865653992000091 ], [ 20.101297379000073, 44.867229463000115 ], [ 20.09811592, 44.869167329000049 ], [ 20.095949174000168, 44.870914459 ], [ 20.088256836000141, 44.878932954000106 ], [ 20.084243775, 44.884090423000032 ], [ 20.081041335000066, 44.889335632000154 ], [ 20.0798435210001, 44.891483307000158 ], [ 20.077703476000067, 44.896938325000121 ], [ 20.075529099000164, 44.89947891200012 ], [ 20.072649002000162, 44.901615142000082 ], [ 20.070028304000061, 44.90283966200019 ], [ 20.068046569000103, 44.903278350000051 ], [ 20.065946578000023, 44.903415681000126 ], [ 20.063089371000103, 44.903175355000144 ], [ 20.05643654000005, 44.901168823000035 ], [ 20.049234390000152, 44.897907258000089 ], [ 20.047380448000013, 44.897583008000083 ], [ 20.045488357000067, 44.897602081000173 ], [ 20.042829514000061, 44.898250579000148 ], [ 20.040925980000111, 44.89925765900017 ], [ 20.039493561000029, 44.900535584000124 ], [ 20.038738250000108, 44.901981354000043 ], [ 20.039070129000152, 44.903926850000062 ], [ 20.041402818000165, 44.907600403000174 ], [ 20.041793824000024, 44.908992768000189 ], [ 20.041465758000015, 44.911834716000158 ], [ 20.040565491000052, 44.91378784200009 ], [ 20.039583205000156, 44.915111542000034 ], [ 20.036056520000102, 44.918228150000118 ], [ 20.033256531000177, 44.919788360999974 ], [ 20.023061753000036, 44.923919677000072 ], [ 20.007522583000082, 44.93251800500002 ], [ 20.002912522000088, 44.934421539000141 ], [ 19.993099212000118, 44.937938691 ], [ 19.991531371000178, 44.943618775000175 ], [ 19.990718843000082, 44.948677062000058 ], [ 19.990713120000066, 44.953338623000036 ], [ 19.991060255999969, 44.955516815000124 ], [ 19.991800308000109, 44.957553863000101 ], [ 19.995901108000112, 44.963260651000155 ], [ 19.996728897000139, 44.965446473000156 ], [ 19.998376847000088, 44.97226715000005 ], [ 20.002008439000178, 44.978912354000101 ], [ 20.002733231000093, 44.980476380000027 ], [ 20.003179549000095, 44.982452392000084 ], [ 20.00318908700018, 44.984546661000081 ], [ 20.002775193000048, 44.986701966000169 ], [ 20.001882553000087, 44.988956452000025 ], [ 19.999050141000168, 44.99364089900007 ], [ 20.014209748000098, 44.994068147000064 ], [ 20.0336208330001, 44.994274139000083 ], [ 20.040672301000029, 44.994873047000056 ], [ 20.045064927, 44.995639801000095 ], [ 20.048681259000091, 44.996025086000088 ], [ 20.067684174000078, 44.996318817000144 ], [ 20.071384429999966, 44.996517181000058 ], [ 20.074878692000084, 44.997005462 ], [ 20.077121734000059, 44.997623443000066 ], [ 20.079109191999976, 44.998512268000184 ], [ 20.082267760000036, 45.001045226000144 ], [ 20.08465767000007, 45.003704071000129 ], [ 20.094018936000111, 45.016921997999987 ], [ 20.096647261999976, 45.019428253000171 ], [ 20.098203659000092, 45.020416259 ], [ 20.099977493000097, 45.020992279000097 ], [ 20.101877212000034, 45.021102906000067 ], [ 20.104518890000065, 45.020404816000053 ], [ 20.111831665000011, 45.015541078000126 ], [ 20.113937377000184, 45.014633178000167 ], [ 20.116250992, 45.013961792000032 ], [ 20.120088577000047, 45.013351440000179 ], [ 20.124118804000148, 45.013053894000052 ], [ 20.203180313000018, 45.012355804000038 ], [ 20.211158752000188, 45.012722016000112 ], [ 20.21338653700019, 45.013092041000107 ], [ 20.215391158000045, 45.013702392000084 ], [ 20.217863084000157, 45.015155792000087 ], [ 20.220224380000104, 45.017608642000141 ], [ 20.221260071000074, 45.019657135999978 ], [ 20.223257064000052, 45.02558136100015 ], [ 20.224077225000144, 45.029357910000101 ], [ 20.22398948600005, 45.031627654000147 ], [ 20.22348976000012, 45.033866882000154 ], [ 20.222232819000112, 45.036945343000184 ], [ 20.219039917000089, 45.046638490000078 ], [ 20.218891145000043, 45.048763275000113 ], [ 20.219432830000187, 45.050830841000163 ], [ 20.220935821000069, 45.053012849000027 ], [ 20.233755111000107, 45.06480789200009 ], [ 20.238039017000176, 45.068050386000152 ], [ 20.243461609000121, 45.071281433000081 ], [ 20.252050399000041, 45.074920655000085 ], [ 20.264951705999977, 45.079311371000131 ], [ 20.269483566000133, 45.080665589000091 ], [ 20.277656556000125, 45.082328797 ] ] ] ] } }
]
}
