{
"type": "FeatureCollection",
"name": "SSOZ-43",
"crs": { "type": "name", "properties": { "name": "urn:ogc:def:crs:OGC:1.3:CRS84" } },
"features": [
{ "type": "Feature", "properties": { "fid": 129, "GID_2": "HRV.6.9_1", "GID_0": "HRV", "COUNTRY": "Croatia", "GID_1": "HRV.6_1", "NAME_1": "Karlovacka", "NL_NAME_1": "NA", "NAME_2": "Krnjak", "VARNAME_2": "NA", "NL_NAME_2": "NA", "TYPE_2": "Općina", "ENGTYPE_2": "Commune", "CC_2": "NA", "HASC_2": "HR.KA.KR" }, "geometry": { "type": "MultiPolygon", "coordinates": [ [ [ [ 15.544809341000189, 45.286079407000102 ], [ 15.540395736000164, 45.287395477000075 ], [ 15.537092209000093, 45.288974763 ], [ 15.534911157000124, 45.290386200000171 ], [ 15.532849313000042, 45.292469025000116 ], [ 15.530777931000102, 45.296085359000188 ], [ 15.528174401000115, 45.299327851000101 ], [ 15.525693893000039, 45.301372529000162 ], [ 15.521088599000052, 45.304313660000048 ], [ 15.517725944000063, 45.305473329000165 ], [ 15.515283585000077, 45.305793762000121 ], [ 15.507901191000144, 45.306247710000036 ], [ 15.505590438000183, 45.306800843000076 ], [ 15.504506112000172, 45.307308197000111 ], [ 15.503579139000124, 45.307960510000157 ], [ 15.502443313000072, 45.309520721000013 ], [ 15.502200127000037, 45.311096192000093 ], [ 15.502642632000175, 45.312667846000124 ], [ 15.503927230000045, 45.314308168000082 ], [ 15.506657599999983, 45.316356659000064 ], [ 15.509838104000096, 45.318088532000104 ], [ 15.515376091000064, 45.320484162000071 ], [ 15.518044472000156, 45.322299957000098 ], [ 15.518941879000067, 45.323772431000066 ], [ 15.519298553000112, 45.325393677000079 ], [ 15.519183160000068, 45.327877044000161 ], [ 15.518457413000135, 45.331432343000074 ], [ 15.518541335000123, 45.332859040000073 ], [ 15.519179345000168, 45.334163666000165 ], [ 15.519858359000068, 45.33472442700014 ], [ 15.520918846000143, 45.335151672000052 ], [ 15.522456168000133, 45.335296631000062 ], [ 15.524326324000128, 45.335105895000083 ], [ 15.531468391000033, 45.333618165000075 ], [ 15.538440705000141, 45.330841065000186 ], [ 15.54503345400019, 45.329586029000041 ], [ 15.546930313000189, 45.329025268000123 ], [ 15.550353050000126, 45.326824189000149 ], [ 15.552447319000123, 45.326080322000166 ], [ 15.553869248000126, 45.325801849000129 ], [ 15.555412293000131, 45.325763702000074 ], [ 15.556987762, 45.32614898800017 ], [ 15.557698249999987, 45.326545716000112 ], [ 15.558249473000046, 45.327053069999977 ], [ 15.55883884300016, 45.32817459000006 ], [ 15.559239387000048, 45.331737519000058 ], [ 15.561141968000186, 45.337150573000145 ], [ 15.561221122000177, 45.339515687000073 ], [ 15.560446739000156, 45.341842651000036 ], [ 15.556369782000047, 45.348129273000097 ], [ 15.555588722999971, 45.34980011100015 ], [ 15.555010796000033, 45.352306366000107 ], [ 15.554922104000184, 45.355426789000092 ], [ 15.55553913100016, 45.357372284000064 ], [ 15.556682587000068, 45.359024048000094 ], [ 15.55903720800012, 45.361091615000021 ], [ 15.562731743000029, 45.363376617000085 ], [ 15.564350129000161, 45.364646912000126 ], [ 15.565444944999967, 45.365928649000068 ], [ 15.566566468000133, 45.367858887000068 ], [ 15.567148208000106, 45.369533538000155 ], [ 15.56719017000006, 45.370738982000034 ], [ 15.565687179000122, 45.374847412000179 ], [ 15.565554618000078, 45.375965119 ], [ 15.565843582000184, 45.377082825000116 ], [ 15.567036630000132, 45.378410339000027 ], [ 15.567899703000023, 45.378860473000145 ], [ 15.569321632000026, 45.379192353000064 ], [ 15.572450638000078, 45.379333497000175 ], [ 15.586454392000064, 45.379058837 ], [ 15.588535310000111, 45.379356384000062 ], [ 15.589756965, 45.379878998000095 ], [ 15.590760231000047, 45.380641937000064 ], [ 15.59191227000008, 45.382118225 ], [ 15.593891143000121, 45.387454988000059 ], [ 15.59921646000015, 45.398490905000074 ], [ 15.601524353000059, 45.393234254000049 ], [ 15.602990150000096, 45.38903045700016 ], [ 15.603400230999966, 45.386962890000063 ], [ 15.603468895000162, 45.382968903000062 ], [ 15.603784562000101, 45.381114961000151 ], [ 15.604899407000062, 45.379077911000195 ], [ 15.606463432000055, 45.377758026000151 ], [ 15.609279631999982, 45.376544952000131 ], [ 15.61232471500017, 45.376148223000087 ], [ 15.620655060000104, 45.376823425000168 ], [ 15.634272575000182, 45.378787994000106 ], [ 15.637744903000055, 45.378623962000177 ], [ 15.639745712000149, 45.377883912000073 ], [ 15.640505790000134, 45.377292634000185 ], [ 15.64296722500012, 45.373828887000172 ], [ 15.647010803000057, 45.370143892000044 ], [ 15.651060105000056, 45.366016388000105 ], [ 15.652427674000137, 45.361789703000056 ], [ 15.656942368000102, 45.354057313000112 ], [ 15.657468795000057, 45.352565766000112 ], [ 15.657637594999983, 45.350902558000143 ], [ 15.657094002000065, 45.348430634000067 ], [ 15.65597152700019, 45.346729279000101 ], [ 15.653972626000098, 45.344928743000139 ], [ 15.647040366000056, 45.339900970000087 ], [ 15.645006181000099, 45.337547302000189 ], [ 15.643780708, 45.334854126000096 ], [ 15.643772126000044, 45.331901550000055 ], [ 15.646223068000154, 45.325149536000083 ], [ 15.646664618999978, 45.322120667000036 ], [ 15.646341324000161, 45.318054199000187 ], [ 15.64422607400013, 45.312290191000045 ], [ 15.643895149000173, 45.309814453000172 ], [ 15.644033433000061, 45.306091308000077 ], [ 15.645245552000063, 45.300296784000068 ], [ 15.645100593000052, 45.298759462000021 ], [ 15.644041061000166, 45.295032502000026 ], [ 15.643791199000077, 45.292076111000142 ], [ 15.645051956000032, 45.28073120200014 ], [ 15.645361900000125, 45.275985717000026 ], [ 15.645285606000186, 45.272903443000075 ], [ 15.644431114000042, 45.271232605000193 ], [ 15.642601966000029, 45.270034791 ], [ 15.641042710000136, 45.269638062000126 ], [ 15.636747361000118, 45.269340516000057 ], [ 15.634872436000137, 45.268993377000186 ], [ 15.633023262000108, 45.268207550000113 ], [ 15.631509780999977, 45.266902924000135 ], [ 15.630408286999966, 45.264835357000038 ], [ 15.629635811000014, 45.262073518000079 ], [ 15.629099845999974, 45.25605011000016 ], [ 15.628409386000044, 45.254337310000153 ], [ 15.625233650000041, 45.248668672000122 ], [ 15.619509696000023, 45.252628327000082 ], [ 15.615525245000129, 45.255996705000086 ], [ 15.61380004900019, 45.257083894000061 ], [ 15.610931397000172, 45.258453370000041 ], [ 15.609258651000118, 45.259559632000105 ], [ 15.6073637020001, 45.261489868000069 ], [ 15.605314255999986, 45.264362335000158 ], [ 15.603660583000021, 45.265476227000136 ], [ 15.600369454000145, 45.266304016000163 ], [ 15.594932557000163, 45.266929628000071 ], [ 15.584644317000141, 45.267356873000153 ], [ 15.582374573000095, 45.267776490000131 ], [ 15.580533027000115, 45.268642426000042 ], [ 15.575588225999979, 45.272235871000078 ], [ 15.574509620000129, 45.273704529999975 ], [ 15.572601318000125, 45.27780532800017 ], [ 15.571690560000093, 45.282779693000123 ], [ 15.571089745000052, 45.284057618000077 ], [ 15.569364549000113, 45.285438538000108 ], [ 15.565167427000119, 45.287223816 ], [ 15.562192918000108, 45.28914642400008 ], [ 15.5603752130001, 45.289680481000175 ], [ 15.558325767000156, 45.289905549000139 ], [ 15.555041313000174, 45.289848327000186 ], [ 15.552803993000168, 45.289585114000147 ], [ 15.550599097000145, 45.289108277000082 ], [ 15.548503876000098, 45.288314820000039 ], [ 15.544809341000189, 45.286079407000102 ] ] ] ] } },
{ "type": "Feature", "properties": { "fid": 140, "GID_2": "HRV.6.20_1", "GID_0": "HRV", "COUNTRY": "Croatia", "GID_1": "HRV.6_1", "NAME_1": "Karlovacka", "NL_NAME_1": "NA", "NAME_2": "Vojnić", "VARNAME_2": "NA", "NL_NAME_2": "NA", "TYPE_2": "Općina", "ENGTYPE_2": "Commune", "CC_2": "NA", "HASC_2": "HR.KA.VO" }, "geometry": { "type": "MultiPolygon", "coordinates": [ [ [ [ 15.813026429, 45.229953765000175 ], [ 15.811616898000182, 45.224262238000051 ], [ 15.809722900000168, 45.219024658000137 ], [ 15.809223175999989, 45.214275360000102 ], [ 15.808573723, 45.212917329000106 ], [ 15.807051659000024, 45.211437225000054 ], [ 15.805480957999976, 45.210597993000022 ], [ 15.804037092999977, 45.210121156000127 ], [ 15.801380157999972, 45.209789275000105 ], [ 15.79876613600004, 45.210052490000123 ], [ 15.791990281000153, 45.211441040000068 ], [ 15.789903641000137, 45.211421967000035 ], [ 15.787840844000073, 45.211025238000161 ], [ 15.786721229000079, 45.210590363000108 ], [ 15.784844399000065, 45.209400177000077 ], [ 15.781005859000061, 45.205558777000192 ], [ 15.77566623600012, 45.201667785000097 ], [ 15.769133568000143, 45.204486847000112 ], [ 15.762088775000166, 45.206218720000152 ], [ 15.751432418000149, 45.210411072000113 ], [ 15.746870042000126, 45.211700440000072 ], [ 15.744264602000044, 45.212062837000076 ], [ 15.74256420200004, 45.212074280000081 ], [ 15.735510827000041, 45.210754395000038 ], [ 15.732728004000137, 45.210681915000066 ], [ 15.730793953000045, 45.210994721000191 ], [ 15.725921630000073, 45.212284087000114 ], [ 15.719780921999984, 45.212898254000038 ], [ 15.713935850999974, 45.213985444000116 ], [ 15.70567131100006, 45.212993623000045 ], [ 15.698840141000119, 45.213966371000026 ], [ 15.69609260500016, 45.214027404000035 ], [ 15.69455623500005, 45.213844300000176 ], [ 15.691877365000096, 45.212631226000155 ], [ 15.688933372000122, 45.210388183000077 ], [ 15.686536789000172, 45.208873750000123 ], [ 15.684690474999968, 45.208152771000073 ], [ 15.682961464000186, 45.207870483000136 ], [ 15.6803865440001, 45.207973480000078 ], [ 15.674216270000102, 45.209293365000121 ], [ 15.672483444000079, 45.209457397000165 ], [ 15.670738219000043, 45.209403992000091 ], [ 15.664238930000067, 45.208583831 ], [ 15.658506393000096, 45.208782196000186 ], [ 15.656217576000188, 45.209220886000082 ], [ 15.652251243000023, 45.210659028 ], [ 15.65045261400013, 45.21157074100006 ], [ 15.646743775000118, 45.21423721400015 ], [ 15.639558793000049, 45.216968537000128 ], [ 15.636755944000186, 45.217704774000026 ], [ 15.619430542000032, 45.220653534000064 ], [ 15.623021126000083, 45.225116731000185 ], [ 15.624139786000114, 45.22697830300018 ], [ 15.624829293000062, 45.228851318000181 ], [ 15.62523174200004, 45.23572540300006 ], [ 15.62690353500011, 45.242202759000065 ], [ 15.626749992999976, 45.244018554000093 ], [ 15.625233650000041, 45.248668672000122 ], [ 15.628409386000044, 45.254337310000153 ], [ 15.629099845999974, 45.25605011000016 ], [ 15.629635811000014, 45.262073518000079 ], [ 15.630408286999966, 45.264835357000038 ], [ 15.631509780999977, 45.266902924000135 ], [ 15.633023262000108, 45.268207550000113 ], [ 15.634872436000137, 45.268993377000186 ], [ 15.636747361000118, 45.269340516000057 ], [ 15.641042710000136, 45.269638062000126 ], [ 15.642601966000029, 45.270034791 ], [ 15.644431114000042, 45.271232605000193 ], [ 15.645285606000186, 45.272903443000075 ], [ 15.645361900000125, 45.275985717000026 ], [ 15.645051956000032, 45.28073120200014 ], [ 15.643791199000077, 45.292076111000142 ], [ 15.644041061000166, 45.295032502000026 ], [ 15.645100593000052, 45.298759462000021 ], [ 15.645245552000063, 45.300296784000068 ], [ 15.644033433000061, 45.306091308000077 ], [ 15.643895149000173, 45.309814453000172 ], [ 15.64422607400013, 45.312290191000045 ], [ 15.646341324000161, 45.318054199000187 ], [ 15.646664618999978, 45.322120667000036 ], [ 15.646223068000154, 45.325149536000083 ], [ 15.643772126000044, 45.331901550000055 ], [ 15.643780708, 45.334854126000096 ], [ 15.645006181000099, 45.337547302000189 ], [ 15.647040366000056, 45.339900970000087 ], [ 15.653972626000098, 45.344928743000139 ], [ 15.65597152700019, 45.346729279000101 ], [ 15.657094002000065, 45.348430634000067 ], [ 15.657637594999983, 45.350902558000143 ], [ 15.657468795000057, 45.352565766000112 ], [ 15.656942368000102, 45.354057313000112 ], [ 15.652427674000137, 45.361789703000056 ], [ 15.651060105000056, 45.366016388000105 ], [ 15.656760216000123, 45.372932435000109 ], [ 15.66179466300008, 45.37780380300012 ], [ 15.662577629000168, 45.379001617000085 ], [ 15.66296005200013, 45.380485534 ], [ 15.662917138000125, 45.381999970000095 ], [ 15.661664962000089, 45.385536193 ], [ 15.661554336000165, 45.387107849000017 ], [ 15.663865090000058, 45.392192840000064 ], [ 15.664190292000114, 45.394134521000012 ], [ 15.663561821000087, 45.396709442000031 ], [ 15.662079811000012, 45.399074555000027 ], [ 15.657237054000177, 45.404148103000068 ], [ 15.653619767000123, 45.406486512000185 ], [ 15.652613640000084, 45.407478334000189 ], [ 15.651811600000144, 45.409290314000032 ], [ 15.651810647000161, 45.410594940000124 ], [ 15.652126312000064, 45.411918640000067 ], [ 15.652723312000091, 45.413280488000112 ], [ 15.653714179000076, 45.414539337000065 ], [ 15.655818940000074, 45.415950776000045 ], [ 15.657880784000156, 45.416641235999975 ], [ 15.663175582000179, 45.417732239000145 ], [ 15.667709350000166, 45.418933868000181 ], [ 15.670282363000126, 45.419162751000158 ], [ 15.672764779000033, 45.418689729000107 ], [ 15.674245834000089, 45.417995454000163 ], [ 15.67842578900013, 45.41512680000011 ], [ 15.682152749000124, 45.413017273000094 ], [ 15.684936524000022, 45.411891938000167 ], [ 15.687506675000122, 45.411277772000119 ], [ 15.689533233000077, 45.411018372000171 ], [ 15.692835807000165, 45.41109085100004 ], [ 15.694907189000105, 45.411426544 ], [ 15.698068620000129, 45.412258148000092 ], [ 15.7000036230001, 45.412502289000088 ], [ 15.701793670000143, 45.412292482000055 ], [ 15.702689171000088, 45.411987305000139 ], [ 15.704270362999978, 45.411079407000159 ], [ 15.70603084600009, 45.409187317000089 ], [ 15.706695557000103, 45.407604217000028 ], [ 15.707723617000056, 45.403507233000141 ], [ 15.708678244999987, 45.401618957000039 ], [ 15.710317611000107, 45.399288178 ], [ 15.710932732000117, 45.398780824000141 ], [ 15.712462425000126, 45.398036957000159 ], [ 15.714985848000083, 45.397449494000114 ], [ 15.717565536000052, 45.397361755000077 ], [ 15.720155715000033, 45.397838591999971 ], [ 15.725970267999969, 45.399551392000149 ], [ 15.729681969000069, 45.400093078 ], [ 15.738956451000035, 45.400665284000127 ], [ 15.743874549, 45.400199890000124 ], [ 15.746754646, 45.399391175000119 ], [ 15.751282691000142, 45.396629333000021 ], [ 15.758323669000049, 45.393146515000183 ], [ 15.761177062000172, 45.391403198000091 ], [ 15.765692711000099, 45.388111114000026 ], [ 15.762801171000149, 45.385875702000135 ], [ 15.758531571, 45.382129669000108 ], [ 15.757317544000045, 45.380767822000109 ], [ 15.755523682000103, 45.378108978000057 ], [ 15.753087043, 45.375774383000021 ], [ 15.752204894000101, 45.374679567000044 ], [ 15.751681327000085, 45.373455047000164 ], [ 15.751596451000125, 45.372203828000124 ], [ 15.753392220000137, 45.36550521900017 ], [ 15.75409221700005, 45.363929748000146 ], [ 15.755180359, 45.362716674000126 ], [ 15.756614686000148, 45.361892700000169 ], [ 15.759074211000154, 45.361007691 ], [ 15.760512351000102, 45.36025619600008 ], [ 15.761546134000127, 45.359127045000037 ], [ 15.763564109000015, 45.355899812000075 ], [ 15.771232606000126, 45.349849701000153 ], [ 15.772732734000044, 45.348171235 ], [ 15.77341556600004, 45.346679687000062 ], [ 15.774509429000091, 45.341056824000134 ], [ 15.775978088000159, 45.336700440000129 ], [ 15.776773452999976, 45.328937531000065 ], [ 15.777309418000186, 45.327316285 ], [ 15.778533935000155, 45.325481414000194 ], [ 15.779997826000056, 45.323982239000031 ], [ 15.781337737000172, 45.323154450000175 ], [ 15.785652161000087, 45.321636201000047 ], [ 15.789353370000185, 45.320030213000052 ], [ 15.78777790100014, 45.313915252000129 ], [ 15.786425590000022, 45.31156158400006 ], [ 15.785056114000042, 45.310241700000063 ], [ 15.783471107000082, 45.309078218000082 ], [ 15.778974533000053, 45.306522370000039 ], [ 15.777751924000029, 45.305454255000029 ], [ 15.776823998000168, 45.304092407000155 ], [ 15.776187896000124, 45.301708222000116 ], [ 15.776208877000158, 45.299259185000096 ], [ 15.776513100000045, 45.297664643000132 ], [ 15.778002738000168, 45.293540955000026 ], [ 15.77789783500009, 45.291160583000021 ], [ 15.776873588, 45.289054872000179 ], [ 15.77395629800003, 45.285442353000121 ], [ 15.76935863500006, 45.280990601000042 ], [ 15.767616271000122, 45.278881073000093 ], [ 15.766920089000052, 45.277278900000169 ], [ 15.766587258000129, 45.275619507000101 ], [ 15.766735077000021, 45.272300720000032 ], [ 15.767263412000148, 45.270702362000122 ], [ 15.768040656000153, 45.269397736000144 ], [ 15.772830963000104, 45.263465881000059 ], [ 15.774120331, 45.261581422 ], [ 15.776867866999964, 45.25511932400002 ], [ 15.778207780000116, 45.251167297000165 ], [ 15.779250144000173, 45.249687195000092 ], [ 15.780803680000133, 45.248447419000172 ], [ 15.781738281000059, 45.247947693000071 ], [ 15.783876418000148, 45.247257233000141 ], [ 15.786178589000144, 45.246959687000185 ], [ 15.794359207000014, 45.246685029000048 ], [ 15.796483039000066, 45.246330262000072 ], [ 15.798113823000165, 45.245693208000091 ], [ 15.803021431000161, 45.242515564000087 ], [ 15.804099083000153, 45.241619109000112 ], [ 15.806441308000046, 45.238887786000134 ], [ 15.811080932999971, 45.232257843000184 ], [ 15.813049316000047, 45.230045319000112 ], [ 15.813026429, 45.229953765000175 ] ] ] ] } },
{ "type": "Feature", "properties": { "fid": 353, "GID_2": "HRV.15.2_1", "GID_0": "HRV", "COUNTRY": "Croatia", "GID_1": "HRV.15_1", "NAME_1": "Sisacko-Moslavacka", "NL_NAME_1": "NA", "NAME_2": "Dvor", "VARNAME_2": "NA", "NL_NAME_2": "NA", "TYPE_2": "Općina", "ENGTYPE_2": "Commune", "CC_2": "NA", "HASC_2": "HR.SM.DV" }, "geometry": { "type": "MultiPolygon", "coordinates": [ [ [ [ 16.337360382000099, 45.020545960000163 ], [ 16.337133408000113, 45.020130158000086 ], [ 16.335935592000169, 45.017936707000047 ], [ 16.327577591000022, 45.013275147000172 ], [ 16.309316635000073, 45.013267517000031 ], [ 16.284215926000059, 45.016841889000034 ], [ 16.268388747000131, 45.015842437000117 ], [ 16.253036500000064, 45.016231538000056 ], [ 16.24990654100003, 45.016311646000133 ], [ 16.240724563000072, 45.019344331000127 ], [ 16.234754563000081, 45.0213127130001 ], [ 16.23005676300005, 45.027000427000189 ], [ 16.22804260200013, 45.032852174000027 ], [ 16.218343735000076, 45.03699874900019 ], [ 16.202915192000091, 45.042263030000072 ], [ 16.200302124000075, 45.048408508000193 ], [ 16.197628021000071, 45.055732726000087 ], [ 16.191461563000018, 45.060882568000068 ], [ 16.177215577000084, 45.065540313000042 ], [ 16.169998169000166, 45.068931580000083 ], [ 16.16525840700001, 45.075401306000174 ], [ 16.1643943790001, 45.076583863000053 ], [ 16.15548896700011, 45.081340791000173 ], [ 16.143466949000185, 45.084098816 ], [ 16.135028838000039, 45.085178376000158 ], [ 16.127954484000156, 45.086082458000192 ], [ 16.111951829000134, 45.088817597000116 ], [ 16.099073411000177, 45.095188140000062 ], [ 16.098323823000158, 45.095840453000108 ], [ 16.085123062000093, 45.107280732000163 ], [ 16.081264496000074, 45.116847992000032 ], [ 16.08103561300004, 45.11773681700015 ], [ 16.078226089000111, 45.128650666000112 ], [ 16.073665620000156, 45.141101837000178 ], [ 16.074407576999988, 45.148975373000042 ], [ 16.069873810000104, 45.155570984000178 ], [ 16.05408477800006, 45.163887024000076 ], [ 16.042907714000023, 45.173568725999985 ], [ 16.04159546, 45.181201936000093 ], [ 16.027280807000182, 45.184200286000191 ], [ 16.026643754000133, 45.185501099000078 ], [ 16.034675598000149, 45.18777847400014 ], [ 16.038078308000138, 45.18840789800015 ], [ 16.044393539000168, 45.188751222000121 ], [ 16.054679870000086, 45.188537597000163 ], [ 16.060527802000081, 45.188995361000025 ], [ 16.062719345000119, 45.188812257000109 ], [ 16.064233780000109, 45.188114167000094 ], [ 16.065717698000128, 45.186477661000083 ], [ 16.068321227000183, 45.17984771700003 ], [ 16.068586350000032, 45.178153993000024 ], [ 16.06724739200007, 45.17377090500014 ], [ 16.067491531000087, 45.17201233000003 ], [ 16.06880188000008, 45.170379639000032 ], [ 16.071796417000144, 45.168338775000109 ], [ 16.072891236000032, 45.167358399000136 ], [ 16.073793411000167, 45.166141510000102 ], [ 16.075231551000115, 45.163364410000156 ], [ 16.076454163000051, 45.162143708000087 ], [ 16.077375412000151, 45.161678314000085 ], [ 16.079532623000034, 45.161136628000065 ], [ 16.083173751, 45.160873413000047 ], [ 16.089717865000068, 45.160949707000157 ], [ 16.099426270000151, 45.161354065000182 ], [ 16.107391357999973, 45.161266327000021 ], [ 16.115427017000059, 45.161655427000085 ], [ 16.117425918000151, 45.162071229000048 ], [ 16.119092941000133, 45.162792206000063 ], [ 16.1203098310001, 45.16376113900003 ], [ 16.122308732000022, 45.165966034000121 ], [ 16.123537064000061, 45.166973114000143 ], [ 16.126176833000102, 45.168521881000117 ], [ 16.129125594000072, 45.169708252000135 ], [ 16.131124496999973, 45.170013429000107 ], [ 16.134130478000088, 45.16993713300019 ], [ 16.136243820000175, 45.169692994000116 ], [ 16.140796661000024, 45.168754577000186 ], [ 16.142807007000101, 45.168636322000111 ], [ 16.14484214800018, 45.168857575 ], [ 16.147430418999988, 45.169765472000108 ], [ 16.14918136600005, 45.170795441000109 ], [ 16.150333405000026, 45.171890259000122 ], [ 16.151174545000174, 45.173355103000176 ], [ 16.152673722000145, 45.177062989000035 ], [ 16.154743194000162, 45.180057527000145 ], [ 16.156526564999979, 45.18166351300016 ], [ 16.159093856000027, 45.182895660000042 ], [ 16.166057587000068, 45.184646607000104 ], [ 16.168209075000107, 45.185035705000132 ], [ 16.176744460000123, 45.185607910000101 ], [ 16.18034744199997, 45.186069489000033 ], [ 16.182630539000172, 45.186721802000079 ], [ 16.184734345000152, 45.187656403000062 ], [ 16.190605165000079, 45.190902710000159 ], [ 16.195009231000142, 45.19300460900007 ], [ 16.197854995000057, 45.194740294999974 ], [ 16.201271057000042, 45.197353363 ], [ 16.206464767999989, 45.202579498000148 ], [ 16.213201523000066, 45.207954407000159 ], [ 16.215396881000174, 45.209388734000072 ], [ 16.221057892000033, 45.212215424000192 ], [ 16.226339339000162, 45.216701507000039 ], [ 16.228189468000039, 45.217926025999986 ], [ 16.23027801600017, 45.218952180000031 ], [ 16.231441498000152, 45.219345093000072 ], [ 16.23379135100015, 45.21976852500012 ], [ 16.237382889000116, 45.219738007000103 ], [ 16.239519119000136, 45.219356536000078 ], [ 16.249710082000036, 45.216636658000084 ], [ 16.247604371000136, 45.212539674000027 ], [ 16.246606827000051, 45.21000290000012 ], [ 16.246034622000025, 45.207317352000132 ], [ 16.245891571000186, 45.20384597900005 ], [ 16.246221543000104, 45.202236176000156 ], [ 16.247188569, 45.200752259000069 ], [ 16.248703002000184, 45.199848175 ], [ 16.249691009000117, 45.199577332000104 ], [ 16.251722336000057, 45.199481965000075 ], [ 16.253608703999987, 45.199859620000154 ], [ 16.255201339000052, 45.200519561000135 ], [ 16.260316849, 45.203521729000045 ], [ 16.264591217000032, 45.205623627000023 ], [ 16.266021729000045, 45.206542968000178 ], [ 16.267133713000078, 45.207744599000193 ], [ 16.269592285999977, 45.211845399000026 ], [ 16.272914887000184, 45.214672089000146 ], [ 16.275171280000109, 45.217357635000155 ], [ 16.277851105000082, 45.22207641600005 ], [ 16.27897834800018, 45.223175050000179 ], [ 16.2810153960001, 45.224300385000106 ], [ 16.282470702000126, 45.224727630000189 ], [ 16.284301758000083, 45.224899293000135 ], [ 16.286039352000159, 45.224643707000098 ], [ 16.286859513000081, 45.224346162000074 ], [ 16.288702011000112, 45.223056794000172 ], [ 16.290388108000059, 45.22086334200003 ], [ 16.291530609000176, 45.219886781000127 ], [ 16.293056488000047, 45.219089508000195 ], [ 16.294147492000093, 45.218750000000171 ], [ 16.296512605000089, 45.218395233000194 ], [ 16.300218581000138, 45.218532562000121 ], [ 16.302541733000169, 45.219089508000195 ], [ 16.304563522000024, 45.219913482000152 ], [ 16.309671402000049, 45.222522737000133 ], [ 16.311647414000106, 45.223995209000066 ], [ 16.312528610000015, 45.225128174000133 ], [ 16.313531874999967, 45.227020263000099 ], [ 16.314098359000127, 45.229434968000135 ], [ 16.314319610000041, 45.234493255000075 ], [ 16.322431565000045, 45.234344483000029 ], [ 16.329488755000057, 45.233310700000175 ], [ 16.332031250000057, 45.233551026000157 ], [ 16.334396363000053, 45.234344483000029 ], [ 16.337644577000049, 45.237335206000125 ], [ 16.339765549000049, 45.238533020000091 ], [ 16.347362518000068, 45.240505219000113 ], [ 16.35379982000012, 45.243362425999976 ], [ 16.356517792000147, 45.243709565000017 ], [ 16.359752656000069, 45.243553162000126 ], [ 16.361957549000181, 45.243164062000119 ], [ 16.364685059000067, 45.242252349000069 ], [ 16.36758995100007, 45.240966796 ], [ 16.370473861000164, 45.239334107000047 ], [ 16.372913360000098, 45.237438203000181 ], [ 16.37684631400009, 45.232521058000032 ], [ 16.378452302000085, 45.23159408700019 ], [ 16.379505157000096, 45.231258393000132 ], [ 16.381826400000023, 45.230846405000136 ], [ 16.38562011800002, 45.230609894000168 ], [ 16.393594742000118, 45.230873108000139 ], [ 16.397432327000104, 45.231452943000022 ], [ 16.406364440000118, 45.233947755000031 ], [ 16.408298493000189, 45.234210967000138 ], [ 16.410320283000146, 45.234142304000045 ], [ 16.412124635000055, 45.233684540000013 ], [ 16.412847518999968, 45.233310700000175 ], [ 16.415111541999977, 45.231620788000157 ], [ 16.41998481800016, 45.229461670000035 ], [ 16.424917222000033, 45.226356507000048 ], [ 16.427982331000067, 45.224937440000133 ], [ 16.436218262000011, 45.222999572000049 ], [ 16.442604066000115, 45.220371246000184 ], [ 16.444787978000136, 45.219772337999984 ], [ 16.447576524000112, 45.219699860000048 ], [ 16.450288773000068, 45.220512390000124 ], [ 16.46247673, 45.22152710000006 ], [ 16.467575073000035, 45.221481323000091 ], [ 16.471282959000064, 45.221050263000166 ], [ 16.474382400000081, 45.220146180000029 ], [ 16.47810554400013, 45.218322755000088 ], [ 16.48036766000007, 45.21662902800017 ], [ 16.482404708000047, 45.214572907000104 ], [ 16.487752914000055, 45.202095032000045 ], [ 16.486154556000145, 45.199447633000091 ], [ 16.481641770000124, 45.187076569000055 ], [ 16.477401734000182, 45.175861358000134 ], [ 16.474210739, 45.167797090000136 ], [ 16.470802307000099, 45.160228730000085 ], [ 16.461893082000017, 45.153293610000048 ], [ 16.451240540000072, 45.147502899000074 ], [ 16.448966979000147, 45.146450042000083 ], [ 16.43927765, 45.141983033000031 ], [ 16.433366775000081, 45.139255525000181 ], [ 16.43188858100018, 45.138484954000091 ], [ 16.419763565000039, 45.132164003000128 ], [ 16.41491317800012, 45.12970733700007 ], [ 16.410350799000184, 45.127395629000148 ], [ 16.401494980000109, 45.120685577000017 ], [ 16.394811630999982, 45.113262177000081 ], [ 16.392612458000031, 45.105087281000124 ], [ 16.39102745100007, 45.095191955000132 ], [ 16.388059617000181, 45.083595277000029 ], [ 16.38689231800015, 45.075534821000133 ], [ 16.384658813000158, 45.068531036000138 ], [ 16.38458442700005, 45.068298340000069 ], [ 16.372489930000086, 45.057518005000134 ], [ 16.355062484000143, 45.058349609000174 ], [ 16.345878601000095, 45.053215028000125 ], [ 16.343263626, 45.051750182000092 ], [ 16.342132568000068, 45.050609589000146 ], [ 16.336797715000159, 45.045230866000168 ], [ 16.340835572, 45.035167695000041 ], [ 16.339908601000161, 45.02520370600007 ], [ 16.337360382000099, 45.020545960000163 ] ] ] ] } },
{ "type": "Feature", "properties": { "fid": 355, "GID_2": "HRV.15.4_1", "GID_0": "HRV", "COUNTRY": "Croatia", "GID_1": "HRV.15_1", "NAME_1": "Sisacko-Moslavacka", "NL_NAME_1": "NA", "NAME_2": "Gvozd", "VARNAME_2": "NA", "NL_NAME_2": "NA", "TYPE_2": "Općina", "ENGTYPE_2": "Commune", "CC_2": "NA", "HASC_2": "HR.SM.GV" }, "geometry": { "type": "MultiPolygon", "coordinates": [ [ [ [ 15.903452873999981, 45.483562469000105 ], [ 15.908209802000158, 45.480556488000161 ], [ 15.910980224000014, 45.478176117000089 ], [ 15.911149979000129, 45.470478058000083 ], [ 15.912795067, 45.461845399000026 ], [ 15.914035797000167, 45.459243775000061 ], [ 15.920009613000104, 45.451919556 ], [ 15.922386169000049, 45.450080872000115 ], [ 15.927144051000084, 45.447208405000026 ], [ 15.931079864000083, 45.443737030000136 ], [ 15.940479279000158, 45.43785476700009 ], [ 15.941595077000102, 45.436859131000119 ], [ 15.943626404000042, 45.434432984000011 ], [ 15.945261956000024, 45.433113098000092 ], [ 15.94959163600015, 45.431095123000148 ], [ 15.956585884000106, 45.428771974000085 ], [ 15.960266114000149, 45.427169799000126 ], [ 15.965037345000155, 45.424316406000173 ], [ 15.96905231500017, 45.422672271000124 ], [ 15.971788406000144, 45.421283723000158 ], [ 15.97290897400012, 45.420520783000086 ], [ 15.973931312000161, 45.419433594000111 ], [ 15.974463464000166, 45.41754913300008 ], [ 15.973685265000142, 45.415729523000152 ], [ 15.968191147000141, 45.410240172999977 ], [ 15.962870598, 45.406745912000133 ], [ 15.961798668000142, 45.405582428000173 ], [ 15.960947991000182, 45.403896331 ], [ 15.960518838000098, 45.402091981000126 ], [ 15.960275649000152, 45.399280547000046 ], [ 15.960477829000183, 45.391620636000141 ], [ 15.961235047000116, 45.387889863000112 ], [ 15.963249206000057, 45.383316039000192 ], [ 15.951202392000027, 45.378429413000163 ], [ 15.945793153000182, 45.376682281 ], [ 15.943669319000151, 45.37620925900012 ], [ 15.940068245000077, 45.375808717000041 ], [ 15.932812690000105, 45.375366211000028 ], [ 15.925986290000139, 45.374462127000186 ], [ 15.924277305000032, 45.374496460999978 ], [ 15.920775413, 45.374912263000112 ], [ 15.918154716000174, 45.374877931000128 ], [ 15.910305023000035, 45.373394012000176 ], [ 15.907505989000072, 45.372421266000174 ], [ 15.905408858000044, 45.37128830000006 ], [ 15.904252052000061, 45.370388031000061 ], [ 15.90319919500007, 45.368999481000117 ], [ 15.902466773000015, 45.36655807600016 ], [ 15.902609825000127, 45.363258362000181 ], [ 15.903694153000174, 45.36094665600001 ], [ 15.905618668000159, 45.359439850000058 ], [ 15.907270431000143, 45.358818054000153 ], [ 15.912262917000191, 45.35796737600009 ], [ 15.918328286000133, 45.354755401000148 ], [ 15.92483901900016, 45.352886201000047 ], [ 15.928138732999969, 45.352363586000081 ], [ 15.936516761000064, 45.35202789300007 ], [ 15.938805581000054, 45.351768493000122 ], [ 15.941613197000038, 45.350906372999987 ], [ 15.943157197000062, 45.349964141000044 ], [ 15.944564820000096, 45.34840011600005 ], [ 15.945274354000162, 45.346782685000051 ], [ 15.945598602000189, 45.345096588000104 ], [ 15.945668220000073, 45.342548371000191 ], [ 15.94544982900004, 45.340904237000018 ], [ 15.9448785780001, 45.339347839000027 ], [ 15.943614006000075, 45.337963104000153 ], [ 15.942610741000124, 45.337436677000028 ], [ 15.941516875000048, 45.337097168000071 ], [ 15.939199447000135, 45.336788179000166 ], [ 15.935546875000114, 45.336879731000124 ], [ 15.933098793000056, 45.337234497000168 ], [ 15.928263664000099, 45.338386535999973 ], [ 15.922342298999979, 45.339401246000136 ], [ 15.919385911000177, 45.340293885000165 ], [ 15.909242630000165, 45.344417572000054 ], [ 15.907130241000061, 45.344940186000088 ], [ 15.904682159, 45.345260621000079 ], [ 15.897031783000102, 45.345485687 ], [ 15.889281273000108, 45.345191955000075 ], [ 15.884255409000104, 45.344467164000037 ], [ 15.877042771, 45.342666627000028 ], [ 15.882121087000087, 45.339836121000133 ], [ 15.886731148000024, 45.33787918000013 ], [ 15.891456604000041, 45.335620879000032 ], [ 15.895030975000111, 45.334232331000067 ], [ 15.897268294000071, 45.332923890000075 ], [ 15.898796081000057, 45.331096650000063 ], [ 15.900157929000159, 45.326744080000026 ], [ 15.900757790000114, 45.325473786000089 ], [ 15.901721, 45.324489593000067 ], [ 15.903508187000057, 45.323326111000085 ], [ 15.904530525000098, 45.322208404999969 ], [ 15.905058862000033, 45.320732117000034 ], [ 15.905139923000036, 45.319114686000091 ], [ 15.904528617000096, 45.316776276000041 ], [ 15.902421951000065, 45.312644960000171 ], [ 15.901461601, 45.31119918700017 ], [ 15.899573327000098, 45.309539795000035 ], [ 15.890890120999984, 45.305133820000037 ], [ 15.881439210000053, 45.301277160000154 ], [ 15.874775887000055, 45.297485352000137 ], [ 15.871691703000124, 45.296237946000133 ], [ 15.870618820000061, 45.296039582000049 ], [ 15.868467332000023, 45.295963288000166 ], [ 15.867423058000156, 45.296085359000188 ], [ 15.865632057000028, 45.296630860000107 ], [ 15.862027168000111, 45.299037933000079 ], [ 15.859522820000166, 45.300342561000036 ], [ 15.857930183000121, 45.301010132000101 ], [ 15.854039191000027, 45.302181245000099 ], [ 15.852345467000077, 45.302921295000033 ], [ 15.848615647000031, 45.305942535999975 ], [ 15.845828056000016, 45.307243347000053 ], [ 15.842771530000107, 45.307769776000043 ], [ 15.837734222000051, 45.30809020900017 ], [ 15.834705353000174, 45.309036256000184 ], [ 15.831338882000068, 45.310512543000186 ], [ 15.82994174900017, 45.311321258000078 ], [ 15.825730324000176, 45.315113068000073 ], [ 15.821681977000139, 45.317836761000137 ], [ 15.815836906000129, 45.320297241000105 ], [ 15.809777260000033, 45.32225418000013 ], [ 15.807688714000051, 45.322700501000043 ], [ 15.804122925000172, 45.32300567600015 ], [ 15.798081399000182, 45.322795868000185 ], [ 15.794576645000063, 45.322147369999982 ], [ 15.789353370000185, 45.320030213000052 ], [ 15.785652161000087, 45.321636201000047 ], [ 15.781337737000172, 45.323154450000175 ], [ 15.779997826000056, 45.323982239000031 ], [ 15.778533935000155, 45.325481414000194 ], [ 15.777309418000186, 45.327316285 ], [ 15.776773452999976, 45.328937531000065 ], [ 15.775978088000159, 45.336700440000129 ], [ 15.774509429000091, 45.341056824000134 ], [ 15.77341556600004, 45.346679687000062 ], [ 15.772732734000044, 45.348171235 ], [ 15.771232606000126, 45.349849701000153 ], [ 15.763564109000015, 45.355899812000075 ], [ 15.761546134000127, 45.359127045000037 ], [ 15.760512351000102, 45.36025619600008 ], [ 15.759074211000154, 45.361007691 ], [ 15.756614686000148, 45.361892700000169 ], [ 15.755180359, 45.362716674000126 ], [ 15.75409221700005, 45.363929748000146 ], [ 15.753392220000137, 45.36550521900017 ], [ 15.751596451000125, 45.372203828000124 ], [ 15.751681327000085, 45.373455047000164 ], [ 15.752204894000101, 45.374679567000044 ], [ 15.753087043, 45.375774383000021 ], [ 15.755523682000103, 45.378108978000057 ], [ 15.757317544000045, 45.380767822000109 ], [ 15.758531571, 45.382129669000108 ], [ 15.762801171000149, 45.385875702000135 ], [ 15.765692711000099, 45.388111114000026 ], [ 15.769065857000157, 45.387577056000055 ], [ 15.772402763, 45.386318207000102 ], [ 15.775517464000075, 45.385707856000124 ], [ 15.780151366000155, 45.385551454000165 ], [ 15.78785514700013, 45.386051177000184 ], [ 15.790656091000074, 45.38676452600015 ], [ 15.795914650000043, 45.388774872000056 ], [ 15.807991981000043, 45.395889283000088 ], [ 15.809182167000074, 45.396972656000116 ], [ 15.810197829000117, 45.398445130000084 ], [ 15.810669899000061, 45.399742126000092 ], [ 15.810765266000089, 45.401035309000065 ], [ 15.809796333000122, 45.405544281000118 ], [ 15.807739259000073, 45.409923553000112 ], [ 15.807559013000059, 45.411121369000057 ], [ 15.807864190000032, 45.412322998000093 ], [ 15.808755874000099, 45.413707733000194 ], [ 15.811796189000177, 45.417018891000055 ], [ 15.814808845000073, 45.420948030000034 ], [ 15.821378708000168, 45.426464081000177 ], [ 15.823493004000113, 45.42858886800019 ], [ 15.824454307, 45.430217744000117 ], [ 15.824783325000055, 45.431465150000122 ], [ 15.824305535000121, 45.434188843000186 ], [ 15.824286462000089, 45.439292907000038 ], [ 15.824562072000106, 45.440948487000071 ], [ 15.825421333000065, 45.44360351600011 ], [ 15.829175949000046, 45.452800750000108 ], [ 15.83256340000014, 45.459152223000103 ], [ 15.834403991000102, 45.461997986000085 ], [ 15.834678649000068, 45.462768555000025 ], [ 15.834706307000033, 45.464046479000046 ], [ 15.834033013000123, 45.465442658000029 ], [ 15.833380698000042, 45.466102601000159 ], [ 15.831665993, 45.467132569000114 ], [ 15.830642700000169, 45.46747589 ], [ 15.829624177000028, 45.467666627000085 ], [ 15.827586174000032, 45.467731477000143 ], [ 15.825647353000136, 45.467491151000104 ], [ 15.822525024000186, 45.466777802000195 ], [ 15.819862365, 45.466827392000027 ], [ 15.818984985999975, 45.467075349000027 ], [ 15.817589760000033, 45.467918396000016 ], [ 15.816603662000148, 45.469371796000019 ], [ 15.816114426000183, 45.471874237000065 ], [ 15.8158226, 45.480152129000032 ], [ 15.815455435999979, 45.481945038000106 ], [ 15.813932419000025, 45.486675262000176 ], [ 15.813667297000109, 45.489204406000169 ], [ 15.813935279000077, 45.490890503000173 ], [ 15.814691544000027, 45.492507936000152 ], [ 15.816479683000125, 45.494606019000059 ], [ 15.818845749000104, 45.49653625500008 ], [ 15.821824074000062, 45.497600557000055 ], [ 15.828029632000153, 45.498313905000089 ], [ 15.831026078000093, 45.499137879000045 ], [ 15.839838981000185, 45.502979279000101 ], [ 15.848592758000166, 45.505928040000128 ], [ 15.850750922000032, 45.507209777000185 ], [ 15.853483200000142, 45.509525298000028 ], [ 15.854926110000179, 45.510295869000117 ], [ 15.856611252000164, 45.510742188000165 ], [ 15.859256745000096, 45.510700226000097 ], [ 15.863552094000113, 45.509578706000184 ], [ 15.866006852000055, 45.508422852000137 ], [ 15.867058754000027, 45.507266998000034 ], [ 15.86905765500012, 45.504245758000195 ], [ 15.870532988999969, 45.502735138000048 ], [ 15.87168216800012, 45.501922607000097 ], [ 15.874427796000077, 45.501102448000154 ], [ 15.880625724000083, 45.500259399000129 ], [ 15.883214951000184, 45.499202729000103 ], [ 15.885004044000141, 45.497657776999972 ], [ 15.888641357000097, 45.492252351000047 ], [ 15.891987802000131, 45.488071443000138 ], [ 15.893372536000129, 45.486766814000077 ], [ 15.895936012000163, 45.485118867000097 ], [ 15.89794254300017, 45.48431778000014 ], [ 15.900110245000121, 45.483871461000092 ], [ 15.903452873999981, 45.483562469000105 ] ] ] ] } }
]
}
