{
"type": "FeatureCollection",
"name": "Unioni i Komunave Shqiptare te Vardarit Lindor (UKSVL)",
"crs": { "type": "name", "properties": { "name": "urn:ogc:def:crs:OGC:1.3:CRS84" } },
"features": [
{ "type": "Feature", "properties": { "fid": 2, "GID_1": "MKD.2_1", "GID_0": "MKD", "COUNTRY": "North Macedonia", "NAME_1": "Aracinovo", "VARNAME_1": "NA", "NL_NAME_1": "NA", "TYPE_1": "Opština", "ENGTYPE_1": "Municipality", "CC_1": "NA", "HASC_1": "MK.AR", "ISO_1": "MK-802" }, "geometry": { "type": "MultiPolygon", "coordinates": [ [ [ [ 21.540012359000173, 41.987422943000126 ], [ 21.538742065000065, 41.988349916000175 ], [ 21.539064407000069, 41.996128083000087 ], [ 21.540039063000108, 42.005531311000027 ], [ 21.544578553000179, 42.011367797000162 ], [ 21.551712037000129, 42.016231537000067 ], [ 21.552360535000105, 42.020771028000013 ], [ 21.551389695000069, 42.031147004000047 ], [ 21.549442291000048, 42.03892517100013 ], [ 21.548793793000073, 42.044437409000011 ], [ 21.545227051000154, 42.048652649000132 ], [ 21.539390565000076, 42.054813385000045 ], [ 21.538742065000065, 42.05902862500011 ], [ 21.538742065000065, 42.066486360000169 ], [ 21.540950775, 42.070312499000067 ], [ 21.546083451000129, 42.06466674700016 ], [ 21.552822114000037, 42.059051514000146 ], [ 21.559562683000081, 42.05399704000007 ], [ 21.567422866000186, 42.043327332000104 ], [ 21.574722290000182, 42.038837434000072 ], [ 21.591007233000141, 42.036029815000177 ], [ 21.5966243740001, 42.03771209700011 ], [ 21.602800369000136, 42.056243897000115 ], [ 21.60373687800012, 42.059474946000194 ], [ 21.612485885000069, 42.059474946000194 ], [ 21.624387740000088, 42.055274964000148 ], [ 21.632438660000105, 42.051422119000108 ], [ 21.632789612000181, 42.041622162000067 ], [ 21.633550645000184, 42.040096283000025 ], [ 21.627904892000117, 42.036331177000079 ], [ 21.614934922000089, 42.025959016000115 ], [ 21.606504440000094, 42.016880035000042 ], [ 21.594509125000172, 42.005531311000027 ], [ 21.588022231000082, 42.000343323000152 ], [ 21.578945161000092, 41.99969482500012 ], [ 21.569221497000058, 41.997749329000101 ], [ 21.558193206000169, 41.993213654000044 ], [ 21.552036285000099, 41.99061966 ], [ 21.547172547, 41.986080170000093 ], [ 21.542308807000097, 41.985755920000088 ], [ 21.540012359000173, 41.987422943000126 ] ] ] ] } },
{ "type": "Feature", "properties": { "fid": 42, "GID_1": "MKD.43_1", "GID_0": "MKD", "COUNTRY": "North Macedonia", "NAME_1": "Lipkovo", "VARNAME_1": "NA", "NL_NAME_1": "NA", "TYPE_1": "Opština", "ENGTYPE_1": "Municipality", "CC_1": "NA", "HASC_1": "MK.LI", "ISO_1": "MK-704" }, "geometry": { "type": "MultiPolygon", "coordinates": [ [ [ [ 21.481304168000179, 42.260303497000166 ], [ 21.492570876000173, 42.260536193 ], [ 21.511924743, 42.252777099000184 ], [ 21.524267196000096, 42.2433166510001 ], [ 21.53490448000008, 42.238998414000093 ], [ 21.547908784000128, 42.240421295000147 ], [ 21.562494278000031, 42.242721558000142 ], [ 21.578279495000061, 42.248363495000035 ], [ 21.59096908700019, 42.24888992200016 ], [ 21.593921660000149, 42.247520448000046 ], [ 21.60389709500015, 42.242893219000052 ], [ 21.618825912000148, 42.23984527600004 ], [ 21.632968902000073, 42.24174118000002 ], [ 21.649072647000139, 42.241081239000039 ], [ 21.666421890000095, 42.235843658000022 ], [ 21.678848266999978, 42.230129243000192 ], [ 21.679477692000091, 42.209121704000097 ], [ 21.679521561000115, 42.1956443790001 ], [ 21.68337249700005, 42.186546326000041 ], [ 21.6861724850001, 42.17569351200018 ], [ 21.6861724850001, 42.167289734000121 ], [ 21.68442153899997, 42.163440705000085 ], [ 21.678821564000032, 42.161689759000126 ], [ 21.67112159800007, 42.160991668 ], [ 21.664468766000141, 42.157138825000175 ], [ 21.664468766000141, 42.14908981300016 ], [ 21.665168761000018, 42.144538880000141 ], [ 21.664819717000114, 42.13613510100015 ], [ 21.664468766000141, 42.131584168000074 ], [ 21.661317826000186, 42.12983703600014 ], [ 21.656066895000151, 42.130535126000154 ], [ 21.650115966000044, 42.134037018000186 ], [ 21.644165038999972, 42.135437011000135 ], [ 21.639265060000184, 42.134037018000186 ], [ 21.635765076000155, 42.128784179000149 ], [ 21.635765076000155, 42.120033264000028 ], [ 21.635938644000134, 42.111282349000135 ], [ 21.634889602000044, 42.101829529000099 ], [ 21.6306877130001, 42.091678619999982 ], [ 21.623336791000099, 42.086078643 ], [ 21.615985871000078, 42.081176758000083 ], [ 21.607233047000079, 42.077327728000114 ], [ 21.60128212, 42.075225830000079 ], [ 21.598485947000029, 42.068927764000193 ], [ 21.598833084999967, 42.061576843000068 ], [ 21.60373687800012, 42.059474946000194 ], [ 21.602800369000136, 42.056243897000115 ], [ 21.5966243740001, 42.03771209700011 ], [ 21.591007233000141, 42.036029815000177 ], [ 21.574722290000182, 42.038837434000072 ], [ 21.567422866000186, 42.043327332000104 ], [ 21.559562683000081, 42.05399704000007 ], [ 21.552822114000037, 42.059051514000146 ], [ 21.546083451000129, 42.06466674700016 ], [ 21.540950775, 42.070312499000067 ], [ 21.534851075000176, 42.077022553000177 ], [ 21.519689558999971, 42.091060639000148 ], [ 21.510980606000146, 42.101707458000078 ], [ 21.504526139000177, 42.109592437000117 ], [ 21.493997573000172, 42.125034333000031 ], [ 21.482765199000028, 42.134864807000042 ], [ 21.486276626, 42.14188385000017 ], [ 21.494699478000086, 42.14469146700003 ], [ 21.503824232999989, 42.148200989000145 ], [ 21.512950898000099, 42.154518128000177 ], [ 21.515758515000186, 42.167854310000109 ], [ 21.515758515000186, 42.181190490000063 ], [ 21.512248993000014, 42.186809541000059 ], [ 21.503824232999989, 42.188915252000129 ], [ 21.492593765000038, 42.198741912000116 ], [ 21.482063294000113, 42.212078094999981 ], [ 21.480104447000144, 42.219268799000076 ], [ 21.477855682000154, 42.22751998800004 ], [ 21.478557587000012, 42.242965699000194 ], [ 21.476985931, 42.260215760000051 ], [ 21.481304168000179, 42.260303497000166 ] ] ] ] } }
]
}
