{
"type": "FeatureCollection",
"name": "Vardar Makedonya Turk BB",
"crs": { "type": "name", "properties": { "name": "urn:ogc:def:crs:OGC:1.3:CRS84" } },
"features": [
{ "type": "Feature", "properties": { "fid": 13, "GID_1": "MKD.13_1", "GID_0": "MKD", "COUNTRY": "North Macedonia", "NAME_1": "VMTBB", "VARNAME_1": "Centar Zupa", "NL_NAME_1": "NA", "TYPE_1": "Opština", "ENGTYPE_1": "Municipality", "CC_1": "NA", "HASC_1": "MK.CZ", "ISO_1": "NA" }, "geometry": { "type": "MultiPolygon", "coordinates": [ [ [ [ 21.128297806000035, 41.408023835 ], [ 21.11291885300011, 41.412704469000062 ], [ 21.099548339000137, 41.417385101000093 ], [ 21.092193604000101, 41.427413941000111 ], [ 21.088851928000167, 41.432762146000073 ], [ 21.080827712000087, 41.432094575000178 ], [ 21.072139740000125, 41.428749084 ], [ 21.071174622000171, 41.428749084 ], [ 21.064783095000109, 41.428749084 ], [ 21.052749634000179, 41.426074981 ], [ 21.046066283000073, 41.434097289000135 ], [ 21.046066283000073, 41.441452025999979 ], [ 21.044057846000101, 41.450145721000183 ], [ 21.039375305000135, 41.458835601000089 ], [ 21.0400466910001, 41.465522767000039 ], [ 21.042720794000104, 41.469532012000059 ], [ 21.058097839000084, 41.470870972000171 ], [ 21.076150895000069, 41.466800689000081 ], [ 21.07648277300018, 41.466724396000075 ], [ 21.08611106900014, 41.468864441000164 ], [ 21.091459275000147, 41.468864441000164 ], [ 21.101085664000038, 41.469398498000032 ], [ 21.110177995000129, 41.472072601000036 ], [ 21.117666245000123, 41.473678589000031 ], [ 21.124084472000163, 41.476352692000034 ], [ 21.132106780000072, 41.480628967000087 ], [ 21.144409179000036, 41.480628967000087 ], [ 21.14922142000006, 41.477954864000083 ], [ 21.149757385000044, 41.475280762000182 ], [ 21.149757385000044, 41.468864441000164 ], [ 21.149757385000044, 41.462444305000076 ], [ 21.150827407000122, 41.458702087000063 ], [ 21.154571533000137, 41.453887939000026 ], [ 21.160453796000184, 41.449073791000103 ], [ 21.172220230000164, 41.44533157300009 ], [ 21.182382583000162, 41.444259643000066 ], [ 21.192010879000065, 41.439983368000185 ], [ 21.19521904000004, 41.431961059000116 ], [ 21.19521904000004, 41.429145812000172 ], [ 21.194150925000031, 41.428749084 ], [ 21.179708481000034, 41.422332762999986 ], [ 21.167409897000141, 41.419124603000114 ], [ 21.151897430000133, 41.414844512000116 ], [ 21.142803191000041, 41.411636352000073 ], [ 21.135316848000116, 41.407890320999968 ], [ 21.133588792000126, 41.405082702000129 ], [ 21.128297806000035, 41.408023835 ] ] ], [ [ [ 20.530136109000182, 41.435680391 ], [ 20.524553298000171, 41.437767029000042 ], [ 20.515489578000029, 41.442054749000022 ], [ 20.510778427000048, 41.455486299000086 ], [ 20.505603790000123, 41.472927094000113 ], [ 20.501157761000059, 41.482246400000065 ], [ 20.50057601900005, 41.483469010000192 ], [ 20.499994277000042, 41.484691620000092 ], [ 20.50709152200011, 41.488311767000027 ], [ 20.507722854000122, 41.488056183000026 ], [ 20.511486053000169, 41.491386414000146 ], [ 20.534469605000083, 41.499744415000066 ], [ 20.556407928000112, 41.510189057000048 ], [ 20.56789588900017, 41.524814605000131 ], [ 20.591922760000159, 41.524814605000131 ], [ 20.609682082000177, 41.52272415200008 ], [ 20.621173858000134, 41.510189057000048 ], [ 20.627437591000103, 41.491386414000146 ], [ 20.637886048000155, 41.48407363900003 ], [ 20.649377822000133, 41.48407363900003 ], [ 20.656690597000079, 41.466316224000082 ], [ 20.656690597000079, 41.450645447000113 ], [ 20.656690597000079, 41.437065125 ], [ 20.672359466000046, 41.434974669999974 ], [ 20.67837715100012, 41.425521850000166 ], [ 20.672004700000173, 41.420059204000097 ], [ 20.660638810000137, 41.408691406000116 ], [ 20.646598817000154, 41.402675629000157 ], [ 20.617851257000098, 41.40401458700012 ], [ 20.584421158000112, 41.40401458700012 ], [ 20.558456421000187, 41.404430389000083 ], [ 20.559083938000185, 41.404983520000087 ], [ 20.560683227000084, 41.406404556000041 ], [ 20.561531068000136, 41.40715789900014 ], [ 20.562346459000025, 41.407878877000087 ], [ 20.559345246000134, 41.414020538000159 ], [ 20.548879623000062, 41.421474457000045 ], [ 20.546186446999968, 41.425090790000013 ], [ 20.541691781000054, 41.430366516000106 ], [ 20.53448391000012, 41.431957244999978 ], [ 20.530136109000182, 41.435680391 ] ] ] ] } }
]
}
